{"type": "FeatureCollection", "features": [{"type": "Feature", "properties": {"code": "LIP"}, "geometry": {"type": "LineString", "coordinates": [[-114.09338471181417, 51.0293182582455, 1087.634], [-114.09332045166946, 51.02930677571544, 1087.598], [-114.09330484754905, 51.029302706823984, 1087.575], [-114.09328360563134, 51.02929528925048, 1087.566], [-114.09327440128459, 51.029290657881305, 1087.553], [-114.09326881655882, 51.02928534040097, 1087.557], [-114.09326205275042, 51.02927498959602, 1087.555], [-114.09325838199783, 51.02926440258871, 1087.537], [-114.0932573904642, 51.02925337294511, 1087.534], [-114.09325832440945, 51.029242809232436, 1087.509], [-114.0932618435199, 51.02922755979204, 1087.477], [-114.09327197374381, 51.029167895663036, 1087.378], [-114.09328201846107, 51.02910825857007, 1087.266], [-114.09329015067452, 51.029047526251624, 1087.109], [-114.09329288005635, 51.02900106499408, 1087.024], [-114.09329562359832, 51.028954558775965, 1086.987], [-114.09329524970921, 51.0289103384452, 1086.86], [-114.09329253474066, 51.028871657675175, 1086.735], [-114.09328630831986, 51.02881651046733, 1086.64], [-114.09328026241862, 51.02877316666969, 1086.537], [-114.09327119751669, 51.028724314557905, 1086.417], [-114.0932572062162, 51.02867137603538, 1086.321], [-114.09324166211972, 51.02862606206648, 1086.197], [-114.09322442204589, 51.02858095621257, 1086.117], [-114.09320852150076, 51.02854269049519, 1086.031], [-114.09319241383542, 51.02850776014178, 1085.989], [-114.09316979928829, 51.02846255967723, 1085.847], [-114.09314752316865, 51.02842259996875, 1085.795], [-114.09312853010047, 51.02839186113413, 1085.699], [-114.09310268023971, 51.02835407079683, 1085.684], [-114.09304662366307, 51.028281100604, 1085.572], [-114.09301765828117, 51.028246468133844, 1085.425], [-114.09298732532814, 51.02821229522227, 1085.363], [-114.0929267984431, 51.02814924423372, 1085.221], [-114.0928868778692, 51.0281110515059, 1085.134], [-114.09285223109148, 51.02807958790531, 1085.047], [-114.0927857728072, 51.028022942265, 1084.86], [-114.09276186396974, 51.0280003340159, 1084.807], [-114.09274787485786, 51.02799095081837, 1084.756], [-114.09273916000556, 51.0279814285874, 1084.726], [-114.09273395526587, 51.02797353970705, 1084.689], [-114.09272680677662, 51.02795599736499, 1084.624], [-114.09271995553796, 51.027930247134364, 1084.497], [-114.09272020170656, 51.02790358330643, 1084.406], [-114.09272225957743, 51.02789184104515, 1084.362], [-114.09273618037558, 51.02785986240717, 1084.193], [-114.09273973248315, 51.02785397129453, 1084.173], [-114.09275119496233, 51.02784023483174, 1084.092], [-114.09278730235964, 51.02780370773663, 1083.822]]}}, {"type": "Feature", "properties": {"code": "LIP"}, "geometry": {"type": "LineString", "coordinates": [[-114.09314834765985, 51.029082888210795, 1087.255], [-114.09315791883435, 51.02901452244831, 1087.12], [-114.09315891197315, 51.02896236306989, 1087.008]]}}, {"type": "Feature", "properties": {"code": "LIP"}, "geometry": {"type": "LineString", "coordinates": [[-114.09315497916239, 51.02884235290884, 1086.71], [-114.09314889569725, 51.02879443334666, 1086.618]]}}, {"type": "Feature", "properties": {"code": "LIP"}, "geometry": {"type": "LineString", "coordinates": [[-114.09112668153088, 51.02906610703935, 1082.423], [-114.0911490236603, 51.02904596154388, 1082.468], [-114.09118043931728, 51.029022042255775, 1082.515], [-114.09119304048303, 51.029014283250554, 1082.533], [-114.0912080260301, 51.02900839225311, 1082.542], [-114.09123388631674, 51.02900126116751, 1082.558], [-114.091266080928, 51.02899655236469, 1082.538], [-114.09130250319079, 51.02899588564204, 1082.558], [-114.09132890803883, 51.02899746518717, 1082.591], [-114.09135309547234, 51.02900234570151, 1082.589], [-114.09144307089407, 51.02902766241494, 1082.757], [-114.09156959461693, 51.02906556306018, 1083.123], [-114.09169624686606, 51.02910347245718, 1083.507], [-114.09182281369795, 51.029141336835025, 1083.816], [-114.09192759614207, 51.029171163388966, 1084.147], [-114.09203232164381, 51.02920096292439, 1084.451], [-114.0920701616811, 51.02921066902847, 1084.575], [-114.09212420099293, 51.02922269069935, 1084.75], [-114.09225700204941, 51.02924807190577, 1085.094], [-114.09230193678677, 51.0292553540885, 1085.206], [-114.09237563073785, 51.02926519358588, 1085.407], [-114.09246507639507, 51.02927449017915, 1085.701], [-114.09255435119663, 51.02928387673684, 1085.97], [-114.09265871525724, 51.0292893676875, 1086.253], [-114.09276283695674, 51.02929484075782, 1086.438], [-114.0928655788713, 51.02929468724244, 1086.736], [-114.09290783470887, 51.02929537283752, 1086.852], [-114.09292216381809, 51.02929634132881, 1086.841], [-114.09294492280448, 51.0292996314619, 1086.919], [-114.092958871305, 51.02930274880388, 1086.964], [-114.09297202374454, 51.02930699948717, 1086.974], [-114.09299774905112, 51.029317955514806, 1087.081], [-114.09301059395058, 51.02932524497716, 1087.118], [-114.09302197154192, 51.02933305701204, 1087.151], [-114.09303811200455, 51.02934868634475, 1087.287], [-114.09304523141513, 51.029358659309494, 1087.331], [-114.09305051232256, 51.02936888545091, 1087.356], [-114.09305602166968, 51.02938640210494, 1087.321], [-114.09305713257119, 51.02940723049251, 1087.429], [-114.09305316007158, 51.029431038537986, 1087.567]]}}, {"type": "Feature", "properties": {"code": "LIP"}, "geometry": {"type": "LineString", "coordinates": [[-114.09302525306056, 51.02939848186801, 1087.463], [-114.0930197193185, 51.02943287210168, 1087.572]]}}, {"type": "Feature", "properties": {"code": "LIP"}, "geometry": {"type": "LineString", "coordinates": [[-114.09122320045282, 51.02902609922559, 1082.534], [-114.0912490477974, 51.02901963338898, 1082.63], [-114.09127106786765, 51.029017009163184, 1082.685], [-114.09129022531279, 51.029015807551474, 1082.696], [-114.09131699962097, 51.029016775507024, 1082.744], [-114.09134389513278, 51.02902138421438, 1082.79], [-114.09135904250168, 51.02902530089895, 1082.846], [-114.0914316613096, 51.029046891448225, 1082.994], [-114.09150408070991, 51.02906853604701, 1083.234], [-114.09157558539674, 51.029088958710325, 1083.425], [-114.0916470331586, 51.029109399353985, 1083.617], [-114.09176106144542, 51.02914339904449, 1083.881], [-114.09187513277313, 51.02917745252831, 1084.356], [-114.09198911860828, 51.02921144303959, 1084.648], [-114.09204307560555, 51.029225100948985, 1084.812], [-114.09210624375105, 51.02923967751936, 1084.928], [-114.09221279106458, 51.029260674482494, 1085.248], [-114.09228241220202, 51.029272719743275, 1085.434], [-114.09235167315575, 51.029282841438715, 1085.637], [-114.09245164511084, 51.0292948626103, 1085.949], [-114.09251697841346, 51.02930129252372, 1086.075], [-114.09258474461714, 51.02930527525867, 1086.306], [-114.09266370524341, 51.02931102905106, 1086.408], [-114.09276266390613, 51.0293152746182, 1086.72], [-114.09280387951279, 51.02931617683078, 1086.798], [-114.09289270705563, 51.02931569272939, 1086.987], [-114.0929137784278, 51.029316269302655, 1087.074], [-114.09292501470131, 51.02931758186334, 1087.138], [-114.09295653482752, 51.02932487446013, 1087.171], [-114.09297004435355, 51.02932946647046, 1087.201], [-114.09297702231396, 51.02933287702761, 1087.215], [-114.09298692935093, 51.029339593485226, 1087.245], [-114.09299444048445, 51.029345853370806, 1087.278], [-114.0930202103759, 51.0293719481126, 1087.374]]}}, {"type": "Feature", "properties": {"code": "LIP"}, "geometry": {"type": "LineString", "coordinates": [[-114.09269416565746, 51.027743550244246, 1083.759], [-114.09267737987655, 51.027761408234255, 1083.908], [-114.0926434648555, 51.027782174505425, 1084.039], [-114.09262295839054, 51.02779288857646, 1084.03], [-114.0926139679564, 51.02779526899873, 1084.073], [-114.09260584436073, 51.02779627329989, 1084.146], [-114.09255585842277, 51.02780022344552, 1084.21], [-114.0925333356771, 51.027800645820534, 1084.224], [-114.09249575229148, 51.02779760107462, 1084.329], [-114.0924507097724, 51.02779277325515, 1084.119], [-114.09242106235286, 51.02778755567427, 1084.009], [-114.0923705714449, 51.0277813027605, 1083.928], [-114.09232813842588, 51.02777684141142, 1083.816], [-114.09229879780295, 51.02777535430825, 1083.717], [-114.09221849528942, 51.02777450074753, 1083.481], [-114.09216637942089, 51.02777549477573, 1083.249], [-114.09206033165741, 51.02778186220693, 1082.791], [-114.09203372211827, 51.02778456211467, 1082.644], [-114.0919642041284, 51.02779466739484, 1082.384], [-114.09192903320887, 51.02780047548343, 1082.112], [-114.09190284196485, 51.027805656206546, 1082.002], [-114.09186421501288, 51.02781553935539, 1081.831], [-114.09174032346137, 51.02785289923974, 1081.353], [-114.0917032419113, 51.02786576572294, 1081.162], [-114.09162567758348, 51.02789448592152, 1080.701], [-114.09159449051182, 51.027903688915565, 1080.475], [-114.09156673013447, 51.0279083943357, 1080.378], [-114.09152185955035, 51.027911252269654, 1080.14], [-114.09150508048265, 51.0279110586444, 1080.059], [-114.09149239095844, 51.02790996283899, 1079.993], [-114.0914549304202, 51.02790415780545, 1079.868]]}}, {"type": "Feature", "properties": {"code": "LIP"}, "geometry": {"type": "LineString", "coordinates": [[-114.09266933332528, 51.02772955489949, 1083.756], [-114.0926469809022, 51.027751040173186, 1083.979], [-114.09263567677458, 51.027758402759375, 1084.08], [-114.09261437192619, 51.027769072512974, 1084.165]]}}, {"type": "Feature", "properties": {"code": "LIP"}, "geometry": {"type": "LineString", "coordinates": [[-114.09286541020523, 51.02824718253985, 1085.44], [-114.09283635208656, 51.028216002166516, 1085.358], [-114.09280641409552, 51.02818679124222, 1085.287]]}}, {"type": "Feature", "properties": {"code": "LIP"}, "geometry": {"type": "LineString", "coordinates": [[-114.09258641849704, 51.027776960704124, 1084.295], [-114.09255564761244, 51.02778026634153, 1084.398], [-114.0925440452873, 51.02778106662895, 1084.443], [-114.0925343508951, 51.027780714715014, 1084.476], [-114.09251244931228, 51.02777808007517, 1084.529], [-114.09246581202953, 51.027774170479674, 1084.478], [-114.09234961624874, 51.027759923688954, 1084.091], [-114.09231967517685, 51.02775756505861, 1084.034], [-114.09227040418043, 51.027755419458956, 1083.863], [-114.09223654641366, 51.02775484387251, 1083.745], [-114.09214879153625, 51.027755596323125, 1083.386], [-114.09209100613572, 51.02775866243328, 1083.21], [-114.09205427625673, 51.02776186475719, 1083.057], [-114.09199654042384, 51.02776837386029, 1082.865], [-114.0919501245043, 51.02777544937352, 1082.507], [-114.09190358491176, 51.02778487129335, 1082.215], [-114.09185737626646, 51.027795857153016, 1081.978], [-114.09180713866232, 51.0278095520778, 1081.784], [-114.09176284575149, 51.02782335019043, 1081.594], [-114.0916768012361, 51.02785293110893, 1081.125], [-114.09159077083112, 51.02788249397331, 1080.677], [-114.09156988433321, 51.027888587419724, 1080.569], [-114.09155299590527, 51.027890767184076, 1080.501], [-114.09152109302659, 51.02789119671212, 1080.34], [-114.09149607244557, 51.02789005662484, 1080.239], [-114.09147344288695, 51.02788693691316, 1080.143]]}}, {"type": "Feature", "properties": {"code": "LIP"}, "geometry": {"type": "LineString", "coordinates": [[-114.09255181311985, 51.02796649228907, 1084.451], [-114.09260338078737, 51.02800506246336, 1084.592], [-114.0926340639144, 51.028029175655206, 1084.698], [-114.09270053765904, 51.02808651358104, 1084.947], [-114.09276702582326, 51.0281438514571, 1085.111], [-114.09284075677888, 51.02821586382096, 1085.343], [-114.09287994233276, 51.02825716760534, 1085.441], [-114.0929134328687, 51.028294915958945, 1085.52], [-114.0929456145891, 51.02833398683852, 1085.613], [-114.09297453044925, 51.02837236809568, 1085.685], [-114.09300268202385, 51.02841348284096, 1085.795], [-114.09302155899347, 51.028443232914626, 1085.835], [-114.09303931112524, 51.028473649122894, 1085.937], [-114.0930637526121, 51.02852001682661, 1086.035], [-114.0930849427259, 51.02856582075976, 1086.132], [-114.0931006427696, 51.028603673124515, 1086.22], [-114.09311922000151, 51.02865451339814, 1086.293], [-114.09313603836051, 51.028709742073175, 1086.442], [-114.09314832257962, 51.02876454285085, 1086.555], [-114.09315442815668, 51.028802160130546, 1086.639], [-114.0931615919988, 51.028862772372364, 1086.76], [-114.09316459786547, 51.02891150346522, 1086.891], [-114.09316279590146, 51.0289868660592, 1087.044], [-114.09315917537714, 51.02902975908954, 1087.119], [-114.09315350267524, 51.02908009727633, 1087.24], [-114.09314764338023, 51.02911558452815, 1087.291], [-114.09314091132194, 51.02914238836726, 1087.349], [-114.09313543082422, 51.02915349508819, 1087.37], [-114.0931287764637, 51.02916216651941, 1087.394], [-114.09311693933627, 51.02917401546509, 1087.409], [-114.09309544656008, 51.0291907715206, 1087.418], [-114.09308865369206, 51.029194354855925, 1087.405], [-114.09307500792275, 51.02920002028336, 1087.391], [-114.09305731196058, 51.02920492480479, 1087.354], [-114.0930439311418, 51.02920764137648, 1087.362], [-114.09301217547358, 51.029210840039966, 1087.305], [-114.09296422291244, 51.029212927860335, 1087.203], [-114.09288699795634, 51.02921246785974, 1086.966], [-114.09280983000713, 51.02921199877311, 1086.737], [-114.09270659724591, 51.02920897924378, 1086.418], [-114.09260049305475, 51.02920294133938, 1086.072], [-114.09253154039902, 51.029197269478146, 1085.866], [-114.09245949186423, 51.02919040438761, 1085.704], [-114.09240342550187, 51.029184209838654, 1085.521], [-114.09237134120306, 51.02917987516937, 1085.416], [-114.09233530615089, 51.029174590698325, 1085.307], [-114.09227321509887, 51.0291639868749, 1085.129], [-114.09215343483152, 51.02914111255255, 1084.747], [-114.09211251682358, 51.02913203818457, 1084.58], [-114.09206056902252, 51.0291178932773, 1084.408], [-114.09193253373101, 51.02908003930169, 1084.043], [-114.09180448455199, 51.02904226610435, 1083.665], [-114.09167644985449, 51.029004501744936, 1083.311], [-114.09158886971053, 51.0289793811086, 1083.058], [-114.09150126109658, 51.02895423345955, 1082.834], [-114.09141368100046, 51.02892904077364, 1082.586], [-114.09140092692829, 51.02892425920736, 1082.545], [-114.09138157793177, 51.028915023875804, 1082.459], [-114.0913648341931, 51.028903979562536, 1082.417], [-114.09134315038995, 51.0288818277649, 1082.349], [-114.09133570312926, 51.02887164818751, 1082.285], [-114.09132997984447, 51.02886097282557, 1082.249], [-114.09132364972875, 51.02881716168213, 1082.187], [-114.09132498884426, 51.028773164749886, 1082.104], [-114.09132946383974, 51.028728976581704, 1082.037], [-114.09133653806585, 51.02870168713083, 1081.976], [-114.09135855892907, 51.02862702793866, 1081.822], [-114.0913805370078, 51.0285523957441, 1081.676], [-114.09138669122535, 51.028528496148425, 1081.65], [-114.09139359494507, 51.028494275721094, 1081.583], [-114.09140142596947, 51.028445913674474, 1081.475], [-114.0914092000083, 51.028397578640785, 1081.372], [-114.09141280570759, 51.02834635216379, 1081.271], [-114.0914162974606, 51.028295179713915, 1081.199], [-114.0914175447311, 51.02825527318971, 1081.098], [-114.0914169896952, 51.028226758102214, 1081.013], [-114.09141146376535, 51.02814969320356, 1080.803], [-114.09141131407391, 51.02813156996231, 1080.756], [-114.09141733318053, 51.02811149111742, 1080.675], [-114.0914251012329, 51.02809638224188, 1080.683], [-114.09143600943413, 51.02808327562568, 1080.654], [-114.09145593238854, 51.02806560414506, 1080.604], [-114.09147223461648, 51.028055271140225, 1080.577], [-114.09149540456636, 51.028043197732515, 1080.528], [-114.09156279160847, 51.028014890134784, 1080.591], [-114.09163009319515, 51.02798666347291, 1080.694], [-114.0917111959554, 51.02795942380575, 1080.906], [-114.09179254090996, 51.027932156922624, 1081.237], [-114.09188155183905, 51.02790318489088, 1081.711], [-114.09192590449742, 51.02789074414045, 1081.946], [-114.09210807233289, 51.02786060187026, 1082.837], [-114.09214372179659, 51.027858874702304, 1082.963], [-114.09221841614817, 51.02785674813915, 1083.326], [-114.09230758884155, 51.02785918588178, 1083.73], [-114.09233112852182, 51.027861163013185, 1083.824], [-114.09237887435974, 51.02787051059187, 1083.974], [-114.09239292364686, 51.02787436508281, 1084.017], [-114.09240871537062, 51.02787986332062, 1084.061], [-114.09243746693183, 51.02789334320402, 1084.126], [-114.09249378388238, 51.02792594945857, 1084.285], [-114.09253502431622, 51.02795426152886, 1084.383]]}}, {"type": "Feature", "properties": {"code": "LIP"}, "geometry": {"type": "LineString", "coordinates": [[-114.09217255370956, 51.029142014430406, 1084.854], [-114.09230187447835, 51.029166562283336, 1085.248], [-114.09235043019706, 51.0291738775466, 1085.392]]}}, {"type": "Feature", "properties": {"code": "LIP"}, "geometry": {"type": "LineString", "coordinates": [[-114.09230830268507, 51.02925926859555, 1085.23], [-114.09221281239432, 51.029242685957094, 1084.974]]}}, {"type": "Feature", "properties": {"code": "LIP"}, "geometry": {"type": "LineString", "coordinates": [[-114.09145712840203, 51.02788376730634, 1080.064], [-114.09143161070844, 51.027876307791956, 1079.934], [-114.09138514082152, 51.02785603626833, 1079.842], [-114.0913723365922, 51.02784734419107, 1079.822], [-114.09135930996544, 51.02783429225193, 1079.803]]}}, {"type": "Feature", "properties": {"code": "LIP"}, "geometry": {"type": "LineString", "coordinates": [[-114.09143730372219, 51.02790062963231, 1079.801], [-114.09141043159649, 51.02789309026521, 1079.715], [-114.09138884769926, 51.02788526807397, 1079.682], [-114.09137654888829, 51.027879874844466, 1079.658], [-114.09136647269096, 51.02787385059267, 1079.643], [-114.09132945478375, 51.02784662257113, 1079.544]]}}, {"type": "Feature", "properties": {"code": "LIP"}, "geometry": {"type": "LineString", "coordinates": [[-114.09115067342667, 51.02908031012874, 1082.507], [-114.09118688780966, 51.02904631856528, 1082.515]]}}, {"type": "Feature", "properties": {"code": "LIP"}, "geometry": {"type": "LineString", "coordinates": [[-114.09118520661858, 51.027927930737704, 1079.942], [-114.0911986714133, 51.02796814042319, 1080.189], [-114.0912152656286, 51.028026668797786, 1080.477], [-114.0912311967527, 51.02807417623988, 1080.628], [-114.09123818542365, 51.02810498768517, 1080.776], [-114.09124287175258, 51.0281393878421, 1080.906], [-114.09124929256424, 51.02820769602289, 1081.201], [-114.09125419775867, 51.028280949754475, 1081.313], [-114.09125104300871, 51.02833685954035, 1081.432], [-114.0912479737495, 51.02839275127933, 1081.57], [-114.09124321685609, 51.02843133904616, 1081.652], [-114.09122974223267, 51.028495140906884, 1081.851], [-114.09121208740414, 51.02855728292235, 1081.983], [-114.09119441809645, 51.028619335048184, 1082.109], [-114.0911730543098, 51.02868753005922, 1082.282], [-114.09115488873596, 51.02873646650477, 1082.374], [-114.0911219294548, 51.02880187473362, 1082.503], [-114.09111340520981, 51.028816768422445, 1082.497], [-114.09108450096896, 51.02886368154205, 1082.536], [-114.09105542553033, 51.02891055882846, 1082.607], [-114.09101801279148, 51.02896593792388, 1082.625]]}}, {"type": "Feature", "properties": {"code": "LIP"}, "geometry": {"type": "LineString", "coordinates": [[-114.09121077297667, 51.027909346929, 1079.804], [-114.09123525790521, 51.0279716628218, 1080.17], [-114.09125168118358, 51.02802297254635, 1080.431], [-114.09126960478717, 51.0280905615539, 1080.552], [-114.09127463002886, 51.02811605259174, 1080.8], [-114.09127885201661, 51.02814628186072, 1080.919], [-114.0912829894591, 51.028206042560335, 1081.141], [-114.09128412395778, 51.02826107699061, 1081.143], [-114.09128511567395, 51.028315994665014, 1081.346], [-114.09128080902208, 51.02838057148047, 1081.568], [-114.09127521119304, 51.02842647757069, 1081.531], [-114.09126958484174, 51.02847238368257, 1081.783], [-114.0912568418976, 51.02853127656531, 1081.853], [-114.09123938520597, 51.028592672279686, 1081.972], [-114.09120713698817, 51.028678882284346, 1082.18], [-114.09118966114528, 51.02872331432722, 1082.34], [-114.09117229934996, 51.02876776425768, 1082.354], [-114.09114382504698, 51.028823055513314, 1082.354], [-114.09111458489926, 51.02887313329778, 1082.501], [-114.09107538191971, 51.0289315163875, 1082.588], [-114.09103617885934, 51.02898990845327, 1082.551]]}}, {"type": "Feature", "properties": {"code": "SW"}, "geometry": {"type": "LineString", "coordinates": [[-114.09306009993283, 51.02826211248813, 1085.6], [-114.09311031714266, 51.02832356245385, 1085.716], [-114.09315644766987, 51.028394391975574, 1085.83]]}}, {"type": "Feature", "properties": {"code": "SW"}, "geometry": {"type": "LineString", "coordinates": [[-114.09318815617009, 51.02844615670711, 1085.877], [-114.09320339543855, 51.02847458815712, 1085.998], [-114.09324380843437, 51.02855897876128, 1086.158], [-114.09326447550232, 51.02861398859365, 1086.31], [-114.09328657085796, 51.02868453158764, 1086.445]]}}, {"type": "Feature", "properties": {"code": "SW"}, "geometry": {"type": "LineString", "coordinates": [[-114.09329871108265, 51.028731430465456, 1086.441], [-114.09330647368814, 51.02877066457141, 1086.598], [-114.09331209928429, 51.02881056562517, 1086.667], [-114.09331837040249, 51.02887375863128, 1086.815], [-114.09332146161326, 51.028929411767095, 1086.942], [-114.09332084374121, 51.02899797715936, 1087.075], [-114.09331513373532, 51.029043847473474, 1087.076], [-114.0933094096068, 51.02908978971631, 1087.181]]}}, {"type": "Feature", "properties": {"code": "SW"}, "geometry": {"type": "LineString", "coordinates": [[-114.09330532215499, 51.02912016937781, 1087.271], [-114.09329705065349, 51.02916832513409, 1087.363], [-114.09328880762854, 51.02921647187687, 1087.461], [-114.09327995005161, 51.02925675306969, 1087.511], [-114.09328016107378, 51.02926245240876, 1087.549], [-114.09328313926707, 51.0292689136686, 1087.569], [-114.09328634053834, 51.029272875597194, 1087.581], [-114.09329652041775, 51.029280562704855, 1087.594], [-114.09331555207554, 51.029287685378854, 1087.669], [-114.09340294455752, 51.029303797131355, 1087.767]]}}, {"type": "Feature", "properties": {"code": "SW"}, "geometry": {"type": "LineString", "coordinates": [[-114.09279191333766, 51.027806949379496, 1083.817], [-114.09276482694213, 51.02783498298067, 1084.04]]}}, {"type": "Feature", "properties": {"code": "SW"}, "geometry": {"type": "LineString", "coordinates": [[-114.09315889778946, 51.02896239904023, 1087.016], [-114.09315941520877, 51.02889338424054, 1086.823], [-114.09315493632312, 51.028842316983955, 1086.717]]}}, {"type": "Feature", "properties": {"code": "SW"}, "geometry": {"type": "LineString", "coordinates": [[-114.09314896701189, 51.02879445126935, 1086.616], [-114.09314186083829, 51.02875548632275, 1086.534], [-114.0931341833448, 51.02872308435578, 1086.439], [-114.0931121536987, 51.02864965556807, 1086.296], [-114.09309820839094, 51.0286124580598, 1086.222], [-114.09307755050484, 51.028561934081246, 1086.12], [-114.09305034781761, 51.02850354027964, 1086.02], [-114.09302213430574, 51.02845289644944, 1085.895], [-114.09300808898517, 51.02842976798434, 1085.832], [-114.0929722282378, 51.02837596583157, 1085.724], [-114.09293911316568, 51.028333551510826, 1085.619], [-114.09290237560585, 51.028290321991925, 1085.526], [-114.09286533894546, 51.02824719158623, 1085.445]]}}, {"type": "Feature", "properties": {"code": "SW"}, "geometry": {"type": "LineString", "coordinates": [[-114.09235040161393, 51.02917384161014, 1085.384], [-114.09246724181737, 51.0291877732461, 1085.723], [-114.09254891590557, 51.029196069071055, 1085.932], [-114.09263404822548, 51.02920136850786, 1086.186], [-114.0927191663268, 51.02920667688368, 1086.475], [-114.09281783464598, 51.02920841449159, 1086.781], [-114.09291630337263, 51.0292101431851, 1087.092], [-114.09300229136977, 51.02920844764042, 1087.296], [-114.09302797644139, 51.02920644945016, 1087.325], [-114.0930564075061, 51.02920176112962, 1087.378], [-114.09306952923279, 51.029197804176015, 1087.397], [-114.09307948580083, 51.02919366994672, 1087.397], [-114.09310086094334, 51.029182235925525, 1087.408], [-114.09311102514674, 51.02917500905084, 1087.417], [-114.09312205353056, 51.02916507556902, 1087.4], [-114.09312951921387, 51.02915577420846, 1087.381], [-114.09313657670481, 51.02914196930315, 1087.357], [-114.09314844736039, 51.02908284318253, 1087.258]]}}, {"type": "Feature", "properties": {"code": "SW"}, "geometry": {"type": "LineString", "coordinates": [[-114.09304962519937, 51.02943133801459, 1087.576], [-114.09305235194695, 51.029404789084595, 1087.433]]}}, {"type": "Feature", "properties": {"code": "SW"}, "geometry": {"type": "LineString", "coordinates": [[-114.09277686962751, 51.02784053808322, 1084.101], [-114.09275545231688, 51.027873430642316, 1084.274], [-114.09275088169457, 51.027883269069086, 1084.317], [-114.09274495447394, 51.02791337149476, 1084.492], [-114.09274468182215, 51.02792675746602, 1084.503], [-114.09274694407573, 51.0279388558896, 1084.564], [-114.09275554406962, 51.02796225840289, 1084.744], [-114.09276222394301, 51.02797356222073, 1084.799], [-114.09282854463676, 51.0280327430969, 1085.055]]}}, {"type": "Feature", "properties": {"code": "SW"}, "geometry": {"type": "LineString", "coordinates": [[-114.09286314570497, 51.0280627593895, 1085.121], [-114.09293482830869, 51.02812985592329, 1085.308]]}}, {"type": "Feature", "properties": {"code": "SW"}, "geometry": {"type": "LineString", "coordinates": [[-114.09300131606858, 51.02943345310321, 1087.746], [-114.09300580120714, 51.029416467878775, 1087.686], [-114.09300834673006, 51.02939907965862, 1087.657], [-114.09300784009736, 51.02938812154531, 1087.63], [-114.09300477332279, 51.029380123100246, 1087.581], [-114.09299430728099, 51.029364776920104, 1087.49], [-114.0929809371281, 51.029351473724965, 1087.356], [-114.09296541955966, 51.029340779266754, 1087.229], [-114.09294903837707, 51.02933307908318, 1087.146], [-114.09293075329383, 51.02932857177586, 1087.083], [-114.0929043041241, 51.029326336375505, 1087.001], [-114.0928705025521, 51.029325922743546, 1086.938], [-114.09282440133465, 51.02932711005929, 1086.856], [-114.09278057798667, 51.029326758299604, 1086.766], [-114.09266840314797, 51.02932204677088, 1086.482]]}}, {"type": "Feature", "properties": {"code": "SW"}, "geometry": {"type": "LineString", "coordinates": [[-114.09256202340131, 51.02931377958979, 1086.22], [-114.0924856735938, 51.029309021525854, 1086.035], [-114.09244739009578, 51.02930579752371, 1085.946], [-114.09237543731854, 51.029296981527914, 1085.728], [-114.09230365544255, 51.02928806646546, 1085.546], [-114.09224359155891, 51.02927896231515, 1085.385], [-114.09215806784447, 51.02926325276123, 1085.145]]}}, {"type": "Feature", "properties": {"code": "SW"}, "geometry": {"type": "LineString", "coordinates": [[-114.09210482944162, 51.029252560959264, 1084.999], [-114.09207241029247, 51.029244720465705, 1084.901]]}}, {"type": "Feature", "properties": {"code": "SW"}, "geometry": {"type": "LineString", "coordinates": [[-114.09202063521009, 51.02923146539103, 1084.769], [-114.0919824805589, 51.029221265081794, 1084.655], [-114.09187169142439, 51.02918899808492, 1084.383], [-114.09176090239036, 51.02915670401351, 1084.029], [-114.09165009934304, 51.02912445479674, 1083.732], [-114.0915393391814, 51.029092187461636, 1083.411], [-114.09145161387605, 51.029065790290616, 1083.203], [-114.09136384595594, 51.02903942005627, 1082.893], [-114.09133723309162, 51.029033561556005, 1082.824], [-114.09130721707452, 51.02902972840455, 1082.766], [-114.09128119934005, 51.0290292812619, 1082.724], [-114.09126718762904, 51.02903017320179, 1082.69], [-114.09125374791432, 51.029031963669325, 1082.68], [-114.09123265993338, 51.02903737398969, 1082.628], [-114.09122069503792, 51.02904246254388, 1082.577], [-114.09120416577962, 51.029053541839005, 1082.615], [-114.09118216439869, 51.02907296789836, 1082.629], [-114.09116728413184, 51.0290889363308, 1082.616]]}}, {"type": "Feature", "properties": {"code": "SW"}, "geometry": {"type": "LineString", "coordinates": [[-114.09302018188211, 51.029371957125036, 1087.374], [-114.09304168887986, 51.02936224904386, 1087.356], [-114.09303745659184, 51.02935598655107, 1087.336], [-114.09302718377124, 51.029344586724335, 1087.288], [-114.09301104775783, 51.029331177857124, 1087.212], [-114.09299202104857, 51.02931938944456, 1087.107], [-114.09297253018187, 51.02931073882416, 1087.02], [-114.09295022099296, 51.02930425697412, 1086.934], [-114.0929280033316, 51.02930076863692, 1086.857], [-114.0928976196112, 51.02929856333288, 1086.75], [-114.09286551413092, 51.02929795956631, 1086.701], [-114.09281827250724, 51.02929916576535, 1086.591], [-114.0927703158622, 51.02929925778275, 1086.452], [-114.09274509562817, 51.0292984777118, 1086.416], [-114.09269539336584, 51.02929536173968, 1086.321]]}}, {"type": "Feature", "properties": {"code": "SW"}, "geometry": {"type": "LineString", "coordinates": [[-114.09257547586573, 51.029289748297145, 1086.02], [-114.0924767058368, 51.02927996473045, 1085.703], [-114.09237802133092, 51.0292701540434, 1085.451], [-114.0923083026672, 51.02925925960581, 1085.236]]}}, {"type": "Feature", "properties": {"code": "SW"}, "geometry": {"type": "LineString", "coordinates": [[-114.0926398020855, 51.027775462057015, 1084.068], [-114.09265373419304, 51.02777059654069, 1084.057], [-114.09267122599375, 51.027756495714655, 1083.929], [-114.09268848523324, 51.02774015661976, 1083.754]]}}, {"type": "Feature", "properties": {"code": "SW"}, "geometry": {"type": "LineString", "coordinates": [[-114.0914818044874, 51.02787646628559, 1080.312], [-114.09149847245476, 51.02787816129133, 1080.419], [-114.09151925654469, 51.027877974211194, 1080.529], [-114.09154958756207, 51.02787564008558, 1080.651], [-114.09157092174968, 51.02787247695424, 1080.658], [-114.0916288065755, 51.02785467680427, 1080.925], [-114.09168594473665, 51.02783417129313, 1081.135], [-114.09173034101734, 51.027822171080864, 1081.337], [-114.0917869398914, 51.027802933499906, 1081.82]]}}, {"type": "Feature", "properties": {"code": "SW"}, "geometry": {"type": "LineString", "coordinates": [[-114.09193471301796, 51.02776755050815, 1082.371], [-114.09197942953256, 51.02775895706887, 1082.71], [-114.09200288664165, 51.027755261791754, 1082.815], [-114.09205859981152, 51.02774957234717, 1083.049], [-114.09212255591824, 51.02774555746393, 1083.359], [-114.09216011617566, 51.02774416140581, 1083.513], [-114.0922565240024, 51.02774337514677, 1083.926], [-114.09229939293814, 51.02774483359716, 1083.96], [-114.09235273032101, 51.02774879190304, 1084.245], [-114.09243698464374, 51.02775837130442, 1084.362], [-114.09252116745567, 51.02776781585525, 1084.501], [-114.0925432648685, 51.02776857147818, 1084.461], [-114.0925608697533, 51.02776828784291, 1084.436], [-114.09258556802564, 51.02776508590268, 1084.385], [-114.09259840596272, 51.02776197426332, 1084.354], [-114.09261115576813, 51.02775755917695, 1084.308], [-114.09263144623915, 51.027745766507735, 1084.172], [-114.09265621873139, 51.02772259823279, 1083.93]]}}, {"type": "Feature", "properties": {"code": "SW"}, "geometry": {"type": "LineString", "coordinates": [[-114.09280641416734, 51.0281868272012, 1085.28], [-114.09274619122142, 51.02813307129061, 1085.119], [-114.09267680668691, 51.02807445915344, 1084.951], [-114.09260726555301, 51.02801586507813, 1084.74], [-114.09258467631469, 51.02799727417043, 1084.675], [-114.09256359000616, 51.02798173858675, 1084.577]]}}, {"type": "Feature", "properties": {"code": "SW"}, "geometry": {"type": "LineString", "coordinates": [[-114.0914594862358, 51.02790114267002, 1079.974], [-114.09148495438578, 51.02790515014866, 1080.086], [-114.09150961970369, 51.027906856871496, 1080.223], [-114.09152869333005, 51.02790676102664, 1080.288], [-114.09155321028724, 51.027905519214706, 1080.381], [-114.09158261239634, 51.027902008149496, 1080.553], [-114.09164440085135, 51.0278829913149, 1080.855], [-114.09173847496412, 51.0278480641991, 1081.412], [-114.09180110440668, 51.02782907359053, 1081.624], [-114.09185906324575, 51.02781272960959, 1081.878], [-114.0919132928156, 51.027799265256675, 1082.081], [-114.09195262154915, 51.027791044645284, 1082.346], [-114.09198135162978, 51.02778656311418, 1082.594], [-114.09203837370231, 51.02777954216432, 1082.736], [-114.09209828001661, 51.02777487423121, 1083.087], [-114.09214863953018, 51.02777239830763, 1083.201], [-114.0922319148886, 51.02776995931734, 1083.638], [-114.09227081774038, 51.02776985668974, 1083.861], [-114.09231929264602, 51.027773108658806, 1083.849], [-114.09238164444679, 51.02777955898375, 1084.049], [-114.0924217399263, 51.02778419296755, 1084.134], [-114.09245415296462, 51.02778944431939, 1084.289], [-114.09247529901278, 51.02779207956801, 1084.37], [-114.09251476342679, 51.02779478122047, 1084.381], [-114.09255288366536, 51.0277953893097, 1084.308], [-114.09257445029299, 51.02779446426166, 1084.296], [-114.09258577797144, 51.02779175835933, 1084.286], [-114.09258643275244, 51.027776960692826, 1084.289]]}}, {"type": "Feature", "properties": {"code": "SW"}, "geometry": {"type": "LineString", "coordinates": [[-114.09253613999363, 51.02796330434544, 1084.51], [-114.09246062926539, 51.027913434977236, 1084.289], [-114.09242388076385, 51.02789298536942, 1084.153], [-114.09240650194336, 51.02788510610181, 1084.125], [-114.09239095193499, 51.02787929303094, 1084.077], [-114.09237196588833, 51.027873239950424, 1084.003], [-114.09235226937945, 51.0278683471075, 1083.896], [-114.0923357852228, 51.02786590592807, 1083.821], [-114.09228377189116, 51.02786115546992, 1083.6], [-114.09219783861987, 51.027860450177464, 1083.227], [-114.09217046972618, 51.027861244885926, 1083.073], [-114.09209843104412, 51.027865472929776, 1082.74], [-114.0920628995527, 51.0278691867283, 1082.583], [-114.09200884540554, 51.02787767068445, 1082.312], [-114.09196626597729, 51.02788569609805, 1082.116], [-114.09192098321024, 51.02789635762263, 1081.896], [-114.09188331290117, 51.0279070491037, 1081.698], [-114.09178813386396, 51.027938309380936, 1081.189], [-114.09169302602915, 51.02796959649383, 1080.83], [-114.09166611685501, 51.02797945240289, 1080.761], [-114.09161395451751, 51.0280003855117, 1080.641], [-114.09155623339892, 51.028021781430084, 1080.561], [-114.09150562567977, 51.0280431537707, 1080.529], [-114.09148887812779, 51.028051752104936, 1080.545], [-114.09147110850911, 51.02806255372823, 1080.588], [-114.0914531032787, 51.028076780632205, 1080.6], [-114.09143699645983, 51.02809224663505, 1080.647], [-114.09142645974882, 51.028105784469254, 1080.685], [-114.09141918883446, 51.02811997600034, 1080.688], [-114.09141758947365, 51.028125829585925, 1080.696], [-114.09141654186317, 51.02814403467164, 1080.752], [-114.09142239350302, 51.02821999357472, 1080.993], [-114.09142490232452, 51.02827788567239, 1081.129], [-114.09141992191462, 51.02834045830389, 1081.247], [-114.0914151124348, 51.02840296787246, 1081.365], [-114.09140843083188, 51.02844863209313, 1081.443], [-114.0914017491805, 51.02849427833358, 1081.553], [-114.09139731614098, 51.02851626176513, 1081.596], [-114.0913742309104, 51.028600558821395, 1081.754], [-114.09135628065998, 51.02865737915046, 1081.858], [-114.09133851584876, 51.02871428023911, 1081.987], [-114.09133499501725, 51.02873620901592, 1081.989], [-114.09133060895574, 51.028796632621464, 1082.131], [-114.09133004626038, 51.02883673638073, 1082.202], [-114.09133462228574, 51.02885846105437, 1082.225], [-114.09133768642381, 51.0288652818874, 1082.192], [-114.09134729518914, 51.02887998162441, 1082.309], [-114.09135972562672, 51.02889418471798, 1082.381], [-114.0913765569102, 51.02890625379618, 1082.447], [-114.09140191521293, 51.02891936800505, 1082.577], [-114.09143150344038, 51.02893042024408, 1082.69], [-114.09153527244962, 51.02895996926098, 1082.992], [-114.09164088344006, 51.02899096409256, 1083.248], [-114.09174665142044, 51.029021976684845, 1083.556], [-114.09185236242985, 51.029052944277254, 1083.817], [-114.09195810225175, 51.02908399265908, 1084.156], [-114.09206379941179, 51.02911502299919, 1084.48], [-114.0921098987965, 51.02912739254235, 1084.636], [-114.09217255356693, 51.02914194251243, 1084.856]]}}, {"type": "Feature", "properties": {"code": "SW"}, "geometry": {"type": "LineString", "coordinates": [[-114.09221282648963, 51.029242605038135, 1084.972], [-114.09218165297362, 51.02923747849933, 1084.867]]}}, {"type": "Feature", "properties": {"code": "SW"}, "geometry": {"type": "LineString", "coordinates": [[-114.09211590706485, 51.02922419852694, 1084.701], [-114.09209013555828, 51.02921857326883, 1084.608]]}}, {"type": "Feature", "properties": {"code": "SW"}, "geometry": {"type": "LineString", "coordinates": [[-114.0920274942362, 51.02920365466398, 1084.497], [-114.09192734734366, 51.029175110089106, 1084.174], [-114.09182714358629, 51.029146583452466, 1083.862]]}}, {"type": "Feature", "properties": {"code": "SW"}, "geometry": {"type": "LineString", "coordinates": [[-114.0917583620411, 51.02912640152865, 1083.728], [-114.09163634370267, 51.02908893805363, 1083.334], [-114.09155871974353, 51.02906674024943, 1083.11], [-114.09148120971017, 51.02904444341706, 1082.91], [-114.09136243123065, 51.0290086851738, 1082.621], [-114.09134714185686, 51.0290050472832, 1082.611], [-114.09132157355502, 51.02900115672025, 1082.572], [-114.09130239748086, 51.02900012889124, 1082.561], [-114.09126584768951, 51.029001191262864, 1082.53], [-114.09124468249681, 51.029003572096705, 1082.53], [-114.09123282616905, 51.02900586475213, 1082.545], [-114.09121014267889, 51.02901185165864, 1082.515], [-114.09122322891146, 51.02902607223408, 1082.527]]}}, {"type": "Feature", "properties": {"code": "SW"}, "geometry": {"type": "LineString", "coordinates": [[-114.09136943786538, 51.027830364797886, 1079.81], [-114.09138598210168, 51.02784164300224, 1079.839], [-114.09140764268345, 51.02785222499086, 1079.913], [-114.09146076825444, 51.027871673228546, 1080.226], [-114.09147533014846, 51.027875266725516, 1080.291]]}}, {"type": "Feature", "properties": {"code": "SW"}, "geometry": {"type": "LineString", "coordinates": [[-114.0913355938905, 51.02784408266049, 1079.508], [-114.09135055557644, 51.027855263219294, 1079.571], [-114.091394800232, 51.027882090033096, 1079.661], [-114.09141560057466, 51.02789016454947, 1079.737], [-114.09144406980434, 51.027897954379014, 1079.916]]}}, {"type": "Feature", "properties": {"code": "SW"}, "geometry": {"type": "LineString", "coordinates": [[-114.09103334931243, 51.02898638667158, 1082.613], [-114.09104972821687, 51.02896404334862, 1082.633], [-114.09108686494731, 51.02890605742778, 1082.562], [-114.09111553573013, 51.02886366633922, 1082.492], [-114.09113520969362, 51.028827835794736, 1082.39], [-114.09115676567153, 51.02878488388872, 1082.433], [-114.09117832125689, 51.02874175218351, 1082.299], [-114.09120459885978, 51.0286713058973, 1082.168], [-114.09122745151647, 51.028606337042014, 1082.024], [-114.09124278990998, 51.02854788263512, 1081.958], [-114.09125818518156, 51.02848937424264, 1081.881], [-114.0912666651489, 51.02845198819599, 1081.653], [-114.09127456247798, 51.02837925486453, 1081.577], [-114.09127781876393, 51.02831698923822, 1081.365], [-114.09127782047125, 51.0282670511154, 1081.176], [-114.09127786503355, 51.02821715790747, 1081.209], [-114.0912760203308, 51.02817794601083, 1081.007], [-114.09127170309075, 51.0281500271849, 1080.923], [-114.09125812261222, 51.02808726228867, 1080.672], [-114.09124444231149, 51.028024461509084, 1080.466], [-114.09122394266085, 51.027958978111975, 1080.091], [-114.09120561926217, 51.02791279402993, 1079.855]]}}, {"type": "Feature", "properties": {"code": "SW"}, "geometry": {"type": "LineString", "coordinates": [[-114.09116691230827, 51.0290374702469, 1082.462], [-114.09114402510284, 51.02905589912684, 1082.432], [-114.09113114907909, 51.029068899370905, 1082.389]]}}, {"type": "Feature", "properties": {"code": "SW"}, "geometry": {"type": "LineString", "coordinates": [[-114.09100873289292, 51.02895169638167, 1082.796], [-114.09105502803226, 51.02888230432279, 1082.719], [-114.09107915445765, 51.02884155291994, 1082.558]]}}, {"type": "Feature", "properties": {"code": "SW"}, "geometry": {"type": "LineString", "coordinates": [[-114.09109539219438, 51.028812683134255, 1082.583], [-114.09111898715639, 51.02876992742045, 1082.597], [-114.09113331475574, 51.02874114901603, 1082.508], [-114.09114886443949, 51.02870311919332, 1082.391], [-114.09116336659115, 51.028661602158444, 1082.231]]}}, {"type": "Feature", "properties": {"code": "SW"}, "geometry": {"type": "LineString", "coordinates": [[-114.09117422240097, 51.02862895186998, 1082.19], [-114.09118661157993, 51.028593126998466, 1082.098], [-114.09119669397148, 51.02855865238963, 1082.002], [-114.09121153222365, 51.02849957808317, 1081.929], [-114.09122212994261, 51.028444417630254, 1081.745]]}}, {"type": "Feature", "properties": {"code": "SW"}, "geometry": {"type": "LineString", "coordinates": [[-114.09122664115971, 51.02841138572823, 1081.683], [-114.0912341826982, 51.02833166763262, 1081.461], [-114.09123462538238, 51.02827396201228, 1081.45]]}}, {"type": "Feature", "properties": {"code": "SW"}, "geometry": {"type": "LineString", "coordinates": [[-114.09123330261383, 51.02823918166003, 1081.308], [-114.09122748634444, 51.02818108537535, 1081.211], [-114.0912217413496, 51.02812298004442, 1080.965], [-114.09121815966509, 51.0280993847172, 1080.883], [-114.09121219287003, 51.02807352583155, 1080.705]]}}, {"type": "Feature", "properties": {"code": "SW"}, "geometry": {"type": "LineString", "coordinates": [[-114.09120410831275, 51.02804361421596, 1080.63], [-114.09118803705663, 51.02799005676991, 1080.382], [-114.09116953660221, 51.02794080731198, 1080.094]]}}, {"type": "Feature", "properties": {"code": "DW"}, "geometry": {"type": "LineString", "coordinates": [[-114.09283433340451, 51.02803325990474, 1085.078], [-114.0928748493481, 51.02801275802621, 1085.789]]}}, {"type": "Feature", "properties": {"code": "DW"}, "geometry": {"type": "LineString", "coordinates": [[-114.0929041946182, 51.02803787906363, 1085.596], [-114.09286389345007, 51.02805885723892, 1085.151]]}}, {"type": "Feature", "properties": {"code": "DW"}, "geometry": {"type": "LineString", "coordinates": [[-114.09294081711636, 51.02813059731079, 1085.326], [-114.09298696601954, 51.02811108877729, 1085.634]]}}, {"type": "Feature", "properties": {"code": "DW"}, "geometry": {"type": "LineString", "coordinates": [[-114.09305104366047, 51.02817468528336, 1085.294], [-114.09300716606442, 51.02819654735174, 1085.477]]}}, {"type": "Feature", "properties": {"code": "DW"}, "geometry": {"type": "LineString", "coordinates": [[-114.09301678107201, 51.02820704872989, 1085.455], [-114.09306488633922, 51.028189192724774, 1085.685]]}}, {"type": "Feature", "properties": {"code": "DW"}, "geometry": {"type": "LineString", "coordinates": [[-114.0931073650549, 51.02823758673205, 1085.687], [-114.09306158898931, 51.02825822772563, 1085.582]]}}, {"type": "Feature", "properties": {"code": "DW"}, "geometry": {"type": "LineString", "coordinates": [[-114.093246046086, 51.02843084591754, 1086.012], [-114.09323558407688, 51.02843165435339, 1086.02], [-114.09321440935284, 51.028436211074, 1086.006], [-114.09319067227453, 51.02844259475551, 1085.903]]}}, {"type": "Feature", "properties": {"code": "DW"}, "geometry": {"type": "LineString", "coordinates": [[-114.09316188139395, 51.028395556312965, 1085.849], [-114.09319201221884, 51.02838567951164, 1085.903], [-114.0932258062926, 51.02839690773869, 1086.038]]}}, {"type": "Feature", "properties": {"code": "DW"}, "geometry": {"type": "LineString", "coordinates": [[-114.09336359960389, 51.02872967957926, 1086.606], [-114.09330241232996, 51.02872882048005, 1086.493]]}}, {"type": "Feature", "properties": {"code": "DW"}, "geometry": {"type": "LineString", "coordinates": [[-114.09329172248319, 51.02868717945458, 1086.454], [-114.09335325100784, 51.02868762475781, 1086.639]]}}, {"type": "Feature", "properties": {"code": "DW"}, "geometry": {"type": "LineString", "coordinates": [[-114.09333775088793, 51.029118525325465, 1087.437], [-114.09331006423376, 51.029117621489654, 1087.284]]}}, {"type": "Feature", "properties": {"code": "DW"}, "geometry": {"type": "LineString", "coordinates": [[-114.09331336400702, 51.029092546415136, 1087.209], [-114.09337336728161, 51.029092786161286, 1087.752]]}}, {"type": "Feature", "properties": {"code": "DW"}, "geometry": {"type": "LineString", "coordinates": [[-114.09336825833448, 51.02911850095587, 1087.69], [-114.09333775072542, 51.029118444417755, 1087.431]]}}, {"type": "Feature", "properties": {"code": "DW"}, "geometry": {"type": "LineString", "coordinates": [[-114.09217475642154, 51.029239138054734, 1084.861], [-114.09216376905188, 51.02924829829533, 1085.025]]}}, {"type": "Feature", "properties": {"code": "DW"}, "geometry": {"type": "LineString", "coordinates": [[-114.09211670633604, 51.02923905796928, 1084.902], [-114.09211929279336, 51.02922777378245, 1084.748]]}}, {"type": "Feature", "properties": {"code": "DW"}, "geometry": {"type": "LineString", "coordinates": [[-114.09268774262506, 51.02929770514529, 1086.308], [-114.09267279595645, 51.02930874743348, 1086.426]]}}, {"type": "Feature", "properties": {"code": "DW"}, "geometry": {"type": "LineString", "coordinates": [[-114.09258376970153, 51.02930250718515, 1086.285], [-114.09258062859217, 51.02929293557986, 1086.091]]}}, {"type": "Feature", "properties": {"code": "DW"}, "geometry": {"type": "LineString", "coordinates": [[-114.09255326741089, 51.0293409715567, 1086.663], [-114.09256516562104, 51.02931675271133, 1086.256]]}}, {"type": "Feature", "properties": {"code": "DW"}, "geometry": {"type": "LineString", "coordinates": [[-114.09266277673632, 51.029324388569634, 1086.494], [-114.09265615937832, 51.02933737502882, 1086.519], [-114.09267269037302, 51.02934158710801, 1086.641], [-114.0926685408483, 51.02934820686128, 1086.621]]}}, {"type": "Feature", "properties": {"code": "DW"}, "geometry": {"type": "LineString", "coordinates": [[-114.0918200318477, 51.029147559934344, 1083.867], [-114.09180915451591, 51.029154715338905, 1084.039]]}}, {"type": "Feature", "properties": {"code": "DW"}, "geometry": {"type": "LineString", "coordinates": [[-114.09175052859581, 51.029137303267525, 1083.888], [-114.09175953783435, 51.029129852673144, 1083.765]]}}, {"type": "Feature", "properties": {"code": "DW"}, "geometry": {"type": "LineString", "coordinates": [[-114.09208412286829, 51.02922023212243, 1084.624], [-114.09207661521303, 51.029230045865404, 1084.787]]}}, {"type": "Feature", "properties": {"code": "DW"}, "geometry": {"type": "LineString", "coordinates": [[-114.09203150273568, 51.02921936560691, 1084.747], [-114.09203140868665, 51.029207867778624, 1084.582]]}}, {"type": "Feature", "properties": {"code": "DW"}, "geometry": {"type": "LineString", "coordinates": [[-114.0920981976075, 51.02927270324683, 1085.575], [-114.09210744510554, 51.029256010965376, 1085.041]]}}, {"type": "Feature", "properties": {"code": "DW"}, "geometry": {"type": "LineString", "coordinates": [[-114.09215248302306, 51.029265010168274, 1085.127], [-114.09214280889722, 51.029282224195704, 1085.179]]}}, {"type": "Feature", "properties": {"code": "DW"}, "geometry": {"type": "LineString", "coordinates": [[-114.09201560229467, 51.02925276609392, 1085.252], [-114.09202339383451, 51.02923512205091, 1084.87]]}}, {"type": "Feature", "properties": {"code": "DW"}, "geometry": {"type": "LineString", "coordinates": [[-114.09206702467803, 51.029246288926764, 1084.91], [-114.09205752047286, 51.02926293645847, 1084.981]]}}], "crs": {"type": "name", "properties": {"name": "urn:ogc:def:crs:EPSG::4617"}}}