{"type": "FeatureCollection", "features": [{"type": "Feature", "properties": {"catchment_m2": 744, "treatment": "sheet flow across path, cross fall toward downhill side"}, "geometry": {"type": "Point", "coordinates": [-114.09221484415754, 51.028887211275894]}}, {"type": "Feature", "properties": {"catchment_m2": 1334, "treatment": "culvert (DGSS Detail 38)"}, "geometry": {"type": "Point", "coordinates": [-114.09202130575488, 51.02833898844746]}}, {"type": "Feature", "properties": {"catchment_m2": 558, "treatment": "sheet flow across path, cross fall toward downhill side"}, "geometry": {"type": "Point", "coordinates": [-114.09204960680196, 51.02823288698072]}}], "crs": {"type": "name", "properties": {"name": "urn:ogc:def:crs:EPSG::4617"}}}