{"type": "FeatureCollection", "features": [{"type": "Feature", "properties": {"name": "ground protection"}, "geometry": {"type": "MultiPolygon", "coordinates": [[[[-114.09290534091281, 51.02906240581743], [-114.0929056084489, 51.029058881002584], [-114.09290532682049, 51.02905535662429], [-114.09290515805077, 51.02905464533333], [-114.0929044987399, 51.029051866624265], [-114.09290350592164, 51.029049380497966], [-114.09290313218217, 51.029048444613096], [-114.09290157624017, 51.0290457132544], [-114.09290124030808, 51.0290451235466], [-114.0928993726213, 51.0290426414639], [-114.09289884133752, 51.02904193540844], [-114.092898002976, 51.029041055886566], [-114.09289595837393, 51.02903891090211], [-114.09289506113245, 51.02903815001125], [-114.09289443214742, 51.02903761661084], [-114.09289261918194, 51.0290360791552], [-114.09289236782425, 51.02903590471215], [-114.09289086268417, 51.02903486014005], [-114.09288913358019, 51.029033660136186], [-114.09288913315815, 51.0290336598433], [-114.0928888559198, 51.02903346743895], [-114.09288729416757, 51.0290325770852], [-114.09288525662649, 51.02903141548451], [-114.09288470482979, 51.02903110090558], [-114.09288372635179, 51.02903064448833], [-114.09288056996873, 51.02902917217334], [-114.09288056910434, 51.02902917177014], [-114.09288020588916, 51.02902900234609], [-114.09287748703069, 51.029027977636765], [-114.09287028335619, 51.029019155675634], [-114.09285702043866, 51.02900322436916], [-114.09284494955315, 51.02898906167445], [-114.09283945367639, 51.02898279879792], [-114.0928484325903, 51.02898251348397], [-114.09285150438696, 51.02898260620064], [-114.09285433629111, 51.028985833321876], [-114.09286646285452, 51.02900006133974], [-114.09287976963607, 51.02901604533141], [-114.0928942414415, 51.02903376818183], [-114.09291228069215, 51.029056329301554], [-114.09293389377815, 51.02908373783362], [-114.09294831790548, 51.02910224095064], [-114.09294235119297, 51.029107327654124], [-114.09294106740762, 51.02910822313043], [-114.09292430937087, 51.029086726095166], [-114.09290529312904, 51.029062610734265], [-114.09290534091281, 51.02906240581743]]], [[[-114.09194302117236, 51.02881918632452], [-114.0919377546793, 51.02882037930254], [-114.09193269897398, 51.0288218920588], [-114.0919279027455, 51.028823710024675], [-114.09192461672033, 51.02882525087358], [-114.09192445566738, 51.02882532639286], [-114.09192427570918, 51.028825410777], [-114.09192427555399, 51.02882541084976], [-114.09192341218413, 51.02882581569219], [-114.0919192705364, 51.02882818878263], [-114.09191551768862, 51.02883080644191], [-114.0919148872773, 51.028831343863615], [-114.09190962277191, 51.028833412091004], [-114.09190955232947, 51.02883343952703], [-114.0919092887193, 51.028833541311236], [-114.091909217942, 51.02883356840246], [-114.09190035295165, 51.028836932079564], [-114.09189200338972, 51.028840121068626], [-114.09189157955322, 51.028840284132684], [-114.09189375521332, 51.028836434568724], [-114.09189673805699, 51.02883244466659], [-114.09189971251138, 51.02882930636804], [-114.09190370562453, 51.028827791245796], [-114.09190396923468, 51.0288276894616], [-114.09191234354955, 51.028824399506256], [-114.09191263368021, 51.02882428332617], [-114.09192047914642, 51.0288210815768], [-114.0919207996485, 51.02882094800194], [-114.09192811626623, 51.02881783445865], [-114.09192847166032, 51.02881767966719], [-114.0919352594297, 51.02881465433006], [-114.09193565500735, 51.02881447339958], [-114.09194191392851, 51.02881153626873], [-114.09194235583867, 51.02881132279054], [-114.09194608506567, 51.028809468663106], [-114.0919525670967, 51.0288088571104], [-114.0919595531938, 51.02880863517258], [-114.091963932409, 51.02880876738519], [-114.09196152206697, 51.028810146055356], [-114.09196137421328, 51.028810229064625], [-114.09196081772414, 51.02881053571708], [-114.09196066745865, 51.0288106169859], [-114.09195546623332, 51.02881337770427], [-114.09195533443321, 51.028813446532624], [-114.09195483915035, 51.02881370099221], [-114.09195470562037, 51.028813768481484], [-114.09194897554701, 51.0288166174063], [-114.09194885781065, 51.02881667510843], [-114.09194841590046, 51.02881688858664], [-114.09194829689922, 51.02881694524784], [-114.09194377701047, 51.02881906630124], [-114.09194302117236, 51.02881918632452]]], [[[-114.09152268404783, 51.028848835005206], [-114.09152556691026, 51.02885185954557], [-114.09152890600578, 51.02885469133168], [-114.09153266917706, 51.028857303091854], [-114.09153682018275, 51.028859669673345], [-114.09154131904637, 51.02886176828467], [-114.09154263794096, 51.02886226538452], [-114.09154295433883, 51.028862568185076], [-114.09154344031488, 51.0288625678044], [-114.09154612244137, 51.02886357871502], [-114.09155118410838, 51.02886508352889], [-114.09155594663572, 51.028866153911196], [-114.0915564553007, 51.0288662682341], [-114.09156188525377, 51.028867121421264], [-114.09156474207856, 51.02886738636572], [-114.09156742167404, 51.028867634873706], [-114.09157301124266, 51.02886780364657], [-114.09157860012891, 51.028867626114504], [-114.09158256151684, 51.02886725238725], [-114.09158413450862, 51.02886710398723], [-114.09158956108257, 51.02886624229312], [-114.09159006929545, 51.028866127173416], [-114.09159321715424, 51.028865414124574], [-114.09159482758979, 51.02886504933079], [-114.09159875925384, 51.02886387292256], [-114.09159988331082, 51.02886353658914], [-114.0916043869051, 51.028861829562224], [-114.0916065773619, 51.02886167555329], [-114.09160918632705, 51.02886145410778], [-114.09161151583727, 51.02886121823469], [-114.09161355251715, 51.0288609742523], [-114.09161528073365, 51.02886073064737], [-114.09161668246657, 51.02886049888017], [-114.0916177374397, 51.028860294480474], [-114.09161842384582, 51.02886013849017], [-114.09161872018956, 51.02886005925454], [-114.09161962587596, 51.02885977280104], [-114.09161999617513, 51.028859661238016], [-114.09162139078934, 51.02885926161749], [-114.09162176760498, 51.028859159098076], [-114.09162402176482, 51.02885857791268], [-114.09162428506735, 51.02885851257672], [-114.0916252730095, 51.02885827690013], [-114.09162553896168, 51.02885821598079], [-114.09162826642181, 51.0288576168661], [-114.0916284614463, 51.02885757535006], [-114.09162919183579, 51.028857424790665], [-114.09162938809138, 51.028857385649886], [-114.09163258885181, 51.02885676860586], [-114.09163273840264, 51.028856740526216], [-114.09163329790908, 51.02885663827025], [-114.09163344809386, 51.02885661156989], [-114.09163712215455, 51.02885597659653], [-114.09163724016236, 51.028855956658084], [-114.09163768138511, 51.028855883810884], [-114.09163779974662, 51.02885586472402], [-114.09164194710755, 51.028855211821245], [-114.09164204051208, 51.02885519740382], [-114.09163818718244, 51.02885926295476], [-114.0916336112857, 51.02886316384451], [-114.09163270387883, 51.02886379676702], [-114.09163251385198, 51.02886383340048], [-114.0916317834624, 51.02886398395989], [-114.09162905600193, 51.02886458307467], [-114.09162806805968, 51.02886481875129], [-114.0916258138996, 51.02886539993675], [-114.09162441928521, 51.02886579955734], [-114.09162320830575, 51.02886618256995], [-114.09162232609408, 51.02886641845344], [-114.09162112187484, 51.02886669212018], [-114.091619609645, 51.028866985112785], [-114.09161780360463, 51.02886728372954], [-114.09161571695658, 51.028867577858065], [-114.09161336143528, 51.028867860035795], [-114.09161074722064, 51.02886812473646], [-114.091607883021, 51.02886836784594], [-114.09160477624262, 51.028868586280566], [-114.09160143315843, 51.02886877771336], [-114.09159785908716, 51.02886894037507], [-114.0915940585384, 51.02886907291119], [-114.09159003535213, 51.02886917427731], [-114.09158579280312, 51.02886924366298], [-114.091581333691, 51.02886928043538], [-114.09153751567116, 51.02886931476515], [-114.09153729068171, 51.02886914628628], [-114.0915364973094, 51.02886850799701], [-114.09153561307252, 51.028867749604316], [-114.09153465020047, 51.02886687487231], [-114.09153361818484, 51.02886588720778], [-114.0915325244472, 51.0288647896278], [-114.09153128490108, 51.02886349051371], [-114.09153059568116, 51.02886281761915], [-114.09152922890719, 51.028861572062745], [-114.09152833704073, 51.028860820784914], [-114.09152694273484, 51.02885973327317], [-114.09152578671, 51.028858908207596], [-114.09152436487223, 51.0288579787405], [-114.0915228736788, 51.02885709883744], [-114.0915214243091, 51.028856327415006], [-114.09151952891533, 51.02885543433143], [-114.09151805201371, 51.02885482095364], [-114.0915157103671, 51.028853985374305], [-114.09151420593352, 51.02885353004115], [-114.09151284323264, 51.028853156300855], [-114.09151144021162, 51.028852847534544], [-114.09150990824602, 51.02885255024602], [-114.09150838573686, 51.02885229579938], [-114.09150683615026, 51.02885211785646], [-114.09150527665265, 51.02885197861256], [-114.09150369410078, 51.028851877679905], [-114.09150210382884, 51.02885185654095], [-114.091501324349, 51.028851865775046], [-114.09150053947197, 51.02885082264865], [-114.09149793829401, 51.02884625615076], [-114.09149753678255, 51.02884525063629], [-114.0914975659324, 51.02884524816428], [-114.09149838096667, 51.02884519899296], [-114.09149990682138, 51.02884514400828], [-114.09150031597973, 51.028845134216255], [-114.09150190300917, 51.02884511541554], [-114.09150232915373, 51.02884511572357], [-114.09150391942542, 51.02884513686251], [-114.0915047699645, 51.028845169586255], [-114.09150635251613, 51.02884527051891], [-114.0915067755593, 51.02884530288264], [-114.09150833505669, 51.028845442126524], [-114.09150875161625, 51.028845484623645], [-114.09151030120263, 51.02884566256653], [-114.09151112472678, 51.02884577847543], [-114.09151264723577, 51.02884603292203], [-114.09151305291742, 51.028846106153246], [-114.0915145848828, 51.028846403441726], [-114.09151496313413, 51.028846481734156], [-114.09151636615499, 51.028846790500424], [-114.09151710748708, 51.02884697344145], [-114.09151847018782, 51.028847347181696], [-114.09151883224098, 51.02884745157673], [-114.0915203366744, 51.02884790690984], [-114.0915209758765, 51.028848117380065], [-114.09152257286519, 51.028848687240064], [-114.09152268404783, 51.028848835005206]]], [[[-114.09175107521081, 51.02884373324269], [-114.09175666409347, 51.0288435557021], [-114.0917621984683, 51.028843033566396], [-114.09176762503614, 51.028842171864], [-114.09177289153604, 51.02884097889366], [-114.09177653860108, 51.02883988763403], [-114.09177923888133, 51.02883941560993], [-114.09178262063043, 51.02883875653211], [-114.09178527466932, 51.028838172054584], [-114.09178711904461, 51.028837705143914], [-114.09178727294092, 51.02883765932658], [-114.09178749112887, 51.028837534314945], [-114.0917892989617, 51.028836532081904], [-114.09178946999273, 51.028836439264346], [-114.09179011423574, 51.028836097032624], [-114.09179028833488, 51.02883600651177], [-114.09179256919026, 51.02883484588403], [-114.09179269212558, 51.02883478426214], [-114.09179315373859, 51.02883455634493], [-114.09179327809595, 51.02883449586831], [-114.09179603197379, 51.02883317684581], [-114.09179612425692, 51.02883313313833], [-114.09179647016673, 51.02883297114118], [-114.09179656319245, 51.02883292806448], [-114.0917997900927, 51.02883145064723], [-114.09179986177844, 51.02883141811063], [-114.0918001301969, 51.02883129733947], [-114.09180020230679, 51.02883126517727], [-114.09180390222937, 51.0288296293652], [-114.09180395945883, 51.028829604238005], [-114.091804173598, 51.028829510870374], [-114.09180423108596, 51.02882948597918], [-114.0918084040308, 51.028827691772264], [-114.09180845074496, 51.02882767180065], [-114.09180862545442, 51.02882759753112], [-114.09180867233458, 51.0288275777155], [-114.09181331830156, 51.02882562511366], [-114.09181335713723, 51.02882560886882], [-114.09181350233348, 51.028825548420606], [-114.09181354128151, 51.02882553228246], [-114.09181866027053, 51.02882342128567], [-114.09181869305694, 51.028823407818976], [-114.09181881560397, 51.02882335768515], [-114.09181884846777, 51.02882334429442], [-114.0918244404787, 51.02882107490261], [-114.09182446852068, 51.028821063561324], [-114.09182457331548, 51.02882102132331], [-114.09182460141356, 51.02882101003709], [-114.0918306664463, 51.028818582250196], [-114.09183069070036, 51.02881857257024], [-114.09183078132779, 51.02881853650766], [-114.09183080562413, 51.02881852686834], [-114.09183734367852, 51.02881594068627], [-114.0918373648628, 51.028815932328385], [-114.09183744400613, 51.02881590118487], [-114.09183746522008, 51.02881589285873], [-114.09184317859606, 51.028813656283056], [-114.09184190845757, 51.02881910265249], [-114.09184050757132, 51.028822648152506], [-114.09183648702584, 51.02882423851288], [-114.09183639639842, 51.02882427457547], [-114.09183033136523, 51.02882670236269], [-114.09183022657044, 51.0288267446007], [-114.09182463455909, 51.02882901399279], [-114.09182451201205, 51.02882906412663], [-114.09181939302267, 51.02883117512367], [-114.09181924782642, 51.028831235571914], [-114.09181460185914, 51.02883318817398], [-114.09181442714967, 51.028833262443506], [-114.09181025420459, 51.028835056650635], [-114.09181004006538, 51.02883515001828], [-114.09180634014257, 51.02883678583054], [-114.09180607172408, 51.028836906601704], [-114.09180284482366, 51.02883838401913], [-114.09180249891382, 51.0288385460163], [-114.09179974503584, 51.02883986503893], [-114.0917992834228, 51.028840092956166], [-114.09179700256735, 51.02884125358405], [-114.09179635832432, 51.028841595815805], [-114.09179455049144, 51.02884259804894], [-114.09179359793657, 51.028843162042406], [-114.09179348328014, 51.02884323452576], [-114.09179298344085, 51.02884341516207], [-114.09179139670063, 51.028843887559376], [-114.09178903076227, 51.02884448650574], [-114.0917859627712, 51.02884516214463], [-114.09178224609289, 51.02884588649768], [-114.0917779177392, 51.02884664311809], [-114.09177300377156, 51.028847421913476], [-114.0917675228989, 51.02884821644796], [-114.09176148881222, 51.02884902247712], [-114.09175491172135, 51.02884983711725], [-114.09174779937281, 51.028850658357435], [-114.09174015774214, 51.02885148476219], [-114.09173199149741, 51.02885231528661], [-114.0917233043392, 51.02885314915547], [-114.09171402885681, 51.02885399218083], [-114.091713942245, 51.02885400017506], [-114.09170506188187, 51.028854832375764], [-114.09170496571681, 51.028854841538696], [-114.09169777198098, 51.028855538291815], [-114.09169230906724, 51.0288529899853], [-114.09168673877541, 51.02884981424985], [-114.09168680451674, 51.028849807520906], [-114.0916868368476, 51.02884980424371], [-114.09169477060954, 51.02884900790336], [-114.09169479936583, 51.028849005042304], [-114.09169490674869, 51.02884899445286], [-114.09169493551893, 51.02884899164101], [-114.09170334258087, 51.0288481773706], [-114.09170336833569, 51.02884817489635], [-114.09170346450074, 51.02884816573342], [-114.09170349026289, 51.02884816329895], [-114.09171237062478, 51.02884733109836], [-114.09171239382002, 51.02884732894106], [-114.09171248043184, 51.02884732094684], [-114.09171250363578, 51.02884731882151], [-114.09172173723442, 51.02884647960288], [-114.09173033582296, 51.028845654235695], [-114.09173840292685, 51.02884483379411], [-114.09174593286252, 51.02884401946862], [-114.09174896381774, 51.028843669493966], [-114.09175107521081, 51.02884373324269]]], [[[-114.09188524521015, 51.02879786096001], [-114.09189083408675, 51.02879768341301], [-114.09189604973736, 51.028797191340445], [-114.09189636845461, 51.02879716127095], [-114.09190179501459, 51.02879629956233], [-114.09190218375309, 51.028796211504506], [-114.09190673756486, 51.02879517996571], [-114.09190706150586, 51.028795106585925], [-114.09191090278588, 51.02879395720754], [-114.0919121172091, 51.02879359383076], [-114.09191386099042, 51.02879293286657], [-114.09191691343509, 51.02879177586552], [-114.09191706473146, 51.02879170492116], [-114.09192098279722, 51.02878986770136], [-114.09192140399347, 51.02878967019826], [-114.09192178171385, 51.028789453771026], [-114.09192179708221, 51.02878944496523], [-114.09192454278367, 51.02878787172577], [-114.09192554563765, 51.028787297107726], [-114.09192568017723, 51.02878720326454], [-114.09192810205418, 51.028785513972416], [-114.09192862656151, 51.028785148121386], [-114.09192890495439, 51.02878495393855], [-114.0919289058883, 51.028784953287136], [-114.09192929848135, 51.02878467944811], [-114.09193166035452, 51.028782665963135], [-114.09193262638266, 51.02878184242894], [-114.09193394716839, 51.02878044888636], [-114.09193408190497, 51.02878030672766], [-114.09193521725163, 51.02877910883914], [-114.09193549729207, 51.02877881337234], [-114.09193764834856, 51.0287759360751], [-114.09193788356123, 51.02877562144978], [-114.09193877117912, 51.02877405091346], [-114.09193976220915, 51.02877229740124], [-114.09194098241967, 51.028769209152024], [-114.09194111514351, 51.02876887323917], [-114.09194192933494, 51.02876538194015], [-114.09194219694243, 51.02876185712728], [-114.09194191538889, 51.02875833274646], [-114.09194108738598, 51.02875484273939], [-114.09193972090793, 51.02875142071675], [-114.091939533082, 51.02875109098445], [-114.09193971835182, 51.02875088539027], [-114.09194074292262, 51.02874981158426], [-114.09194133653571, 51.02874925427691], [-114.09194252537212, 51.02874825004908], [-114.09194285443546, 51.0287479860614], [-114.09194308659484, 51.028747809069195], [-114.0919432483636, 51.02874768863921], [-114.09194386056204, 51.028747243552694], [-114.0919440267567, 51.028747125543475], [-114.09194442497035, 51.02874684936485], [-114.0919445001501, 51.028746797765656], [-114.09194478240049, 51.028746606053886], [-114.09194485842629, 51.028746554950345], [-114.09194542269417, 51.028746179585276], [-114.0919454659766, 51.028746150961354], [-114.09194562806059, 51.02874604439806], [-114.09194567160887, 51.028746015934516], [-114.09194640193097, 51.02874554138305], [-114.09194643003535, 51.02874552318996], [-114.09194653516101, 51.028745455393874], [-114.09194656337398, 51.02874543726763], [-114.09194745975029, 51.028744863529724], [-114.09194747946198, 51.02874485094606], [-114.09194755314844, 51.028744804028854], [-114.09194757291165, 51.02874479147831], [-114.09194863534215, 51.02874411855398], [-114.0919486499289, 51.02874410933283], [-114.0919487044388, 51.02874407494037], [-114.09194871905382, 51.02874406573699], [-114.09194994753851, 51.02874329362619], [-114.09194996266994, 51.028743284134954], [-114.09195001921849, 51.028743248735424], [-114.09195003438091, 51.028743239262646], [-114.09195158872718, 51.0287422701153], [-114.0919515987154, 51.02874226389574], [-114.09195163602752, 51.02874224069234], [-114.09195164602794, 51.028742234481506], [-114.09195352623574, 51.02874106829755], [-114.0919535597859, 51.0287410475229], [-114.09195577294615, 51.028739679916484], [-114.09195579797804, 51.02873966446738], [-114.09195833520104, 51.02873810094666], [-114.0919583601256, 51.028738085606264], [-114.09196072216623, 51.02873663404144], [-114.09196415660388, 51.028741198455045], [-114.09196531278651, 51.02874322815583], [-114.09196327584438, 51.028744483385246], [-114.09196325609837, 51.02874449557023], [-114.09196105002908, 51.02874585879091], [-114.09196102356509, 51.02874587517451], [-114.0919591433573, 51.028747041358585], [-114.09195910604517, 51.02874706456198], [-114.0919575516989, 51.028748033709434], [-114.09195749515037, 51.02874806910896], [-114.09195626666566, 51.028748841219816], [-114.09195621215575, 51.02874887561228], [-114.09195514972524, 51.028749548536695], [-114.09195507603876, 51.02874959545389], [-114.09195417966247, 51.02875016919185], [-114.09195407453677, 51.028750236987946], [-114.09195334421469, 51.028750711539466], [-114.0919531821307, 51.028750818102765], [-114.09195261786284, 51.02875119346786], [-114.09195233561246, 51.02875138517964], [-114.09195193739883, 51.02875166135831], [-114.09195132520043, 51.02875210644486], [-114.09195109304105, 51.028752283437086], [-114.09194990420472, 51.028753287665026], [-114.09194887963406, 51.02875436147111], [-114.09194881352893, 51.02875443927691], [-114.09194795976327, 51.028755577535215], [-114.0919472906324, 51.028756763894066], [-114.09194681283401, 51.028757986478574], [-114.09194653115064, 51.028759233051225], [-114.09194644840184, 51.02876049113443], [-114.09194654434637, 51.02876152180009], [-114.09194652713404, 51.02876164266791], [-114.09194641110857, 51.028762361353174], [-114.09194625748391, 51.02876323614409], [-114.09194606709542, 51.02876425658877], [-114.09194584058628, 51.028765416363015], [-114.09194557843881, 51.0287667114146], [-114.09194528101494, 51.028768139025935], [-114.09194494858855, 51.0287696973067], [-114.09194458136979, 51.02877138489956], [-114.09194417952135, 51.02877320080788], [-114.09194394922245, 51.02877422654329], [-114.09194376268475, 51.028774621564196], [-114.09194319488056, 51.02877543325165], [-114.09194212016318, 51.02877661571756], [-114.0919404707348, 51.02877811206909], [-114.09193821704996, 51.02877987062936], [-114.09193535094208, 51.02878184980316], [-114.09193187480359, 51.028784017857774], [-114.0919277955413, 51.02878635111795], [-114.0919231214754, 51.028788832028496], [-114.09191786086868, 51.02879144753916], [-114.09191202129647, 51.028794187881026], [-114.09190560944296, 51.028797045670245], [-114.09189863108408, 51.02880001526889], [-114.09189109116163, 51.028803092324715], [-114.09188299388816, 51.0288062734403], [-114.09187422315708, 51.02880960135153], [-114.0918741734884, 51.028809620259565], [-114.09186574334825, 51.028812840023555], [-114.09186568808391, 51.02881286120819], [-114.09186292035928, 51.028813926044045], [-114.09186044685856, 51.02881353739895], [-114.09185254006756, 51.028811760361606], [-114.0918500004511, 51.0288110053507], [-114.09185206744309, 51.02881020359443], [-114.0918520840033, 51.02881019718403], [-114.09185214586289, 51.028810173287205], [-114.09185216244173, 51.02881016689573], [-114.09186011956021, 51.02880710552764], [-114.09186013435638, 51.02880709984544], [-114.0918601896207, 51.02880707866082], [-114.09186020443042, 51.02880707299411], [-114.09186863456992, 51.028803853230514], [-114.09186864786884, 51.02880384815952], [-114.09186869753749, 51.028803829251494], [-114.09186871084681, 51.028803824193176], [-114.09187741063315, 51.02880052320093], [-114.09188426266249, 51.028797831295314], [-114.09188524521015, 51.02879786096001]]], [[[-114.09186800245448, 51.02847934932749], [-114.09186800378225, 51.028479348401355], [-114.09187047046282, 51.02847762784932], [-114.0918704852941, 51.02847761750425], [-114.09187109297376, 51.02847709945784], [-114.09187381317703, 51.02847478048663], [-114.09187402829572, 51.028474553516794], [-114.0918747758037, 51.02847376482774], [-114.09187587166815, 51.02847260859081], [-114.09187587903799, 51.028472600814965], [-114.09187668407132, 51.02847175143132], [-114.0918775842858, 51.02847054728053], [-114.0918790703288, 51.0284685595098], [-114.09187932820674, 51.02846810322297], [-114.09188094896855, 51.02846523546203], [-114.09188113675441, 51.028464760190424], [-114.09188197604863, 51.02846263600112], [-114.09191381881578, 51.02843088327163], [-114.09192405077448, 51.02842066777599], [-114.09192558849927, 51.0284197866792], [-114.09192737615255, 51.02841853975681], [-114.0919293413133, 51.028417169019434], [-114.09193266918832, 51.02841433200012], [-114.09193286769772, 51.02841412255394], [-114.09193449183661, 51.02841240893398], [-114.09193554007506, 51.02841130294332], [-114.09193680056995, 51.028409616866156], [-114.09193792632539, 51.02840811102057], [-114.09193804681793, 51.028407897821346], [-114.09193833243661, 51.028407392448415], [-114.09193956916911, 51.02840520417698], [-114.09193960786806, 51.02840513570316], [-114.09194270461923, 51.02840204393105], [-114.09194928252434, 51.028395459967044], [-114.09194906641441, 51.02839830650401], [-114.09194815045684, 51.02840223421571], [-114.09194662841823, 51.02840608639838], [-114.09194451495647, 51.02840982595332], [-114.09194183042524, 51.028413416866556], [-114.09193860067795, 51.02841682455563], [-114.09193485681874, 51.028420016202546], [-114.091930634903, 51.02842296106996], [-114.09192911131892, 51.02842383406436], [-114.09193100476615, 51.02842635050112], [-114.09192285676878, 51.028434485389646], [-114.09188384501454, 51.02847338683574], [-114.09188302631098, 51.028474282688165], [-114.09188232698187, 51.02847521789674], [-114.09186358824032, 51.02850320272305], [-114.0918629572328, 51.02850427971138], [-114.09186248449043, 51.02850538848133], [-114.09186217394756, 51.028506519805376], [-114.09186202818863, 51.028507664268275], [-114.09186204842669, 51.028508812345464], [-114.09186330807584, 51.02852279586212], [-114.09185960276672, 51.02852363519976], [-114.09185277241751, 51.02852471982629], [-114.09185137390504, 51.02850919473237], [-114.0918513573566, 51.02850888728969], [-114.09185133711881, 51.02850773921252], [-114.09185137077564, 51.02850712449946], [-114.09185151653485, 51.02850598003658], [-114.09185163888603, 51.02850536981567], [-114.09185194942916, 51.02850423849166], [-114.09185215945644, 51.02850363784132], [-114.09185263219902, 51.028502529071396], [-114.09185292815447, 51.028501942990445], [-114.09185355916219, 51.02850086600217], [-114.0918537386207, 51.0285005799553], [-114.09186791291084, 51.028479411785725], [-114.09186800245448, 51.02847934932749]]], [[[-114.0915993960317, 51.02811654835195], [-114.09159651321013, 51.02811352381299], [-114.0915961667046, 51.02811322994797], [-114.09159532975575, 51.02811252014686], [-114.09159352005257, 51.028110985370425], [-114.09159351912385, 51.028110984582774], [-114.09159317416382, 51.028110692028434], [-114.09159176033644, 51.02810971077316], [-114.09159036237673, 51.02810874053066], [-114.09158941104964, 51.028108080269845], [-114.09158819124448, 51.028107384821226], [-114.09158663247094, 51.02810649611621], [-114.09158663069005, 51.02810649510087], [-114.09158526010847, 51.028105713689875], [-114.0915846241102, 51.02810541700756], [-114.09158212494935, 51.02810425119164], [-114.0915810569491, 51.028103752987704], [-114.0915807613161, 51.028103615079935], [-114.0915764979387, 51.0281020081609], [-114.09157595799832, 51.02810180465075], [-114.0915739241548, 51.02810119998753], [-114.09157089641367, 51.028100299837696], [-114.0915656253079, 51.02809911513294], [-114.09156019544452, 51.028098261945786], [-114.09155876162123, 51.028098128969475], [-114.09151924549573, 51.02807829647156], [-114.09152213233318, 51.02807764253978], [-114.09153095036787, 51.028076242291284], [-114.09153210481146, 51.02807613337682], [-114.09164161176233, 51.02813109303507], [-114.09164180132088, 51.02813346608284], [-114.09164136642745, 51.02813919390326], [-114.09164128438545, 51.02813954569892], [-114.09160178289652, 51.02811972061028], [-114.0915993960317, 51.02811654835195]]], [[[-114.09240037443612, 51.028047976450885], [-114.09239535047635, 51.02805327732051], [-114.09238952678946, 51.028058242127564], [-114.09238295946066, 51.02806282305817], [-114.09237571173686, 51.02806697599533], [-114.09236785341763, 51.028070660943854], [-114.09236550060106, 51.0280715527836], [-114.09240420548316, 51.028042851798695], [-114.09240037443612, 51.028047976450885]]], [[[-114.09251681349376, 51.02801742112373], [-114.09251232303697, 51.0280195268141], [-114.09251106390383, 51.0280202482992], [-114.09251086151875, 51.02802036426615], [-114.09251086129397, 51.02802036439494], [-114.09250818149114, 51.028021899925704], [-114.0925075042562, 51.028022372321594], [-114.09250715668108, 51.02802261476781], [-114.0925044287416, 51.028024517604194], [-114.09250110092938, 51.02802735463996], [-114.09249823010322, 51.028030383710814], [-114.09249584391075, 51.028033575645196], [-114.09249487836361, 51.02803528413644], [-114.09247076328887, 51.028053166336754], [-114.09247053471418, 51.028052202933836], [-114.092470147529, 51.02804735691138], [-114.09247048065065, 51.02804296844789], [-114.09252917188897, 51.0279994467294], [-114.09253316006642, 51.027998813394355], [-114.09254076968142, 51.027998095407106], [-114.09254521990005, 51.02799795400549], [-114.09252122005401, 51.0280157507986], [-114.09251681349376, 51.02801742112373]]], [[[-114.09247626414142, 51.02825374861345], [-114.09247709217554, 51.028257238617016], [-114.09247764354163, 51.028258619355995], [-114.09247845867857, 51.02826066063366], [-114.09247947095847, 51.028262437690024], [-114.09248035049046, 51.028263981707475], [-114.09248138661096, 51.028265358714684], [-114.0924827493921, 51.02826716985469], [-114.09248304488646, 51.028267479865875], [-114.09248530450644, 51.02826985049464], [-114.09248563228086, 51.028270194371665], [-114.09248661584296, 51.028271028488895], [-114.09248786514065, 51.028272087965135], [-114.09248897139298, 51.02827302613062], [-114.09249273457104, 51.02827563786012], [-114.09249688557358, 51.028278004407774], [-114.09249741718206, 51.02827825238669], [-114.09249864812138, 51.028278826581825], [-114.0925008890237, 51.02827987189338], [-114.09250138442415, 51.028280102982336], [-114.09250395791793, 51.028281072932224], [-114.09250618779637, 51.02828191337341], [-114.0925080251935, 51.02828245961291], [-114.09251090205869, 51.02828331487564], [-114.09251124943104, 51.02828341814588], [-114.09251158792061, 51.028283494219544], [-114.09251652058178, 51.02828460280792], [-114.09251830842834, 51.028284883713205], [-114.09251926571433, 51.02828550131633], [-114.09252375699796, 51.02828836051468], [-114.0925284678157, 51.028291323768755], [-114.09253286968851, 51.02829402675735], [-114.09253700699479, 51.028296499120174], [-114.0925408702349, 51.028298737350156], [-114.0925418395184, 51.02829927930472], [-114.09254078781646, 51.028299378534975], [-114.09253310319696, 51.02829962270474], [-114.09252634900292, 51.02829941881989], [-114.09252546281078, 51.02829888925096], [-114.0925209627513, 51.028296125970165], [-114.09251618367198, 51.02829311977708], [-114.09251164476889, 51.0282902302634], [-114.09250739434076, 51.02828748805449], [-114.09250343406387, 51.028284894542125], [-114.09249976601667, 51.0282824515069], [-114.09249639280233, 51.02828016126043], [-114.09249331771332, 51.02827802685173], [-114.09249054497845, 51.02827605239051], [-114.09248808008833, 51.02827424353138], [-114.09248593027863, 51.02827260826453], [-114.09248410519807, 51.028271158213215], [-114.09248261784136, 51.02826991088098], [-114.09248148572125, 51.028268893700016], [-114.09248073189934, 51.0282681516961], [-114.09248043791953, 51.02826782308377], [-114.09248037285539, 51.02826770050575], [-114.09247989214903, 51.02826688883336], [-114.09247930566663, 51.028265993832996], [-114.09247883180873, 51.02826532633942], [-114.09247810600716, 51.02826437877491], [-114.09247765550177, 51.02826382591177], [-114.09247679038101, 51.02826282578314], [-114.09247637052812, 51.028262363921804], [-114.09247536608822, 51.02826131122901], [-114.09247497906222, 51.02826092188142], [-114.0924738353032, 51.02825981662448], [-114.09247348056547, 51.028259485439335], [-114.09247219748733, 51.02825832761823], [-114.09247187316589, 51.028258043458976], [-114.09247045076866, 51.02825683307371], [-114.09247015442658, 51.02825658726408], [-114.09246859271023, 51.028255324314664], [-114.0924683217615, 51.02825511005229], [-114.09246662072609, 51.02825379453869], [-114.09246637265132, 51.02825360644995], [-114.09246453229686, 51.028252238372175], [-114.0924643047468, 51.02825207217744], [-114.0924623250733, 51.02825065153547], [-114.09246211591068, 51.02825050379805], [-114.09245999691817, 51.028249030591894], [-114.09245980422621, 51.02824889852938], [-114.0924575459147, 51.028247372759026], [-114.09245736798869, 51.02824725410062], [-114.0924549703582, 51.028245675766065], [-114.0924549469365, 51.02824566052962], [-114.09245496712809, 51.02824539453278], [-114.09245608657564, 51.0282405939913], [-114.09245728240434, 51.02823756732518], [-114.09245966665569, 51.02823906709947], [-114.09245970768175, 51.028239093046885], [-114.09245986042684, 51.02823919017872], [-114.09245990122848, 51.02823921626621], [-114.09246243817792, 51.02824084716483], [-114.09246248242054, 51.02824087577566], [-114.09246264708968, 51.02824098289731], [-114.09246269106266, 51.028241011673046], [-114.09246508869317, 51.02824259000746], [-114.09246513651544, 51.02824262169347], [-114.09246531444145, 51.02824274035186], [-114.0924653619367, 51.02824277223283], [-114.09246762024824, 51.02824429800303], [-114.09246767206199, 51.02824433326081], [-114.09246786475396, 51.02824446532331], [-114.09246791616805, 51.028244500813315], [-114.0924700351606, 51.02824597401934], [-114.0924700914333, 51.02824601345294], [-114.09247030059592, 51.02824616119036], [-114.09247035637462, 51.028246200901776], [-114.09247233604819, 51.028247621543606], [-114.09247239730689, 51.02824766589234], [-114.09247262485695, 51.028247832087054], [-114.09247268550007, 51.028247876771225], [-114.0924745258546, 51.028249244848865], [-114.09247459269154, 51.0282492950262], [-114.09247484076634, 51.02824948311494], [-114.0924749068266, 51.028249533699416], [-114.09247599459113, 51.02825037493342], [-114.09247626414142, 51.02825374861345]]], [[[-114.09285624844185, 51.02867079754666], [-114.092853686174, 51.02866438127422], [-114.09285213354343, 51.02865783752302], [-114.09285206428324, 51.02865697076098], [-114.09285250130976, 51.02865601420337], [-114.09285505961137, 51.02865100614623], [-114.09285791342577, 51.028645947040374], [-114.09286106461596, 51.02864083695088], [-114.09286451491315, 51.02863567606955], [-114.09286826590713, 51.02863046469403], [-114.09287231904233, 51.02862520320738], [-114.09287667561793, 51.028619892059425], [-114.09288144858071, 51.02861440319352], [-114.09288169990141, 51.028614104741706], [-114.09288631055414, 51.02860844736065], [-114.09288655269579, 51.0286081400104], [-114.09289088484633, 51.028602447734244], [-114.09289111675974, 51.02860213188543], [-114.09289461164617, 51.02859719415763], [-114.09289901078007, 51.028595131294374], [-114.0929080035926, 51.0285917225334], [-114.09291015556074, 51.02859107860138], [-114.09290936786647, 51.02859238449171], [-114.09290931303556, 51.02859247349226], [-114.09290910461307, 51.02859280483031], [-114.09290904778905, 51.02859289333228], [-114.09290527264363, 51.0285986553988], [-114.0929052145014, 51.02859874241077], [-114.0929049938409, 51.02859906628097], [-114.09290493377216, 51.02859915277089], [-114.09290088012469, 51.02860487994241], [-114.09290081893265, 51.02860496481563], [-114.09290058701927, 51.02860528066447], [-114.092900523972, 51.02860536499599], [-114.09289619182239, 51.028611057272485], [-114.09289612785307, 51.02861113987726], [-114.09289588571146, 51.02861144722754], [-114.09289581996205, 51.028611529274684], [-114.09289120931018, 51.02861718665612], [-114.0928911428431, 51.02861726688359], [-114.09289089152244, 51.02861756533544], [-114.09289082335347, 51.02861764499288], [-114.0928861126372, 51.028623062277084], [-114.09288187733578, 51.02862822557969], [-114.09287794399454, 51.02863333155986], [-114.09287431061884, 51.028638379526015], [-114.09287097499005, 51.02864336889038], [-114.09286793466686, 51.02864829919547], [-114.09286518699028, 51.0286531701471], [-114.09286272909948, 51.02865798164501], [-114.09286055795492, 51.02866273381793], [-114.09285867037325, 51.02866742705651], [-114.09285706307341, 51.02867206204457], [-114.09285703121512, 51.02867217167001], [-114.09285624844185, 51.02867079754666]]], [[[-114.09285764552307, 51.0289279033002], [-114.09284882179936, 51.028926516968795], [-114.09284405742429, 51.02892544623201], [-114.09283733324483, 51.02891897859197], [-114.09283709268504, 51.02891875257865], [-114.09282685405881, 51.0289093543275], [-114.09282650147797, 51.0289090410405], [-114.09281486135257, 51.028899025609476], [-114.09281455051502, 51.02889876529397], [-114.09280150889184, 51.02888813268262], [-114.09280118259797, 51.028887873763054], [-114.09278321319809, 51.028873993149894], [-114.09278294621892, 51.02887065197247], [-114.09278338097836, 51.02886492414859], [-114.0927836362674, 51.02886382937013], [-114.09279076378392, 51.02886916759017], [-114.09279081581154, 51.028869206858204], [-114.09279100916307, 51.02886935392164], [-114.09279106071662, 51.028869393437574], [-114.09280946499126, 51.028883609971565], [-114.09280955311395, 51.02888367896295], [-114.09280987940784, 51.0288839378825], [-114.09280996608543, 51.028884007598016], [-114.0928230077094, 51.028894640208414], [-114.09282309168515, 51.02889470959586], [-114.09282340252271, 51.02889496991134], [-114.09282348506707, 51.02889503997862], [-114.09283512519333, 51.02890505540879], [-114.09283522065016, 51.02890513887045], [-114.09283557323103, 51.028905452157424], [-114.09283566665681, 51.02890553652809], [-114.092845905284, 51.02891493477846], [-114.09284597023883, 51.0289149950981], [-114.09284621079864, 51.0289152211114], [-114.09284627471513, 51.02891528187031], [-114.09285643222955, 51.028925051854856], [-114.09285649215276, 51.02892511014454], [-114.09285671408239, 51.02892532848031], [-114.09285677305006, 51.028925387156214], [-114.09285943814693, 51.028928069529194], [-114.09285764552307, 51.0289279033002]]], [[[-114.09296975953995, 51.02905882998611], [-114.09296919103606, 51.029066320217986], [-114.09296817476596, 51.029070678435595], [-114.09294799722443, 51.02904509040612], [-114.09294794757389, 51.02904502787839], [-114.09292984513336, 51.029022387750736], [-114.09292976806265, 51.02902229237205], [-114.09291522122965, 51.029004477655945], [-114.09291514835357, 51.029004389269744], [-114.09290402832941, 51.028991032005344], [-114.0929055716959, 51.028991490819024], [-114.09291577905202, 51.028995337863925], [-114.09292217071376, 51.02899831929432], [-114.09292461495828, 51.0290012552955], [-114.09292463455299, 51.029001278946055], [-114.09292470742906, 51.02900136733224], [-114.09292472687511, 51.02900139103142], [-114.09293927371081, 51.02901920574635], [-114.09293929444092, 51.02901923126657], [-114.09293937151165, 51.029019326645255], [-114.09293939206941, 51.02901935222076], [-114.09295749451341, 51.02904199234695], [-114.09295750784943, 51.029042009083646], [-114.09295755749997, 51.029042071611386], [-114.09295757076245, 51.02904208837169], [-114.0929696453218, 51.02905740065225], [-114.09296975953995, 51.02905882998611]]], [[[-114.09242327262004, 51.02826988034301], [-114.09242246061943, 51.02826845487357], [-114.092421380812, 51.02826655926828], [-114.09242051369957, 51.028265406870915], [-114.09241898191459, 51.02826337111981], [-114.092418886416, 51.02826327092943], [-114.09241664526486, 51.0282609196717], [-114.0924166408626, 51.02826091505315], [-114.09241609903059, 51.028260346601186], [-114.09241531538515, 51.02825968202332], [-114.09241523517116, 51.028259613997086], [-114.09241413895313, 51.02825868433903], [-114.09241275992382, 51.028257514840135], [-114.09240899675173, 51.02825490310804], [-114.09240484575571, 51.02825253655727], [-114.0924043152906, 51.02825228911089], [-114.09240413873938, 51.028252206754956], [-114.09240368117945, 51.0282519933167], [-114.09240222898825, 51.02825131591221], [-114.09240157335061, 51.0282510100765], [-114.0924010420751, 51.02825076225207], [-114.09240034691214, 51.02825043797896], [-114.0923983684678, 51.028249692300356], [-114.09239554354731, 51.02824862758352], [-114.09239386432189, 51.02824812836453], [-114.09239158325946, 51.0282474502246], [-114.09239048192018, 51.028247122806036], [-114.09238677761239, 51.02824629027816], [-114.0923852107769, 51.0282459381383], [-114.09238058592425, 51.02824521147819], [-114.09237978088136, 51.028245084989265], [-114.09237481298901, 51.028244624291645], [-114.0923700178705, 51.02824241261122], [-114.09236498628164, 51.02824012799402], [-114.09235974946832, 51.028237785086276], [-114.09235430825257, 51.02823538446072], [-114.09234870343117, 51.028232944060065], [-114.0923481429492, 51.02823270469094], [-114.09235333396362, 51.02823188035432], [-114.09236094361957, 51.02823116237876], [-114.09236322504235, 51.02823108989256], [-114.09236590730255, 51.028232273286484], [-114.09237120324997, 51.028234642650204], [-114.09237629753795, 51.02823695573611], [-114.09238118957222, 51.028239212117406], [-114.09238587868856, 51.02824141130205], [-114.09239036414174, 51.028243552719815], [-114.09239464510183, 51.02824563571042], [-114.0923987206327, 51.02824765950049], [-114.0924025896865, 51.02824962318456], [-114.0924062510798, 51.02825152569187], [-114.09240970348655, 51.02825336575516], [-114.09241294540908, 51.028255141859105], [-114.09241597517007, 51.02825685218747], [-114.09241879088657, 51.02825849454375], [-114.09242139046466, 51.02826006625968], [-114.09242385005508, 51.028261613425535], [-114.09242622821223, 51.02826314224398], [-114.09242845443818, 51.02826460774536], [-114.09243052730415, 51.02826600822479], [-114.09243244519456, 51.0282673416175], [-114.09243420628333, 51.02826860540052], [-114.0924358085255, 51.028269796471584], [-114.09243724964843, 51.02827091097971], [-114.0924385271779, 51.028271944109704], [-114.09243963850003, 51.02827288978695], [-114.09244058101257, 51.02827374028977], [-114.09244135242274, 51.02827448573266], [-114.09244195131261, 51.02827511339344], [-114.09244237817263, 51.02827560686829], [-114.09244263723733, 51.028275945088474], [-114.09244273965534, 51.02827610138347], [-114.09244296863037, 51.0282765327632], [-114.09244380298328, 51.02827785213235], [-114.09244452885422, 51.02827883481326], [-114.0924452377581, 51.0282797045504], [-114.09244624233742, 51.02828082747584], [-114.0924468199087, 51.02828143274232], [-114.09244703035348, 51.028281639888014], [-114.09244676417251, 51.02828514645021], [-114.09244564472293, 51.02828994699158], [-114.09244504697715, 51.0282914598953], [-114.09244430405542, 51.02829086963347], [-114.0924442179057, 51.02829080026014], [-114.09244389897735, 51.028290539952096], [-114.0924438142726, 51.0282904698747], [-114.09244197356809, 51.02828892621558], [-114.09244186941807, 51.02828883736652], [-114.09244148492715, 51.02828850367661], [-114.0924413830999, 51.02828841376322], [-114.09243982110387, 51.02828701034861], [-114.09243969345565, 51.02828689304724], [-114.09243922428136, 51.02828645200046], [-114.09243910058625, 51.02828633302679], [-114.09243781729869, 51.02828506985673], [-114.09243765898393, 51.02828490910101], [-114.09243708141273, 51.02828430383448], [-114.09243693031434, 51.02828414034028], [-114.09243592573517, 51.028283017414765], [-114.09243572867143, 51.02828278677633], [-114.09243501976768, 51.02828191703912], [-114.09243483706156, 51.02828168174692], [-114.09243411119077, 51.02828069906596], [-114.0924338718789, 51.02828034964311], [-114.0924330375262, 51.028279030273914], [-114.09243282986343, 51.02827867289181], [-114.09243279567389, 51.02827860848002], [-114.09243267357138, 51.028278467322444], [-114.09243229194016, 51.028278067357434], [-114.09243172000248, 51.02827751467227], [-114.09243095993568, 51.028276828804394], [-114.09243001526077, 51.028276024935124], [-114.09242888997422, 51.02827511492289], [-114.09242758809008, 51.028274108096475], [-114.09242611340781, 51.02827301185043], [-114.09242446941774, 51.028271832098994], [-114.09242389158418, 51.02827143036638], [-114.09242327262004, 51.02826988034301]]], [[[-114.09192351310607, 51.02848829543768], [-114.09192312983502, 51.02848847515847], [-114.0919203897712, 51.02849004517778], [-114.09191951567662, 51.02849054602205], [-114.09191898821732, 51.028490848249035], [-114.09191683042484, 51.02849235334789], [-114.09191619635614, 51.02849279562212], [-114.09191619570908, 51.02849279607346], [-114.09191523539674, 51.02849346590843], [-114.09191327202382, 51.02849513968368], [-114.091911907515, 51.02849630292723], [-114.09191095965286, 51.028497303008834], [-114.09191064450516, 51.0284976355186], [-114.09191845944763, 51.028485964503275], [-114.09193901598518, 51.02846546608464], [-114.09193824256702, 51.02846878256615], [-114.09193553671508, 51.02847563089055], [-114.0919317794423, 51.02848227898776], [-114.09192915679436, 51.02848578711693], [-114.09192762036382, 51.02848636949088], [-114.09192351310607, 51.02848829543768]]], [[[-114.09190416282334, 51.02850731540685], [-114.09190423379286, 51.0285072094194], [-114.09190420042975, 51.0285072938589], [-114.09190416282334, 51.02850731540685]]], [[[-114.09263348984561, 51.02892330182057], [-114.09263473193253, 51.02892853682363], [-114.09263477786864, 51.02892911172468], [-114.0926319175976, 51.0289319209676], [-114.09263169118421, 51.028932148652565], [-114.09262780110414, 51.02893615498838], [-114.09262759363212, 51.02893637359883], [-114.09262373170958, 51.028940537935334], [-114.09262354143598, 51.02894074770445], [-114.09261970767095, 51.028945070041615], [-114.09261953301187, 51.02894527124085], [-114.09261572740431, 51.02894975157868], [-114.09261556692377, 51.02894994450566], [-114.09261178947364, 51.02895458284418], [-114.09261164187205, 51.02895476781314], [-114.09260789257934, 51.02895956415231], [-114.09260775668206, 51.028959741486446], [-114.09260403554673, 51.02896469582631], [-114.09260391029295, 51.02896486585188], [-114.09260021731498, 51.028969978192436], [-114.09260010174721, 51.02897014123415], [-114.09259643692656, 51.02897541157539], [-114.09259633018068, 51.02897556795292], [-114.09259321001593, 51.028980225332454], [-114.09259003527133, 51.02898142871026], [-114.09258245171884, 51.02898369788684], [-114.0925788844912, 51.02898450596257], [-114.09257894412963, 51.028984410278184], [-114.0925789684141, 51.02898437166576], [-114.09257905977974, 51.02898422768973], [-114.09257908444113, 51.02898418917216], [-114.09258269294821, 51.02897860282983], [-114.09258271918112, 51.028978562590645], [-114.09258281788493, 51.02897841256521], [-114.09258284452905, 51.02897837243361], [-114.09258648119335, 51.02897294409198], [-114.09258650956141, 51.02897290214412], [-114.0925866163073, 51.02897274576661], [-114.09258664512457, 51.028972703940795], [-114.09259030994612, 51.02896743359986], [-114.0925903406561, 51.02896738985872], [-114.09259045622387, 51.02896722681703], [-114.09259048742523, 51.0289671832144], [-114.09259418040406, 51.028962070874144], [-114.09259421368525, 51.02896202525277], [-114.09259433893902, 51.02896185522721], [-114.09259437275809, 51.02896180976347], [-114.09259809389422, 51.0289568554239], [-114.09259813000061, 51.02895680783386], [-114.0925982658979, 51.028956630499735], [-114.09259830259364, 51.02895658308935], [-114.09260205188713, 51.02895178675047], [-114.0926020911001, 51.02895173710266], [-114.09260223870172, 51.028951552133734], [-114.09260227856103, 51.028951502691044], [-114.09260605601186, 51.028946864352825], [-114.09260609864303, 51.02894681255871], [-114.09260625912361, 51.02894661963174], [-114.09260630246416, 51.02894656807213], [-114.09261010807238, 51.0289420877346], [-114.09261015446667, 51.02894203370753], [-114.09261032912576, 51.02894183250832], [-114.09261037629885, 51.02894177875009], [-114.09261421006448, 51.02893745641323], [-114.09261426060296, 51.028937400070724], [-114.09261445087658, 51.02893719030161], [-114.09261450227041, 51.02893713426779], [-114.09261836419348, 51.02893296993161], [-114.09261841929641, 51.028932911197906], [-114.09261862676846, 51.028932692587446], [-114.09261868281129, 51.02893263420843], [-114.09262257289184, 51.02892862787291], [-114.092622633022, 51.0289285666817], [-114.09262285943542, 51.028928338996764], [-114.09262292059816, 51.028928278213904], [-114.09262683883622, 51.02892442987904], [-114.0926269045013, 51.0289243661778], [-114.09262715176803, 51.02892412923826], [-114.09262721856727, 51.02892406600763], [-114.09263116496288, 51.02892037567344], [-114.09263123671786, 51.0289203094279], [-114.0926315069269, 51.028920063124964], [-114.09263157992677, 51.0289199974225], [-114.09263201564247, 51.02891961018575], [-114.09263348984561, 51.02892330182057]]]]}}], "crs": {"type": "name", "properties": {"name": "urn:ogc:def:crs:EPSG::4617"}}}