{"type": "FeatureCollection", "features": [{"type": "Feature", "properties": {"tag": "N01", "key": "TA", "botanical": "Tilia americana", "common": "American basswood (linden)", "kind": "deciduous", "role": "shade on the seating node (south-west side)", "mature_spread_m": 12.2, "crown_m": 8.13}, "geometry": {"type": "Point", "coordinates": [-114.09210430146216, 51.02859773916922]}}, {"type": "Feature", "properties": {"tag": "N02", "key": "GT", "botanical": "Gleditsia triacanthos 'Harve'", "common": "Northern Acclaim honeylocust", "kind": "deciduous", "role": "light shade on the seating node", "mature_spread_m": 10.7, "crown_m": 7.13}, "geometry": {"type": "Point", "coordinates": [-114.09200444067483, 51.02856185878774]}}, {"type": "Feature", "properties": {"tag": "N03", "key": "AG", "botanical": "Aesculus glabra", "common": "Ohio buckeye", "kind": "deciduous", "role": "shade along the loop in an open lawn gap", "mature_spread_m": 9.1, "crown_m": 6.07}, "geometry": {"type": "Point", "coordinates": [-114.09197527109751, 51.02822926060178]}}, {"type": "Feature", "properties": {"tag": "N04", "key": "PP", "botanical": "Pinus ponderosa", "common": "ponderosa pine", "kind": "coniferous", "role": "winter structure in an open lawn gap", "mature_spread_m": 9.1, "crown_m": 6.07}, "geometry": {"type": "Point", "coordinates": [-114.09223301272714, 51.028804402143635]}}, {"type": "Feature", "properties": {"tag": "N05", "key": "LS", "botanical": "Larix sibirica", "common": "Siberian larch", "kind": "coniferous", "role": "winter structure / autumn colour in an open lawn gap", "mature_spread_m": 6.1, "crown_m": 4.07}, "geometry": {"type": "Point", "coordinates": [-114.09229014272368, 51.028858295601545]}}], "crs": {"type": "name", "properties": {"name": "urn:ogc:def:crs:EPSG::4617"}}}