{"type": "FeatureCollection", "features": [{"type": "Feature", "properties": {"part": "loop", "length_m": 11.0, "buildup_min_m": 0.152}, "geometry": {"type": "LineString", "coordinates": [[-114.09188336190648, 51.0285235035772], [-114.09188255362213, 51.028514530759765], [-114.09188354393828, 51.02850575427411], [-114.091889087868, 51.028497474852216], [-114.09189463179575, 51.02848919543003], [-114.09190017572152, 51.0284809160076], [-114.09190759217863, 51.028473253933186], [-114.09191520955254, 51.02846565809859], [-114.09192282692396, 51.028458062263475], [-114.0919304442929, 51.02845046642786], [-114.09193806165935, 51.028442870591746], [-114.09194567383636, 51.028435272687844]]}}, {"type": "Feature", "properties": {"part": "loop", "length_m": 13.0, "buildup_min_m": 0.157}, "geometry": {"type": "LineString", "coordinates": [[-114.09238365893512, 51.028224789596855], [-114.09239517302109, 51.02823008557913], [-114.0924065244342, 51.028235519312595], [-114.0924176457855, 51.02824113879039], [-114.09242844681046, 51.028247000845205], [-114.09243874096222, 51.02825321373439], [-114.09244847312634, 51.02825977733459], [-114.0924572714049, 51.02826683957387], [-114.09246378742219, 51.028274803555654], [-114.0924723343238, 51.02828198600634], [-114.09248176490402, 51.0282887231794], [-114.09249155047567, 51.02829525671798], [-114.09250152836908, 51.02830167369828], [-114.09251167146984, 51.02830798672105]]}}, {"type": "Feature", "properties": {"part": "loop", "length_m": 6.0, "buildup_min_m": 0.149}, "geometry": {"type": "LineString", "coordinates": [[-114.09287430372521, 51.028595007369766], [-114.09286820528182, 51.028603129286005], [-114.0928615736445, 51.02861108347964], [-114.0928549140435, 51.02861902851506], [-114.09284874832922, 51.028627130265015], [-114.09284306048883, 51.028635369900165], [-114.09283796324098, 51.02864376142192]]}}, {"type": "Feature", "properties": {"part": "loop", "length_m": 5.0, "buildup_min_m": 0.148}, "geometry": {"type": "LineString", "coordinates": [[-114.09264908145144, 51.02893835791253], [-114.09264173316252, 51.02894605773922], [-114.09263482833109, 51.02895391910587], [-114.09262830958414, 51.02896191055896], [-114.09262212887647, 51.02897000842154], [-114.09261628662266, 51.028978205631255]]}}, {"type": "Feature", "properties": {"part": "spur_E1", "length_m": 6.3, "buildup_min_m": 0.128}, "geometry": {"type": "LineString", "coordinates": [[-114.09251514081107, 51.02799042400035], [-114.0925054393584, 51.02799761799174], [-114.09249573790272, 51.028004811982285], [-114.09248603644404, 51.02801200597204], [-114.09247633498236, 51.02801919996097], [-114.09246663351769, 51.0280263939491], [-114.09245693204998, 51.0280335879364]]}}, {"type": "Feature", "properties": {"part": "spur_E2", "length_m": 9.2, "buildup_min_m": 0.109}, "geometry": {"type": "LineString", "coordinates": [[-114.09154750746387, 51.028067778693625], [-114.09155886345093, 51.028073478077964], [-114.09157021944077, 51.02807917746119], [-114.0915815754334, 51.0280848768433], [-114.09159293142879, 51.028090576224294], [-114.09160428742699, 51.02809627560419], [-114.09161564342797, 51.028101974982974], [-114.09162699943174, 51.028107674360655], [-114.09163835543829, 51.028113373737206], [-114.09164971144763, 51.02811907311264]]}}, {"type": "Feature", "properties": {"part": "spur_E3", "length_m": 10.1, "buildup_min_m": 0.121}, "geometry": {"type": "LineString", "coordinates": [[-114.0914955604218, 51.02886561877538], [-114.09150908847785, 51.028866231027784], [-114.09151774959582, 51.02887357462322], [-114.09152722262031, 51.02888051606579], [-114.091541277221, 51.028881897482705], [-114.09155586440596, 51.02888188605555], [-114.09157045159093, 51.02888187462658], [-114.09158503847408, 51.02888183661396], [-114.09159961305654, 51.028881478938196], [-114.09161411806498, 51.028880530285605], [-114.09162830016183, 51.028878438787295]]}}, {"type": "Feature", "properties": {"part": "spur_E3", "length_m": 11.2, "buildup_min_m": 0.119}, "geometry": {"type": "LineString", "coordinates": [[-114.09169915964911, 51.0288681386358], [-114.09171358151423, 51.02886675784672], [-114.09172801530703, 51.02886542757958], [-114.09174242620023, 51.02886400233675], [-114.09175679415866, 51.02886241465473], [-114.09177109535169, 51.02886060416165], [-114.09178526293627, 51.028858419391696], [-114.09179908599798, 51.02885550291616], [-114.09181098848008, 51.028850308915], [-114.09182278498308, 51.02884490160908], [-114.09183492922753, 51.02883980611222], [-114.09184721839924, 51.02883485037405]]}}, {"type": "Feature", "properties": {"part": "spur_E3", "length_m": 12.2, "buildup_min_m": 0.115}, "geometry": {"type": "LineString", "coordinates": [[-114.09187202394097, 51.02882516667098], [-114.09188449305826, 51.02882039292231], [-114.0918969583036, 51.028815615568654], [-114.09190925725873, 51.028810669978164], [-114.0919212883225, 51.02880546941925], [-114.0919329697845, 51.02879996249496], [-114.09194409677838, 51.02879401872932], [-114.09195421943225, 51.02878740706684], [-114.09196203487964, 51.02877968412283], [-114.0919648724122, 51.02877070031193], [-114.09196656163812, 51.028761564736854], [-114.09197519917772, 51.028754736413944], [-114.09198563931267, 51.02874831200753]]}}, {"type": "Feature", "properties": {"part": "spur_E4", "length_m": 15.3, "buildup_min_m": 0.138}, "geometry": {"type": "LineString", "coordinates": [[-114.09296588050542, 51.0290962417243], [-114.0929594697423, 51.02908801807153], [-114.09295305898145, 51.0290797944184], [-114.09294660060935, 51.02907158561003], [-114.09294013042697, 51.02906338048428], [-114.09293366024687, 51.02905517535814], [-114.09292715730274, 51.02904698057806], [-114.09292061493227, 51.02903879824775], [-114.09291407256413, 51.02903061591705], [-114.09290745455296, 51.02902245789302], [-114.09290080206463, 51.02901431094788], [-114.09289409852953, 51.02900618074025], [-114.09288734399468, 51.02899806725468], [-114.09288052473633, 51.02898997545069], [-114.09287364526656, 51.028981903816764], [-114.09286664999553, 51.028973872010475]]}}, {"type": "Feature", "properties": {"part": "spur_E4", "length_m": 6.1, "buildup_min_m": 0.152}, "geometry": {"type": "LineString", "coordinates": [[-114.09282161394303, 51.028926813521785], [-114.09281341741392, 51.02891924707975], [-114.09280495982432, 51.028911796700356], [-114.09279628599641, 51.02890444538347], [-114.09278739537434, 51.02889719700991], [-114.09277826206916, 51.028890070255166], [-114.09276907250342, 51.028882971695495]]}}], "crs": {"type": "name", "properties": {"name": "urn:ogc:def:crs:EPSG::4617"}}}