{"type": "FeatureCollection", "features": [{"type": "Feature", "properties": {}, "geometry": {"type": "Polygon", "coordinates": [[[-114.09287205197569, 51.02920954997197], [-114.0928537601648, 51.02920878239782], [-114.09283703667006, 51.02920881366356], [-114.09282031575714, 51.029208710078464], [-114.0928035932751, 51.029208534574146], [-114.0927868692599, 51.02920830513008], [-114.09277120156699, 51.029208056865585], [-114.09275553378454, 51.02920776365026], [-114.09273986437935, 51.02920737154677], [-114.09272421181238, 51.0292068445814], [-114.0927085716815, 51.02920611982938], [-114.09269273305418, 51.029205224427294], [-114.09267689293019, 51.029204293065206], [-114.09266106699097, 51.029203325730656], [-114.09264524101657, 51.0292023404145], [-114.09262870219699, 51.02920132869191], [-114.09261214766084, 51.029200298999925], [-114.09259561021454, 51.02919926030229], [-114.09257906984618, 51.02919818564563], [-114.09256253224024, 51.029197066035586], [-114.0925457904364, 51.029195775779506], [-114.09252909519448, 51.029194242760646], [-114.09251242817902, 51.02919256588092], [-114.09249577386977, 51.02919082606043], [-114.09247968984896, 51.02918911275555], [-114.09246363423367, 51.02918734548743], [-114.09244759278603, 51.0291855332571], [-114.09243155126812, 51.02918368506559], [-114.09241553673031, 51.029181782912], [-114.09239951073552, 51.029179853795966], [-114.0923846668367, 51.02917806757944], [-114.09236982153128, 51.02917629035188], [-114.09235497752752, 51.02917445019309], [-114.09234019035182, 51.02917251110017], [-114.09232546132262, 51.029170419133536], [-114.09231081456787, 51.029168120335555], [-114.09229626993876, 51.0291655607521], [-114.09228233538941, 51.029162964726034], [-114.09226838941909, 51.02916035971755], [-114.09225445628057, 51.02915775469727], [-114.09224052171804, 51.029155149676484], [-114.09222657577024, 51.02915255365274], [-114.09221264263643, 51.02914994862748], [-114.09220377221278, 51.02914829252083], [-114.09218956647426, 51.029145525892226], [-114.0921754473235, 51.029142570408666], [-114.09216141342421, 51.02913947101998], [-114.0921474078602, 51.02913628170969], [-114.09213344494083, 51.029133029435755], [-114.09211842787676, 51.02912945435976], [-114.09210348040126, 51.029125744380615], [-114.09208864526411, 51.02912189047484], [-114.0920739266709, 51.029117856680195], [-114.0920578083026, 51.02911317672364], [-114.09204180229139, 51.029108361829955], [-114.09202579770907, 51.02910354693298], [-114.0920097078444, 51.02909885795758], [-114.0919920224554, 51.02909401740999], [-114.09197436408493, 51.02908914087941], [-114.09195892734202, 51.02908455027034], [-114.09194356737007, 51.02907985172173], [-114.09192821736251, 51.029075144173476], [-114.09191278488777, 51.0290705445652], [-114.0918981628744, 51.02906631289772], [-114.09188352810459, 51.029062117197434], [-114.09186885065887, 51.0290579664777], [-114.09185413199835, 51.029053878716844], [-114.09171179086982, 51.029012170145656], [-114.0915352426028, 51.02896001512857], [-114.09148457702024, 51.0289452756365], [-114.09146734758244, 51.028940983027816], [-114.09145047508288, 51.028936240649315], [-114.09143375732013, 51.028931165526174], [-114.0914185932441, 51.02892599029792], [-114.09140395539676, 51.02892018537292], [-114.09139010054116, 51.028913831458425], [-114.09137732623384, 51.02890673054732], [-114.09136552244051, 51.028898747879595], [-114.09135499745076, 51.02888934382897], [-114.09134667908968, 51.02887912897421], [-114.09133888779475, 51.02886725959105], [-114.09133353057086, 51.028854974776095], [-114.09133082713662, 51.02884309242622], [-114.0913298485763, 51.02883117276917], [-114.09132985878489, 51.02882185936981], [-114.09132998446482, 51.02881254588021], [-114.0913302940435, 51.02880323224686], [-114.09133084456138, 51.028793927414945], [-114.09133163567711, 51.02878373240877], [-114.09133255794504, 51.02877353730004], [-114.09133370832157, 51.028763351002794], [-114.09133365877362, 51.028753372407785], [-114.09133395421364, 51.02874339354312], [-114.09133477426326, 51.02873341426843], [-114.09133632422186, 51.02872344341305], [-114.09133881081408, 51.02871348980508], [-114.09134163302038, 51.02870456975716], [-114.09134457940907, 51.02869573051994], [-114.09134755724752, 51.028686936206824], [-114.0913505051479, 51.028678141917055], [-114.09135332326747, 51.028669320759334], [-114.09135625686878, 51.02865978033045], [-114.09135918760006, 51.028650230913954], [-114.09136210551772, 51.02864069049717], [-114.09136502484209, 51.028631141089406], [-114.09136792705846, 51.02862159169497], [-114.09137080218788, 51.02861204232159], [-114.09137366429161, 51.02860239407094], [-114.0913764807937, 51.02859275484564], [-114.09137925591791, 51.02858309767308], [-114.09138200397291, 51.02857344951137], [-114.09138473631018, 51.02856378338232], [-114.09138743872715, 51.02855412626641], [-114.09139021454753, 51.02854410051277], [-114.09139293049304, 51.0285340748059], [-114.09139550527124, 51.02852403122983], [-114.09139786617848, 51.028513969841434], [-114.09139998612923, 51.028503890661895], [-114.09140177672109, 51.02849378477062], [-114.09140346573703, 51.02848277099292], [-114.09140506920079, 51.028471748292354], [-114.0914066284714, 51.02846072562629], [-114.09140817492889, 51.02844971195998], [-114.0914096657424, 51.02843939953847], [-114.09141122925887, 51.028429087060076], [-114.09141278992351, 51.02841877458384], [-114.09141425222383, 51.0284084621845], [-114.09141557194987, 51.02839814090694], [-114.09141666356814, 51.028387810817996], [-114.09141750015918, 51.0283782810172], [-114.09141828117075, 51.028368760249656], [-114.09141904648317, 51.02835923050459], [-114.0914197975574, 51.0283497097604], [-114.09142056286919, 51.02834018001532], [-114.09142132814533, 51.02833063229068], [-114.09142210767672, 51.02832108455489], [-114.09142287295222, 51.02831153683024], [-114.09142363822741, 51.028301989105564], [-114.09142438922905, 51.02829243240228], [-114.09142486755319, 51.02828194996691], [-114.09142481697823, 51.02827145895554], [-114.09142446846228, 51.02826096817722], [-114.09142402158314, 51.02825047747587], [-114.09142354444924, 51.0282398249824], [-114.0914230102757, 51.02822916354382], [-114.0914223620581, 51.0282185021944], [-114.09142158413307, 51.02820784993624], [-114.091420609765, 51.02819734166785], [-114.09141953275753, 51.02818683347975], [-114.0914185298616, 51.0281763162439], [-114.09141775345898, 51.02816643710387], [-114.09141715097402, 51.02815655782774], [-114.09141661834138, 51.02814667849699], [-114.0914165861551, 51.02813756290441], [-114.09141729238671, 51.02812843774447], [-114.09141917356189, 51.02812018367218], [-114.091422737187, 51.02811208110966], [-114.09142827765348, 51.028103051055055], [-114.09143517601984, 51.028094415487246], [-114.09144442169128, 51.0280847622393], [-114.09145459757796, 51.028075494822396], [-114.09146609781365, 51.02806623535781], [-114.09147883958198, 51.02805764016258], [-114.09149245257632, 51.02804988033164], [-114.09150666534086, 51.02804265042542], [-114.09152152066, 51.02803595939991], [-114.0915361775136, 51.02802983488292], [-114.09155091731077, 51.02802384514554], [-114.09156587558492, 51.02801804402008], [-114.09157896680452, 51.028013179291015], [-114.09159211659289, 51.02800837744286], [-114.09160526493525, 51.0280035666046], [-114.09161832617474, 51.02799868391505], [-114.09163281421448, 51.027992991026785], [-114.09164712944042, 51.027987136456545], [-114.09166148746462, 51.02798129983048], [-114.09167605976052, 51.02797568777861], [-114.09168866541285, 51.02797111109046], [-114.09170138674483, 51.02796664218731], [-114.09171417956456, 51.0279622811038], [-114.09172705805659, 51.02795799186975], [-114.09173996518138, 51.027953765540104], [-114.09175278844508, 51.02794966513153], [-114.0917656531716, 51.02794562761732], [-114.09177853218685, 51.027941608070016], [-114.0917913826357, 51.02793756157443], [-114.09180418876609, 51.02793345218388], [-114.09181769401992, 51.02792892871368], [-114.09183111495079, 51.027924297431], [-114.09184451873695, 51.027919648180706], [-114.0918579968264, 51.02791508876811], [-114.0918718015762, 51.027910636974276], [-114.0918857207046, 51.02790635589435], [-114.09189976843162, 51.02790222753757], [-114.09191395899505, 51.02789824290296], [-114.09192958766333, 51.02789412228894], [-114.0919453908499, 51.02789030718741], [-114.09196134852624, 51.027886761655004], [-114.09197746491591, 51.027883458719074], [-114.0919924560135, 51.027880606154795], [-114.09200751874236, 51.02787793332744], [-114.09202264023716, 51.02787542226758], [-114.09203786034207, 51.02787303698475], [-114.0920521399073, 51.02787081425647], [-114.09206646241554, 51.027868681390245], [-114.09208085545093, 51.02786689007767], [-114.0920953950129, 51.02786566500279], [-114.09209837263425, 51.02786549185073], [-114.09211438109283, 51.027864562278005], [-114.0921303881252, 51.02786363270421], [-114.09214639515693, 51.027862703128235], [-114.09216405558627, 51.02786165537923], [-114.09218173066253, 51.02786080539079], [-114.0921994481668, 51.02786050374161], [-114.09221008426852, 51.02786055827815], [-114.0922281318579, 51.02786065191369], [-114.09224617942948, 51.02786073655672], [-114.0922623166485, 51.02786075977681], [-114.09227845285254, 51.02786098976001], [-114.09229446507285, 51.02786195699932], [-114.09231224352692, 51.02786363303248], [-114.09233002340778, 51.027865309061774], [-114.09233465587286, 51.02786574590008], [-114.09235161345266, 51.027868258623606], [-114.09236801360088, 51.02787218317786], [-114.09238404769505, 51.027876980026065], [-114.09239829861606, 51.02788186817952], [-114.09241182362096, 51.0278873142705], [-114.0924246799642, 51.02789343512083], [-114.09243572529745, 51.02789926972985], [-114.09244654272518, 51.02790519441573], [-114.09245707399677, 51.02791130811199], [-114.09246725220105, 51.02791765582043], [-114.09247822750798, 51.02792482995529], [-114.09248916151327, 51.02793202210128], [-114.09250005279135, 51.027939232259634], [-114.09251091702325, 51.0279464604179], [-114.09252172143927, 51.02795371559172], [-114.09253251450802, 51.027960997742845], [-114.09254319184235, 51.02796814513821], [-114.0925539403857, 51.02797525651714], [-114.09256456075848, 51.027982430924894], [-114.0925748963295, 51.02798975838325], [-114.09258479048563, 51.02799733790372], [-114.09259431436085, 51.02800509751193], [-114.092603737097, 51.028012893158575], [-114.0926130914996, 51.028020733807374], [-114.0926223874937, 51.02802859248125], [-114.09263164076036, 51.028036469167766], [-114.09264089403013, 51.028044345853516], [-114.0926501458954, 51.028052231529436], [-114.09265972615994, 51.02806037764725], [-114.09266932355233, 51.02806853274051], [-114.0926789066926, 51.02807668784423], [-114.09268850266619, 51.028084842937005], [-114.09269808438765, 51.028092998040314], [-114.09270766468691, 51.028101153143886], [-114.09271639087818, 51.02810849085604], [-114.09272524383861, 51.02811577452837], [-114.09273412531284, 51.02812305817746], [-114.09274296261572, 51.028130350850624], [-114.09275167458046, 51.02813769756117], [-114.09276018572461, 51.02814513432807], [-114.09276842339877, 51.02815268817832], [-114.0927763106769, 51.02816038614233], [-114.09278567818367, 51.028168334643865], [-114.09279488900849, 51.02817634619739], [-114.09280390042065, 51.02818443881638], [-114.09281269818244, 51.02819262150199], [-114.09282126809224, 51.02820092123475], [-114.09282941001572, 51.028209059491154], [-114.09283746505513, 51.02821723377504], [-114.09284539329488, 51.028225444118135], [-114.09285319332733, 51.028233699511375], [-114.09286082242171, 51.02824201796824], [-114.09286829625908, 51.02825039947628], [-114.09287525462932, 51.028258358874744], [-114.09288217027122, 51.028266336286215], [-114.09288905740439, 51.02827431371997], [-114.09289591462121, 51.02828230016684], [-114.09290274621631, 51.02829030461318], [-114.09290956213265, 51.028298309071594], [-114.0929166482005, 51.028306672905224], [-114.09292369437328, 51.028315045759925], [-114.09293070918635, 51.028323418639104], [-114.09293768414025, 51.02833181851884], [-114.0929446006668, 51.02834022743436], [-114.0929514730575, 51.02834866335387], [-114.09295872040347, 51.02835782714533], [-114.09296570988803, 51.0283670720493], [-114.09297248564948, 51.02837637106144], [-114.09297907619884, 51.028385724159065], [-114.09298552428487, 51.02839512231851], [-114.09299185556753, 51.028404565519295], [-114.09299741931228, 51.028413002477315], [-114.09300286906814, 51.02842146649505], [-114.09300821622168, 51.0284299485737], [-114.0930134650674, 51.028438457699636], [-114.09301861560537, 51.02844699387283], [-114.09302366213322, 51.02845555709787], [-114.09302861462984, 51.028464147366826], [-114.09303382201206, 51.02847330378757], [-114.09303894247306, 51.028482478256755], [-114.0930439788459, 51.028491661782446], [-114.0930488855485, 51.02850087238042], [-114.09305366687555, 51.02851011903705], [-114.09305829002093, 51.028519392788716], [-114.09306272791696, 51.02852870264674], [-114.09306736840348, 51.02853880344218], [-114.0930718792197, 51.02854893130997], [-114.09307629026638, 51.02855906824675], [-114.09308060156148, 51.028569223242364], [-114.09308484019066, 51.028579396275184], [-114.09308858052806, 51.02858847295398], [-114.09309229093006, 51.02859754965649], [-114.0930959443289, 51.02860663539405], [-114.09309955498018, 51.028615730155266], [-114.09310307870933, 51.02862484296514], [-114.09310651834946, 51.02863396483163], [-114.09311036019359, 51.02864460564708], [-114.09311400392163, 51.028655264599756], [-114.09311748946737, 51.02866595064766], [-114.09312085956171, 51.028676645777146], [-114.0931239462602, 51.02868677477745], [-114.0931269160814, 51.02869691286056], [-114.09312978755769, 51.028707060011705], [-114.09313254643324, 51.02871721624224], [-114.09313521696072, 51.02872739052262], [-114.09313771752227, 51.028737403122705], [-114.09314006273375, 51.02874743382609], [-114.09314224687482, 51.0287574736475], [-114.09314427849877, 51.028767522580175], [-114.09314613909108, 51.02877758962865], [-114.09314781089613, 51.0287873511757], [-114.09314934299587, 51.02879711283408], [-114.09315074394364, 51.028806874596924], [-114.0931520322898, 51.028816645439285], [-114.09315323512014, 51.028826425339545], [-114.09315432247958, 51.0288362053318], [-114.09315534287359, 51.02884600335693], [-114.0931563464855, 51.02885596321108], [-114.09315730734868, 51.028865932089076], [-114.09315819550795, 51.028875901024975], [-114.09315894396133, 51.02888587007223], [-114.09315950423915, 51.028895839269474], [-114.09315982503863, 51.02890581764734], [-114.09315985929759, 51.02891579625363], [-114.09315970713052, 51.02892593682415], [-114.09315948653574, 51.02893607744925], [-114.09315926308972, 51.02894621807658], [-114.09315904251277, 51.02895636769139], [-114.09315886183386, 51.02896650828456], [-114.09315873825199, 51.02897597460026], [-114.09315861609565, 51.02898544091479], [-114.09315849251368, 51.02899490723042], [-114.09315845423016, 51.02900496680222], [-114.09315786282218, 51.029015026814896], [-114.09315678408224, 51.02902519509314], [-114.09315562123267, 51.02903536343843], [-114.09315433147, 51.02904551390533], [-114.09315292623478, 51.02905566446423], [-114.09315136414915, 51.02906579716859], [-114.09314965950479, 51.02907592998654], [-114.09314786880233, 51.02908580217003], [-114.0931460481619, 51.02909567437731], [-114.09314420184222, 51.02910553761527], [-114.09314233841478, 51.0291154008668], [-114.09314022285453, 51.02912607339765], [-114.09313800463339, 51.02913673702043], [-114.09313493090417, 51.02914590003512], [-114.09313011612285, 51.02915485767269], [-114.09312119991185, 51.02916594016151], [-114.09310955894104, 51.0291760808958], [-114.09309765734407, 51.029184217120154], [-114.09308427120898, 51.02919139262145], [-114.0930691588348, 51.029197931223045], [-114.09305263141984, 51.02920261905893], [-114.09303524510554, 51.02920553659357], [-114.09301775566524, 51.029207501293236], [-114.09300008039811, 51.02920850423389], [-114.09297887024312, 51.029209078475816], [-114.09295762991654, 51.029209535871054], [-114.09294129325842, 51.02920981855728], [-114.09292495651019, 51.029210056292506], [-114.09290861960007, 51.02921021311773], [-114.09289032904617, 51.02921007483148], [-114.09287205197569, 51.02920954997197]]]}}], "crs": {"type": "name", "properties": {"name": "urn:ogc:def:crs:EPSG::4617"}}}