{"type": "FeatureCollection", "features": [{"type": "Feature", "properties": {"part": "loop", "length_m": 284.9}, "geometry": {"type": "LineString", "coordinates": [[-114.091912811125, 51.028599973536224], [-114.09191149982634, 51.02859862259186], [-114.09191021647501, 51.02859732429987], [-114.09190896107101, 51.02859607866026], [-114.09190773361432, 51.02859488567303], [-114.09190653410495, 51.0285937453382], [-114.09190536254289, 51.02859265765575], [-114.09190421892811, 51.0285916226257], [-114.09190310326063, 51.028590640248005], [-114.09190201554044, 51.02858971052273], [-114.09190095576753, 51.02858883344983], [-114.0918999239419, 51.02858800902933], [-114.09189892006353, 51.02858723726122], [-114.09189794413243, 51.0285865181455], [-114.09189699614859, 51.02858585168218], [-114.09189607611202, 51.02858523787125], [-114.09189518402269, 51.0285846767127], [-114.09189431922096, 51.02858383460268], [-114.09189348170685, 51.02858271154118], [-114.09189267148035, 51.02858130752821], [-114.09189188854148, 51.028579622563775], [-114.09189113289028, 51.02857765664784], [-114.09189040452674, 51.02857540978045], [-114.09188970345085, 51.02857288196157], [-114.09188902966264, 51.02857007319123], [-114.09188835469415, 51.028566667445524], [-114.09188767854542, 51.028562664724454], [-114.09188700121648, 51.02855806502804], [-114.09188632270735, 51.02855286835625], [-114.09188555761428, 51.02854612663745], [-114.09188470593739, 51.02853783987163], [-114.09188351146574, 51.02852516384382], [-114.09188197419994, 51.02850809855396], [-114.0919007129324, 51.028480113724704], [-114.09193972761327, 51.02844120934621], [-114.09196862726527, 51.02841235616333], [-114.09198741192603, 51.02839355418369], [-114.09200258404466, 51.028378319344675], [-114.09201414362823, 51.02836665164776], [-114.0920242581548, 51.028356389737695], [-114.09203292762622, 51.02834753361488], [-114.09204015204413, 51.02834008327964], [-114.09204593140987, 51.02833403873224], [-114.09205098821455, 51.02832867952062], [-114.09205532245863, 51.0283240056449], [-114.09205893414256, 51.028320017105145], [-114.09206182326665, 51.02831671390142], [-114.09206398983117, 51.02831409603378], [-114.09206543383638, 51.02831216350228], [-114.09206615528242, 51.028310916306935], [-114.09206615416934, 51.02831035444776], [-114.09206615215193, 51.028309336077996], [-114.09206614923015, 51.02830786119765], [-114.092066145404, 51.028305929806734], [-114.09206614067351, 51.028303541905224], [-114.09206613503864, 51.028300697493144], [-114.09206612849941, 51.02829739657049], [-114.09206612105584, 51.02829363913722], [-114.0920661127079, 51.028289425193385], [-114.0920661034556, 51.028284754738955], [-114.09206609329894, 51.02827962777394], [-114.09206608223792, 51.02827404429834], [-114.09206607027255, 51.028268004312146], [-114.09206605740283, 51.02826150781536], [-114.09206604362875, 51.028254554807994], [-114.09206602895033, 51.02824714529002], [-114.09206601336754, 51.028239279261456], [-114.09206605434008, 51.028231852141495], [-114.09206615186787, 51.028224863930156], [-114.09206630595092, 51.02821831462741], [-114.09206651658921, 51.028212204233284], [-114.09206678378271, 51.028206532747774], [-114.0920671075314, 51.02820130017088], [-114.09206748783532, 51.028196506502596], [-114.0920679246944, 51.02819215174293], [-114.09206841810867, 51.028188235891875], [-114.09206896807812, 51.02818475894944], [-114.09206957460275, 51.028181720915626], [-114.09207023768259, 51.02817912179041], [-114.09207095731762, 51.02817696157383], [-114.09207173350785, 51.02817524026586], [-114.09207256625332, 51.0281739578665], [-114.09207345555404, 51.028173114375754], [-114.09207442831362, 51.02817223570299], [-114.09207548453209, 51.028171321848205], [-114.0920766242094, 51.02817037281142], [-114.09207784734555, 51.02816938859259], [-114.09207915394056, 51.02816836919174], [-114.09208054399438, 51.02816731460886], [-114.09208201750704, 51.02816622484396], [-114.0920835744785, 51.02816509989701], [-114.09208521490878, 51.02816393976802], [-114.09208693879785, 51.028162744457006], [-114.09208874614569, 51.02816151396394], [-114.09209063695232, 51.02816024828882], [-114.0920926112177, 51.02815894743165], [-114.09209466894183, 51.02815761139242], [-114.09209681012472, 51.02815624017113], [-114.0920990347663, 51.028154833767786], [-114.09210117605332, 51.02815351522071], [-114.09210323398575, 51.02815228452994], [-114.09210520856362, 51.02815114169544], [-114.09210709978696, 51.02815008671726], [-114.09210890765577, 51.02814911959536], [-114.09211063217008, 51.02814824032979], [-114.09211227332987, 51.028147448920514], [-114.09211383113521, 51.02814674536757], [-114.09211530558608, 51.02814612967093], [-114.09211669668247, 51.02814560183061], [-114.09211800442444, 51.02814516184661], [-114.09211922881197, 51.028144809718945], [-114.09212036984505, 51.02814454544761], [-114.09212142752374, 51.028144369032596], [-114.092122401848, 51.028144280473924], [-114.09212329281787, 51.02814427977159], [-114.09212432303657, 51.028144296517596], [-114.09212549250412, 51.028144330711946], [-114.09212680122054, 51.02814438235465], [-114.09212824918579, 51.02814445144569], [-114.09212983639989, 51.028144537985064], [-114.09213156286286, 51.02814464197275], [-114.09213342857468, 51.02814476340877], [-114.09213543353536, 51.0281449022931], [-114.09213757774491, 51.02814505862574], [-114.09213986120334, 51.02814523240667], [-114.09214228391062, 51.0281454236359], [-114.09214484586678, 51.028145632313425], [-114.09214754707183, 51.02814585843922], [-114.09215038752578, 51.02814610201327], [-114.0921533672286, 51.02814636303557], [-114.09215648618033, 51.02814664150611], [-114.0921599674368, 51.02814709527213], [-114.09216381099807, 51.02814772433359], [-114.0921680168642, 51.02814852869046], [-114.09217258503526, 51.028149508342686], [-114.09217751551131, 51.02815066329025], [-114.09218280829243, 51.02815199353308], [-114.09218846337873, 51.028153499071145], [-114.09219448077029, 51.02815517990438], [-114.09220086046724, 51.02815703603274], [-114.09220760246967, 51.02815906745615], [-114.09221470677772, 51.02816127417457], [-114.09222217339153, 51.028163656187914], [-114.09223000231123, 51.02816621349612], [-114.09223819353696, 51.0281689460991], [-114.09224674706887, 51.02817185399682], [-114.09225566290715, 51.028174937189135], [-114.09226438377709, 51.028177985418466], [-114.09227290967866, 51.028180998684824], [-114.09228124061177, 51.028183976988274], [-114.09228937657637, 51.02818692032882], [-114.09229731757242, 51.028189828706545], [-114.09230506359985, 51.02819270212146], [-114.09231261465862, 51.02819554057362], [-114.09231997074868, 51.02819834406306], [-114.09232713186995, 51.028201112589805], [-114.09233409802242, 51.02820384615391], [-114.092340869206, 51.02820654475539], [-114.09234744542066, 51.0282092083943], [-114.09235382666635, 51.02821183707066], [-114.09236001294305, 51.028214430784494], [-114.09236600425065, 51.028216989535856], [-114.09237180058916, 51.02821951332476], [-114.09237740192361, 51.02822198459313], [-114.09238280825396, 51.028224403341014], [-114.09238801958016, 51.02822676956843], [-114.09239303590215, 51.02822908327538], [-114.09239785721991, 51.02823134446192], [-114.09240248353335, 51.02823355312809], [-114.09240691484247, 51.028235709273865], [-114.09241115114722, 51.0282378128993], [-114.09241519244753, 51.028239864004405], [-114.0924190387434, 51.028241862589205], [-114.09242269003478, 51.02824380865371], [-114.09242614632163, 51.02824570219795], [-114.09242940760389, 51.028247543221944], [-114.09243247388156, 51.028249331725696], [-114.0924353451546, 51.02825106770923], [-114.09243802142295, 51.02825275117255], [-114.09244055837237, 51.028254382071644], [-114.09244295600283, 51.02825596040649], [-114.09244521431427, 51.02825748617712], [-114.0924473333067, 51.02825895938355], [-114.0924493129801, 51.02826038002576], [-114.09245115333442, 51.02826174810377], [-114.0924528543697, 51.028263063617594], [-114.09245441608586, 51.02826432656721], [-114.09245583848293, 51.028265536952674], [-114.09245712156086, 51.02826669477395], [-114.09245826531966, 51.02826780003105], [-114.09245926975932, 51.02826885272398], [-114.09246013487979, 51.02826985285276], [-114.0924608606811, 51.028270800417374], [-114.0924614471632, 51.02827169541783], [-114.0924618943261, 51.02827253785413], [-114.09246262019735, 51.02827352053492], [-114.09246362477697, 51.028274643460215], [-114.09246490806495, 51.02827590663001], [-114.09246647006135, 51.02827731004427], [-114.09246831076621, 51.028278853703], [-114.09247043017959, 51.02828053760618], [-114.09247282830151, 51.028282361753796], [-114.09247550513203, 51.028284326145844], [-114.09247846067124, 51.028286430782295], [-114.09248169491917, 51.02828867566313], [-114.0924852078759, 51.028291060788305], [-114.0924889995415, 51.028293586157815], [-114.09249306991606, 51.028296251771636], [-114.09249741899966, 51.02829905762973], [-114.0925020467924, 51.02830200373207], [-114.09250695329436, 51.028305090078625], [-114.09251163663431, 51.02830796590412], [-114.09251609681213, 51.028310631208555], [-114.09252033382774, 51.028313085991975], [-114.09252434768104, 51.0283153302544], [-114.09252813837193, 51.02831736399586], [-114.09253170590036, 51.02831918721638], [-114.09253505026622, 51.02832079991597], [-114.09253817146947, 51.02832220209464], [-114.09254106951002, 51.02832339375244], [-114.09254374438784, 51.028324374889365], [-114.09254619610287, 51.02832514550542], [-114.09254842465505, 51.02832570560065], [-114.09255043004437, 51.02832605517504], [-114.09255221227077, 51.02832619422861], [-114.09255377133425, 51.02832612276138], [-114.09255510723477, 51.02832584077334], [-114.09255638748441, 51.028325576387495], [-114.09255761208317, 51.02832532960384], [-114.09255878103106, 51.028325100422364], [-114.09255989432806, 51.028324888843095], [-114.0925609519742, 51.02832469486602], [-114.09256195396948, 51.028324518491125], [-114.09256290031388, 51.02832435971844], [-114.09256379100741, 51.028324218547944], [-114.09256462605008, 51.028324094979645], [-114.09256540544189, 51.02832398901355], [-114.09256612918283, 51.02832390064967], [-114.09256679727291, 51.028323829887974], [-114.09256740971213, 51.02832377672849], [-114.0925679665005, 51.02832374117121], [-114.092568467638, 51.02832372321613], [-114.09256891312465, 51.02832372286326], [-114.09256938652416, 51.028323757604525], [-114.09256988783652, 51.02832382743994], [-114.09257041706176, 51.028323932369496], [-114.09257097419986, 51.02832407239319], [-114.09257155925083, 51.02832424751102], [-114.09257217221466, 51.028324457723], [-114.09257281309137, 51.02832470302911], [-114.09257348188095, 51.02832498342936], [-114.0925741785834, 51.02832529892375], [-114.09257490319872, 51.028325649512276], [-114.09257565572693, 51.02832603519496], [-114.09257643616803, 51.02832645597175], [-114.09257724452202, 51.02832691184269], [-114.09257808078887, 51.02832740280777], [-114.09257894496861, 51.02832792886697], [-114.09257983706127, 51.02832849002032], [-114.09258070124105, 51.0283290160795], [-114.09258153750798, 51.02832950704457], [-114.09258234586206, 51.02832996291547], [-114.09258312630328, 51.02833038369222], [-114.09258387883163, 51.028330769374826], [-114.09258460344712, 51.02833111996329], [-114.09258530014975, 51.02833143545762], [-114.0925859689395, 51.0283317158578], [-114.09258660981638, 51.02833196116385], [-114.0925872227804, 51.02833217137574], [-114.09258780783152, 51.028332346493485], [-114.09258836496977, 51.0283324865171], [-114.09258889419515, 51.02833259144657], [-114.09258939550764, 51.0283326612819], [-114.09258986890725, 51.02833269602308], [-114.09259031439399, 51.02833269567013], [-114.09259112232843, 51.02833294084379], [-114.09259229271059, 51.02833343154404], [-114.09259382554052, 51.028334167770886], [-114.09259572081825, 51.0283351495243], [-114.09259797854384, 51.028336376804276], [-114.09260059871734, 51.028337849610786], [-114.09260358133884, 51.028339567943796], [-114.09260692640841, 51.02834153180329], [-114.09261063392616, 51.02834374118927], [-114.09261470389221, 51.02834619610164], [-114.09261913630667, 51.02834889654037], [-114.09262393116967, 51.028351842505465], [-114.09262908848136, 51.02835503399684], [-114.0926346082419, 51.02835847101445], [-114.09264049045146, 51.028362153558255], [-114.09264673511021, 51.0283660816282], [-114.09265267304258, 51.02836978168534], [-114.09265830424842, 51.028373253729725], [-114.09266362872755, 51.02837649776141], [-114.09266864647985, 51.02837951378043], [-114.09267335750519, 51.02838230178681], [-114.09267776180343, 51.0283848617806], [-114.09268185937447, 51.02838719376185], [-114.09268565021819, 51.028389297730556], [-114.09268913433449, 51.028391173686785], [-114.0926923117233, 51.02839282163054], [-114.09269518238453, 51.028394241561855], [-114.09269774631811, 51.02839543348075], [-114.09270000352397, 51.028396397387255], [-114.09270195400207, 51.028397133281395], [-114.09270359775236, 51.02839764116315], [-114.09270493477482, 51.028397921032564], [-114.09270632744817, 51.0283981832997], [-114.09270777577244, 51.02839842796453], [-114.09270927974762, 51.028398655027075], [-114.09271083937372, 51.02839886448732], [-114.09271245465071, 51.028399056345286], [-114.09271412557861, 51.028399230600925], [-114.09271585215741, 51.02839938725429], [-114.09271763438713, 51.028399526305336], [-114.09271947226775, 51.02839964775407], [-114.09272136579925, 51.02839975160051], [-114.09272331498167, 51.028399837844624], [-114.09272531981497, 51.028399906486435], [-114.09272738029918, 51.02839995752591], [-114.09272949643427, 51.02839999096308], [-114.09273166822027, 51.02840000679792], [-114.09273389565715, 51.028400005030434], [-114.09273634597784, 51.028400073318565], [-114.0927390191824, 51.02840021166226], [-114.0927419152708, 51.028400420061516], [-114.0927450342431, 51.028400698516336], [-114.09274837609927, 51.028401047026684], [-114.09275194083936, 51.02840146559254], [-114.0927557284634, 51.02840195421391], [-114.09275973897138, 51.028402512890736], [-114.09276397236334, 51.028403141623016], [-114.09276842863935, 51.02840384041072], [-114.09277310779937, 51.028404609253826], [-114.09277800984349, 51.028405448152306], [-114.0927831347717, 51.02840635710613], [-114.09278848258406, 51.028407336115265], [-114.09279405328061, 51.02840838517969], [-114.09279984686138, 51.02840950429936], [-114.09280550136786, 51.0284106937617], [-114.09281101680003, 51.02841195356672], [-114.09281639315792, 51.02841328371443], [-114.09282163044155, 51.02841468420487], [-114.09282672865092, 51.028416155038045], [-114.09283168778606, 51.02841769621397], [-114.09283650784695, 51.02841930773268], [-114.09284118883362, 51.02842098959418], [-114.09284573074606, 51.028422741798494], [-114.0928501335843, 51.02842456434563], [-114.09285439734832, 51.0284264572356], [-114.09285852203811, 51.02842842046842], [-114.0928625076537, 51.02843045404413], [-114.0928663541951, 51.02843255796272], [-114.09287006166225, 51.02843473222419], [-114.09287363005521, 51.02843697682859], [-114.09287700337218, 51.02843913379728], [-114.0928801816131, 51.028441203130264], [-114.09288316477794, 51.02844318482759], [-114.09288595286665, 51.02844507888924], [-114.09288854587919, 51.02844688531526], [-114.09289094381555, 51.02844860410566], [-114.09289314667565, 51.02845023526041], [-114.09289515445948, 51.02845177877958], [-114.09289696716702, 51.02845323466315], [-114.09289858479823, 51.028454602911104], [-114.09290000735308, 51.0284558835235], [-114.09290123483154, 51.02845707650032], [-114.0929022672336, 51.028458181841565], [-114.09290310455924, 51.02845919954725], [-114.09290374680845, 51.02846012961737], [-114.09290419398118, 51.02846097205196], [-114.09290458613486, 51.028462148134665], [-114.09290492326944, 51.028463657865515], [-114.09290520538498, 51.028465501244504], [-114.09290543248143, 51.0284676782716], [-114.09290560455881, 51.02847018894687], [-114.0929057216171, 51.028473033270274], [-114.0929057836563, 51.0284762112418], [-114.09290579067641, 51.02847972286148], [-114.09290574267742, 51.02848356812928], [-114.09290563965929, 51.028487747045226], [-114.09290548162203, 51.02849225960931], [-114.0929052685656, 51.02849710582151], [-114.09290500048999, 51.02850228568186], [-114.09290467739518, 51.02850779919033], [-114.09290429928114, 51.02851364634692], [-114.09290386614784, 51.028519827151655], [-114.09290315451386, 51.02852597306153], [-114.09290216437908, 51.028532084076524], [-114.09290089574343, 51.028538160196646], [-114.09289934860678, 51.02854420142189], [-114.09289752296901, 51.02855020775223], [-114.09289541883003, 51.028556179187675], [-114.09289303618974, 51.02856211572819], [-114.09289037504804, 51.028568017373765], [-114.09288743540483, 51.02857388412439], [-114.09288421726002, 51.02857971598004], [-114.0928807206135, 51.02858551294068], [-114.09287694546516, 51.0285912750063], [-114.09287289181493, 51.02859700217686], [-114.0928685596627, 51.02860269445234], [-114.09286394900839, 51.028608351832716], [-114.09285905985189, 51.02861397431794], [-114.09285447689807, 51.02861956144341], [-114.09285020014704, 51.02862511320915], [-114.09284622959892, 51.02863062961523], [-114.09284256525383, 51.028636110661644], [-114.0928392071119, 51.02864155634844], [-114.09283615517322, 51.02864696667563], [-114.0928334094379, 51.02865234164326], [-114.09283096990609, 51.028657681251325], [-114.09282883657788, 51.028662985499864], [-114.09282700945337, 51.02866825438888], [-114.09282548853268, 51.028673487918404], [-114.0928242738159, 51.02867868608844], [-114.09282336530318, 51.02868384889899], [-114.09282276299457, 51.028688976350075], [-114.0928224668902, 51.02869406844167], [-114.09282247699018, 51.02869912517382], [-114.09282240321002, 51.02870400639134], [-114.09282224554974, 51.02870871209421], [-114.09282200400928, 51.02871324228245], [-114.09282167858863, 51.02871759695606], [-114.09282126928775, 51.02872177611503], [-114.09282077610668, 51.028725779759355], [-114.09282019904533, 51.02872960788904], [-114.09281953810374, 51.02873326050409], [-114.09281879328186, 51.0287367376045], [-114.09281796457971, 51.02874003919027], [-114.09281705199727, 51.0287431652614], [-114.09281605553454, 51.02874611581789], [-114.0928149751915, 51.02874889085972], [-114.09281381096814, 51.028751490386924], [-114.0928125628645, 51.02875391439946], [-114.09281123088053, 51.028756162897345], [-114.09280956547964, 51.02875876282253], [-114.0928075666617, 51.028761714174934], [-114.0928052344266, 51.02876501695462], [-114.09280256877426, 51.02876867116153], [-114.09279956970448, 51.028772676795626], [-114.09279623721714, 51.02877703385692], [-114.09279257131209, 51.02878174234534], [-114.09278857198909, 51.02878680226089], [-114.09278423924799, 51.028792213603516], [-114.09277957308856, 51.028797976373184], [-114.09277457351057, 51.028804090569864], [-114.09276924051376, 51.02881055619347], [-114.09276357409789, 51.02881737324401], [-114.09275757426268, 51.02882454172141], [-114.09275124100783, 51.02883206162562], [-114.09274457433304, 51.02883993295658], [-114.09273807415478, 51.028847523225025], [-114.09273174047321, 51.02885483243098], [-114.09272557328859, 51.028861860574466], [-114.09271957260103, 51.02886860765553], [-114.09271373841077, 51.0288750736742], [-114.09270807071793, 51.02888125863047], [-114.09270256952274, 51.02888716252439], [-114.09269723482532, 51.028892785355985], [-114.09269206662584, 51.028898127125274], [-114.09268706492448, 51.02890318783227], [-114.09268222972133, 51.02890796747701], [-114.09267756101657, 51.0289124660595], [-114.09267305881032, 51.02891668357978], [-114.0926687231027, 51.02892062003786], [-114.09266455389384, 51.02892427543375], [-114.09266055118385, 51.02892764976748], [-114.09265657663163, 51.02893118210187], [-114.09265263023711, 51.028934872436935], [-114.09264871200031, 51.02893872077264], [-114.09264482192117, 51.02894272710903], [-114.09264095999966, 51.02894689144608], [-114.09263712623573, 51.0289512137838], [-114.09263332062937, 51.02895569412221], [-114.09262954318054, 51.02896033246129], [-114.09262579388923, 51.028965128801055], [-114.09262207275538, 51.028970083141495], [-114.09261837977898, 51.02897519548261], [-114.09261471495999, 51.02898046582443], [-114.0926110782984, 51.02898589416693], [-114.09260746979417, 51.02899148051011], [-114.09260388944729, 51.028997224853995], [-114.09260033725771, 51.02900312719857], [-114.09259647872067, 51.029008994669525], [-114.09259231383606, 51.029014827266806], [-114.09258784260379, 51.029020624990395], [-114.09258306502376, 51.02902638784025], [-114.09257798109584, 51.029032115816335], [-114.09257259081994, 51.02903780891862], [-114.09256689419597, 51.02904346714704], [-114.09256089122381, 51.02904909050157], [-114.09255458190339, 51.02905467898217], [-114.09254796623459, 51.02906023258877], [-114.09254104421731, 51.029065751321326], [-114.0925338158515, 51.0290712351798], [-114.09252628113701, 51.0290766841641], [-114.09251844007377, 51.02908209827418], [-114.0925102926617, 51.029087477510004], [-114.09250183890073, 51.02909282187147], [-114.09249385784624, 51.02909784981197], [-114.09248634949853, 51.0291025613316], [-114.09247931385792, 51.02910695643041], [-114.09247275092468, 51.02911103510853], [-114.0924666606991, 51.02911479736602], [-114.09246104318137, 51.02911824320296], [-114.09245589837174, 51.02912137261941], [-114.0924512262704, 51.029124185615444], [-114.09244702687752, 51.02912668219112], [-114.0924433001933, 51.02912886234649], [-114.09244004621785, 51.02913072608158], [-114.0924372649513, 51.029132273396456], [-114.09243495639375, 51.02913350429114], [-114.0924331205453, 51.02913441876565], [-114.09243175740599, 51.02913501682002], [-114.09243086697589, 51.02913529845427], [-114.09242978160705, 51.029135562684566], [-114.09242850129947, 51.0291358095109], [-114.09242702605313, 51.029136038933274], [-114.09242535586803, 51.02913625095167], [-114.09242349074418, 51.0291364455661], [-114.0924214306816, 51.02913662277654], [-114.09241917568025, 51.02913678258297], [-114.09241672574015, 51.029136924985394], [-114.0924140808613, 51.0291370499838], [-114.0924112410437, 51.02913715757816], [-114.09240820628737, 51.02913724776848], [-114.09240497659228, 51.02913732055472], [-114.09240155195846, 51.02913737593689], [-114.0923979323859, 51.02913741391496], [-114.09239411787459, 51.02913743448891], [-114.09239010842457, 51.02913743765873], [-114.09238629380854, 51.02913740555813], [-114.09238267402654, 51.02913733818714], [-114.09237924907856, 51.0291372355458], [-114.09237601896461, 51.02913709763408], [-114.09237298368471, 51.029136924452025], [-114.09237014323884, 51.02913671599966], [-114.09236749762701, 51.02913647227697], [-114.09236504684925, 51.02913619328399], [-114.09236279090554, 51.029135879020735], [-114.09236072979587, 51.029135529487185], [-114.09235886352025, 51.029135144683394], [-114.09235719207871, 51.02913472460935], [-114.0923557154712, 51.02913426926504], [-114.09235443369774, 51.02913377865053], [-114.09235334675833, 51.02913325276576], [-114.09235245465295, 51.02913269161077], [-114.0923515625476, 51.02913213045577], [-114.09235067044227, 51.02913156930077], [-114.09234977833697, 51.02913100814576], [-114.09234888623169, 51.02913044699075], [-114.09234799412641, 51.02912988583573], [-114.09234710202118, 51.029129324680696], [-114.09234620991596, 51.029128763525655], [-114.09234531781075, 51.02912820237061], [-114.09234442570559, 51.02912764121557], [-114.09234353360043, 51.0291270800605], [-114.09234264149529, 51.029126518905436], [-114.09234174939017, 51.02912595775037], [-114.09234085728508, 51.0291253965953], [-114.09233996518002, 51.0291248354402], [-114.09233907307498, 51.029124274285124], [-114.09233818096995, 51.02912371313001], [-114.09233728886494, 51.02912315197491], [-114.09233639675996, 51.029122590819796], [-114.092335504655, 51.02912202966468], [-114.09233461255006, 51.029121468509565], [-114.09233372044514, 51.029120907354425], [-114.09233282834023, 51.02912034619929], [-114.09233193623537, 51.02911978504414], [-114.0923310441305, 51.02911922388898], [-114.09233015202568, 51.02911866273382], [-114.09232925992087, 51.02911810157866], [-114.09232836781608, 51.029117540423485], [-114.0923274757113, 51.0291169792683], [-114.09232658360656, 51.02911641811311], [-114.09232569150184, 51.02911585695792], [-114.09232479939713, 51.02911529580272], [-114.09232390729247, 51.02911473464751], [-114.0923230708397, 51.02911415589021], [-114.09232229003885, 51.0291135595308], [-114.09232156488991, 51.02911294556932], [-114.0923208953929, 51.02911231400574], [-114.0923202815478, 51.02911166484006], [-114.0923197233546, 51.029110998072284], [-114.09231922081332, 51.02911031370244], [-114.09231877392396, 51.02910961173048], [-114.0923183826865, 51.02910889215645], [-114.09231804710093, 51.02910815498033], [-114.09231776716727, 51.029107400202115], [-114.09231754288551, 51.02910662782182], [-114.09231737425564, 51.02910583783943], [-114.09231726127769, 51.029105030254954], [-114.0923172039516, 51.02910420506841], [-114.09231720227741, 51.02910336227976], [-114.0923171171777, 51.029102572231395], [-114.09231694865251, 51.02910183492329], [-114.0923166967018, 51.029101150355466], [-114.09231636132559, 51.02910051852792], [-114.0923159425239, 51.029099939440655], [-114.09231544029669, 51.02909941309364], [-114.09231485464399, 51.02909893948691], [-114.0923141855658, 51.029098518620444], [-114.09231343306213, 51.02909815049426], [-114.09231259713296, 51.02909783510832], [-114.09231167777828, 51.02909757246265], [-114.0923106749981, 51.02909736255725], [-114.09230958879245, 51.029097205392105], [-114.09230841916127, 51.02909710096722], [-114.0923071661046, 51.02909704928259], [-114.0923058296224, 51.02909705033823], [-114.09230452091386, 51.02909701625565], [-114.09230323997893, 51.02909694703488], [-114.09230198681765, 51.029096842675905], [-114.09230076143, 51.02909670317873], [-114.092299563816, 51.02909652854338], [-114.09229839397563, 51.029096318769795], [-114.09229725190892, 51.02909607385804], [-114.09229613761585, 51.029095793808075], [-114.09229505109643, 51.029095478619936], [-114.09229399235066, 51.0290951282936], [-114.09229296137855, 51.029094742829066], [-114.0922919581801, 51.029094322226335], [-114.0922909827553, 51.02909386648542], [-114.09229003510416, 51.02909337560632], [-114.09228911522668, 51.02909284958902], [-114.09228822312286, 51.02909228843354], [-114.0922873588973, 51.02909174481416], [-114.09228652255001, 51.029091218730876], [-114.09228571408097, 51.0290907101837], [-114.0922849334902, 51.02909021917263], [-114.0922841807777, 51.02908974569767], [-114.09228345594344, 51.02908928975881], [-114.09228275898744, 51.02908885135605], [-114.09228208990969, 51.02908843048941], [-114.09228144871018, 51.02908802715886], [-114.09228083538893, 51.02908764136442], [-114.09228024994593, 51.0290872731061], [-114.09227969238117, 51.02908692238388], [-114.09227916269465, 51.02908658919777], [-114.0922786608864, 51.02908627354777], [-114.09227818695636, 51.02908597543389], [-114.09227774090459, 51.02908569485609], [-114.09227726697458, 51.0290853967422], [-114.09227676516633, 51.029085081092184], [-114.09227623547987, 51.02908474790607], [-114.09227567791517, 51.02908439718382], [-114.09227509247225, 51.02908402892547], [-114.09227447915111, 51.029083643131], [-114.09227383795174, 51.02908323980042], [-114.09227316887414, 51.029082818933716], [-114.09227247191833, 51.0290823805309], [-114.09227174708431, 51.029081924591964], [-114.09227099437206, 51.02908145111692], [-114.0922702137816, 51.02908096010575], [-114.09226940531292, 51.02908045155846], [-114.09226856896605, 51.02907992547506], [-114.09226770474095, 51.02907938185552], [-114.09226681263765, 51.02907882069988], [-114.0922659762211, 51.02907825950025], [-114.09226519549131, 51.029077698256664], [-114.09226447044827, 51.0290771369691], [-114.09226380109197, 51.02907657563758], [-114.09226318742245, 51.029076014262074], [-114.09226262943965, 51.029075452842605], [-114.0922621271436, 51.02907489137918], [-114.0922616805343, 51.02907432987179], [-114.09226128961174, 51.02907376832042], [-114.0922609543759, 51.02907320672511], [-114.09226067482682, 51.02907264508582], [-114.09226045096447, 51.02907208340257], [-114.09226028278884, 51.029071521675355], [-114.09226017029995, 51.02907095990418], [-114.0922601134978, 51.02907039808905], [-114.09226011238236, 51.02906983622994], [-114.09226011126692, 51.02906927437085], [-114.09226011015149, 51.02906871251174], [-114.09226010903605, 51.02906815065264], [-114.09226010792062, 51.02906758879354], [-114.09226010680518, 51.02906702693444], [-114.09226010568975, 51.02906646507534], [-114.09226010457432, 51.029065903216235], [-114.09226010345888, 51.02906534135714], [-114.09226010234345, 51.02906477949804], [-114.092260101228, 51.029064217638926], [-114.09226010011257, 51.02906365577984], [-114.09226009899714, 51.02906309392073], [-114.0922600978817, 51.02906253206163], [-114.09226009676627, 51.029061970202534], [-114.09226009565084, 51.02906140834344], [-114.0922600945354, 51.029060846484334], [-114.09226012122846, 51.02906026704515], [-114.09226017573003, 51.029059670025894], [-114.09226025804008, 51.02905905542655], [-114.09226036815865, 51.029058423247136], [-114.0922605060857, 51.029057773487644], [-114.09226067182125, 51.02905710614809], [-114.09226086536529, 51.02905642122843], [-114.09226108671781, 51.029055718728706], [-114.09226133587883, 51.029054998648895], [-114.09226161284833, 51.02905426098901], [-114.09226191762633, 51.029053505749054], [-114.0922622502128, 51.029052732928996], [-114.09226261060776, 51.029051942528874], [-114.09226299881121, 51.02905113454868], [-114.09226341482312, 51.02905030898839], [-114.09226385864352, 51.02904946584803], [-114.09226427364449, 51.029048131102925], [-114.09226465982606, 51.02904630475309], [-114.09226501718817, 51.02904398679853], [-114.09226534573085, 51.02904117723922], [-114.09226564545409, 51.0290378760752], [-114.09226591635787, 51.02903408330641], [-114.0922661584422, 51.02902979893291], [-114.09226637170708, 51.02902502295466], [-114.09226655615251, 51.02901975537168], [-114.0922667117785, 51.02901399618395], [-114.09226683858505, 51.02900774539149], [-114.09226693657217, 51.02900100299428], [-114.09226700573987, 51.02899376899233], [-114.09226704608815, 51.02898604338563], [-114.09226705761705, 51.02897782617418], [-114.09226704032656, 51.028969117357974], [-114.09226682896966, 51.02896083008998], [-114.09226642354638, 51.028952964370184], [-114.09226582405687, 51.02894552019859], [-114.0922650305012, 51.028938497575176], [-114.09226404287938, 51.028931896499984], [-114.09226286119154, 51.028925716972964], [-114.09226148543767, 51.02891995899415], [-114.09225991561784, 51.0289146225635], [-114.09225815173207, 51.02890970768103], [-114.09225619378034, 51.02890521434672], [-114.0922540417627, 51.02890114256058], [-114.09225169567911, 51.028897492322585], [-114.09224915552956, 51.02889426363273], [-114.09224642131402, 51.02889145649099], [-114.09224349303244, 51.028889070897385], [-114.09224037068479, 51.02888710685187], [-114.09223696952157, 51.02888494988696], [-114.09223328954283, 51.02888260000261], [-114.09222933074867, 51.028880057198805], [-114.09222509313918, 51.02887732147554], [-114.09222057671447, 51.028874392832755], [-114.09221578147466, 51.028871271270425], [-114.09221070741985, 51.02886795678851], [-114.09220535455016, 51.028864449387], [-114.09219972286573, 51.02886074906582], [-114.09219381236669, 51.02885685582495], [-114.09218762305318, 51.02885276966435], [-114.09218115492537, 51.028848490583954], [-114.09217440798339, 51.02884401858374], [-114.09216738222744, 51.02883935366365], [-114.09216007765767, 51.02883449582362], [-114.09215249427425, 51.028829445063614], [-114.09214474365909, 51.02882430664435], [-114.09213682581236, 51.028819080565775], [-114.0921287407341, 51.028813766827895], [-114.09212048842443, 51.02880836543062], [-114.09211206888345, 51.02880287637396], [-114.09210348211128, 51.02879729965785], [-114.09209472810802, 51.02879163528226], [-114.09208580687378, 51.02878588324717], [-114.09207671840869, 51.02878004355251], [-114.09206746271283, 51.02877411619828], [-114.09205803978635, 51.0287681011844], [-114.09204844962935, 51.02876199851085], [-114.09203869224194, 51.02875580817759], [-114.09202876762427, 51.02874953018457], [-114.09201867577646, 51.028743164531754], [-114.0920084166986, 51.02873671121908], [-114.09199877038166, 51.028730362771896], [-114.0919897368253, 51.02872411919032], [-114.09198131602923, 51.028717980474504], [-114.09197350799313, 51.02871194662458], [-114.09196631271674, 51.02870601764069], [-114.09195973019973, 51.02870019352293], [-114.09195376044187, 51.0286944742714], [-114.09194840344286, 51.028688859886195], [-114.09194365920246, 51.028683350367416], [-114.09193952772041, 51.02867794571513], [-114.09193600899648, 51.0286726459294], [-114.09193310303044, 51.02866745101027], [-114.09193080982206, 51.02866236095779], [-114.0919291293711, 51.02865737577202], [-114.09192806167738, 51.02865249545298], [-114.09192760674068, 51.02864772000067], [-114.09192709653465, 51.02864315528932], [-114.09192653105926, 51.02863880131897], [-114.09192591031456, 51.0286346580896], [-114.09192523430052, 51.0286307256012], [-114.09192450301717, 51.028627003853764], [-114.09192371646449, 51.0286234928473], [-114.0919228746425, 51.02862019258183], [-114.0919219775512, 51.02861710305733], [-114.09192102519059, 51.0286142242738], [-114.09192001756064, 51.02861155623123], [-114.0919189546614, 51.02860909892966], [-114.0919178364928, 51.02860685236903], [-114.09191666305487, 51.02860481654938], [-114.09191543434761, 51.028602991470706], [-114.09191415037098, 51.02860137713298], [-114.091912811125, 51.028599973536224]]}}, {"type": "Feature", "properties": {"part": "spur_E1", "length_m": 30.5}, "geometry": {"type": "LineString", "coordinates": [[-114.09254424515106, 51.027968842021366], [-114.09226290206563, 51.02817746751191]]}}, {"type": "Feature", "properties": {"part": "spur_E2", "length_m": 43.8}, "geometry": {"type": "LineString", "coordinates": [[-114.0915020835435, 51.02804498114519], [-114.09167377191837, 51.028131148618954], [-114.0920686126572, 51.02818700594361]]}}, {"type": "Feature", "properties": {"part": "spur_E3", "length_m": 55.3}, "geometry": {"type": "LineString", "coordinates": [[-114.09134041761875, 51.028869590149895], [-114.09135737947321, 51.02886571180144], [-114.09136576818092, 51.02886380517293], [-114.09137123769443, 51.02886257748247], [-114.09137567266421, 51.028861597802425], [-114.09137907309042, 51.02886086613292], [-114.09138206718977, 51.028860238831335], [-114.09138465496231, 51.0288597158977], [-114.09138683640808, 51.02885929733203], [-114.09138861152708, 51.02885898313437], [-114.09139018972488, 51.028858725423824], [-114.09139157100148, 51.02885852420035], [-114.09139275535688, 51.02885837946402], [-114.09139374279111, 51.0288582912148], [-114.09139453330414, 51.02885825945269], [-114.09139512689602, 51.02885828417774], [-114.0913955235667, 51.0288583653899], [-114.09139572331621, 51.028858503089204], [-114.09139596633692, 51.028858667254944], [-114.09139625262881, 51.028858857887116], [-114.0913965821919, 51.02885907498574], [-114.09139695502618, 51.02885931855081], [-114.09139737113166, 51.02885958858228], [-114.09139783050836, 51.02885988508022], [-114.09139833315623, 51.02886020804457], [-114.0913988790753, 51.02886055747537], [-114.09139946826558, 51.028860933372606], [-114.09140010072706, 51.028861335736266], [-114.09140077645975, 51.02886176456638], [-114.09140149546364, 51.02886221986293], [-114.09140225773875, 51.028862701625904], [-114.09140306328507, 51.028863209855295], [-114.09140391210262, 51.02886374455114], [-114.09140480419138, 51.028864305713405], [-114.09140569621108, 51.028864831759456], [-114.09140658816176, 51.02886532268932], [-114.09140748004337, 51.02886577850296], [-114.09140837185593, 51.02886619920042], [-114.09140926359943, 51.02886658478166], [-114.09141015527388, 51.02886693524671], [-114.09141104687927, 51.028867250595574], [-114.09141193841559, 51.02886753082821], [-114.09141282988286, 51.028867775944654], [-114.09141372128106, 51.02886798594489], [-114.0914146126102, 51.028868160828914], [-114.09141550387025, 51.02886830059675], [-114.09141639506124, 51.028868405248375], [-114.09141728618316, 51.028868474783806], [-114.09141817723601, 51.02886850920302], [-114.09141906821976, 51.02886850850605], [-114.09141995927261, 51.02886854292526], [-114.09142085039454, 51.02886861246065], [-114.09142174158555, 51.028868717112246], [-114.09142263284564, 51.028868856880024], [-114.09142352417481, 51.02886903176398], [-114.09142441557309, 51.02886924176415], [-114.09142530704045, 51.028869486880495], [-114.09142619857691, 51.02886976711302], [-114.09142709018246, 51.028870082461744], [-114.09142798185711, 51.02887043292666], [-114.09142887360086, 51.028870818507755], [-114.09142976541371, 51.028871239205046], [-114.09143065729566, 51.02887169501852], [-114.09143154924672, 51.02887218594819], [-114.09143244126689, 51.02887271199405], [-114.09143333335615, 51.028873273156094], [-114.09143422537636, 51.02887379920193], [-114.0914351173275, 51.028874290131576], [-114.09143600920957, 51.028874745945], [-114.09143690102256, 51.02887516664225], [-114.09143779276647, 51.028875552223276], [-114.09143868444131, 51.02887590268811], [-114.09143957604705, 51.02887621803672], [-114.09144046758374, 51.028876498269156], [-114.09144135905132, 51.028876743385375], [-114.09144225044982, 51.02887695338539], [-114.09144314177922, 51.028877128269215], [-114.09144403303955, 51.028877268036815], [-114.09144492423077, 51.028877372688235], [-114.09144581535291, 51.02887744222345], [-114.09144670640593, 51.02887747664246], [-114.09144759738987, 51.02887747594526], [-114.0914484883738, 51.02887747524805], [-114.09144937935775, 51.028877474550846], [-114.09145027034168, 51.028877473853626], [-114.09145116132562, 51.028877473156406], [-114.09145205230956, 51.02887747245917], [-114.09145294329349, 51.028877471761945], [-114.09145383427743, 51.02887747106469], [-114.09145472526136, 51.02887747036743], [-114.0914556162453, 51.02887746967018], [-114.09145650722924, 51.02887746897292], [-114.09145739821317, 51.02887746827565], [-114.0914582891971, 51.02887746757837], [-114.09145918018103, 51.028877466881085], [-114.09146007116497, 51.02887746618379], [-114.09146096214891, 51.028877465486495], [-114.09146185313284, 51.02887746478919], [-114.09146271627353, 51.02887746411367], [-114.09146355157097, 51.028877463459935], [-114.09146435902517, 51.02887746282798], [-114.0914651386361, 51.02887746221782], [-114.0914658904038, 51.02887746162945], [-114.09146661432824, 51.02887746106285], [-114.09146731040944, 51.028877460518046], [-114.0914679786474, 51.02887745999503], [-114.0914686190421, 51.028877459493806], [-114.09146923159355, 51.028877459014375], [-114.09146981630175, 51.02887745855673], [-114.09147037316671, 51.02887745812087], [-114.09147090218843, 51.028877457706805], [-114.0914714033669, 51.02887745731453], [-114.09147187670212, 51.02887745694403], [-114.09147232219408, 51.02887745659534], [-114.09147285107755, 51.02887738594888], [-114.09147346335253, 51.02887724500464], [-114.091474159019, 51.028877033762626], [-114.09147493807697, 51.02887675222282], [-114.09147580052642, 51.02887640038524], [-114.09147674636736, 51.0288759782499], [-114.09147777559978, 51.02887548581676], [-114.09147888822368, 51.02887492308584], [-114.09148008423902, 51.02887429005712], [-114.09148136364583, 51.02887358673061], [-114.09148272644408, 51.028872813106325], [-114.09148417263376, 51.02887196918424], [-114.09148570221485, 51.02887105496434], [-114.09148731518736, 51.02887007044666], [-114.09148901155127, 51.028869015631145], [-114.09149079130658, 51.02886789051785], [-114.09149254352964, 51.02886692344917], [-114.09149426822052, 51.028866114425185], [-114.09149596537918, 51.02886546344584], [-114.0914976350057, 51.028864970511144], [-114.09149927710007, 51.0288646356211], [-114.09150089166229, 51.02886445877572], [-114.0915024786924, 51.028864439975], [-114.09150403819044, 51.02886457921894], [-114.09150557015637, 51.02886487650755], [-114.09150707459024, 51.02886533184082], [-114.09150855149205, 51.02886594521875], [-114.09151000086182, 51.02886671664133], [-114.09151142269958, 51.0288676461086], [-114.09151281700531, 51.02886873362052], [-114.09151418377905, 51.0288699791771], [-114.09151552302079, 51.02887138277837], [-114.0915168342465, 51.028872698610925], [-114.09151811745615, 51.028873926674784], [-114.09151937264973, 51.028875066969945], [-114.09152059982723, 51.02887611949641], [-114.09152179898867, 51.02887708425418], [-114.091522970134, 51.02887796124324], [-114.09152411326323, 51.02887875046361], [-114.09152522837636, 51.028879451915294], [-114.09152631547337, 51.02888006559827], [-114.09152737455425, 51.02888059151257], [-114.09152840561902, 51.02888102965817], [-114.09152940866764, 51.02888138003508], [-114.09153038370012, 51.0288816426433], [-114.09153133071645, 51.028881817482834], [-114.09153224971664, 51.028881904553664], [-114.09153314070065, 51.02888190385582], [-114.09153428227393, 51.02888190296169], [-114.09153567443646, 51.02888190187127], [-114.09153731718823, 51.028881900584565], [-114.09153921052928, 51.02888189910155], [-114.09154135445957, 51.02888189742221], [-114.0915437489791, 51.02888189554654], [-114.09154639408793, 51.02888189347452], [-114.09154928978599, 51.02888189120614], [-114.09155243607329, 51.028881888741374], [-114.09155583294987, 51.0288818860802], [-114.09155948041568, 51.028881883222596], [-114.09156337847075, 51.02888188016855], [-114.09156752711509, 51.028881876918035], [-114.09157192634866, 51.02888187347101], [-114.09157657617152, 51.02888186982746], [-114.0915814765836, 51.02888186598735], [-114.09158618202373, 51.028881827183575], [-114.09159069249189, 51.02888175341619], [-114.09159500798808, 51.028881644685164], [-114.09159912851227, 51.02888150099057], [-114.09160305406448, 51.028881322332396], [-114.09160678464468, 51.02888110871068], [-114.09161032025287, 51.028880860125426], [-114.09161366088905, 51.028880576576654], [-114.09161680655322, 51.02888025806439], [-114.09161975724535, 51.028879904588656], [-114.09162251296549, 51.02887951614945], [-114.0916250737136, 51.0288790927468], [-114.09162743948967, 51.0288786343807], [-114.09162961029374, 51.02887814105117], [-114.09163158612576, 51.028877612758244], [-114.09163336698577, 51.028877049501894], [-114.09163562114632, 51.02887646831626], [-114.0916383486074, 51.02887586920135], [-114.09164154936899, 51.0288752521571], [-114.09164522343103, 51.02887461718346], [-114.09164937079353, 51.02887396428042], [-114.09165399145645, 51.02887329344791], [-114.09165908541978, 51.02887260468589], [-114.09166465268346, 51.02887189799426], [-114.09167069324751, 51.028871173372984], [-114.09167720711186, 51.028870430821996], [-114.09168419427651, 51.028869670341194], [-114.0916916547414, 51.028868891930486], [-114.09169958850651, 51.028868095589814], [-114.09170799557182, 51.02886728131905], [-114.09171687593728, 51.02886644911812], [-114.09172622960286, 51.02886559898691], [-114.09173508208977, 51.02886474924835], [-114.09174343339802, 51.02886389990257], [-114.09175128352769, 51.02886305094966], [-114.09175863247877, 51.02886220238974], [-114.0917654802513, 51.0288613542229], [-114.0917718268453, 51.028860506449206], [-114.09177767226079, 51.02885965906878], [-114.09178301649783, 51.02885881208167], [-114.0917878595564, 51.02885796548795], [-114.09179220143656, 51.02885711928768], [-114.09179604213834, 51.02885627348092], [-114.09179938166177, 51.02885542806773], [-114.09180222000684, 51.028854583048116], [-114.09180455717363, 51.028853738422164], [-114.09180639316212, 51.02885289418987], [-114.09180772797238, 51.02885205035126], [-114.09180953580533, 51.02885104811791], [-114.09181181666096, 51.02884988748979], [-114.0918145705392, 51.02884856846687], [-114.09181779743996, 51.02884709104913], [-114.09182149736318, 51.02884545523651], [-114.0918256703088, 51.028843661028986], [-114.09183031627666, 51.028841708426484], [-114.09183543526669, 51.028839597428956], [-114.09184102727879, 51.02883732803635], [-114.09184709231279, 51.0288349002486], [-114.09185363036859, 51.02883231406561], [-114.09186064144603, 51.02882956948732], [-114.09186812554495, 51.02882666651365], [-114.0918760826652, 51.028823605144474], [-114.09188451280659, 51.02882038537974], [-114.09189341596894, 51.02881700721931], [-114.09190179028262, 51.02881371726471], [-114.0919096357478, 51.028810515516064], [-114.09191695236463, 51.02880740197345], [-114.09192374013327, 51.028804376637005], [-114.09192999905382, 51.028801439506786], [-114.09193572912646, 51.028798590582895], [-114.09194093035131, 51.02879582986541], [-114.09194560272849, 51.02879315735441], [-114.09194974625811, 51.02879057304993], [-114.0919533609403, 51.02878807695204], [-114.09195644677514, 51.02878566906082], [-114.09195900376275, 51.02878334937626], [-114.09196103190322, 51.02878111789843], [-114.09196253119664, 51.02877897462735], [-114.09196350164308, 51.028776919563036], [-114.09196394324263, 51.028774952705504], [-114.09196435099535, 51.02877311011285], [-114.09196472490126, 51.028771391785085], [-114.09196506496033, 51.028769797722205], [-114.09196537117262, 51.028768327924205], [-114.09196564353809, 51.02876698239109], [-114.09196588205677, 51.02876576112286], [-114.09196608672865, 51.028764664119514], [-114.09196625755375, 51.028763691381045], [-114.09196639453207, 51.02876284290746], [-114.09196649766359, 51.0287621186988], [-114.09196656694834, 51.028761518755], [-114.09196660238631, 51.028761043076074], [-114.09196660397751, 51.02876069166206], [-114.09196657172193, 51.02876046451292], [-114.09196650561958, 51.028760361628656], [-114.09196640567045, 51.028760383009285], [-114.09196647177556, 51.02876030520347], [-114.09196670393493, 51.02876012821121], [-114.09196710214853, 51.0287598520325], [-114.09196766641638, 51.02875947666734], [-114.09196839673845, 51.02875900211573], [-114.09196929311476, 51.02875842837766], [-114.09197035554526, 51.02875775545312], [-114.09197158402996, 51.02875698334212], [-114.09197313837623, 51.02875601419449], [-114.09197501858405, 51.0287548480102], [-114.09197722465335, 51.028753484789256], [-114.09197975658408, 51.02875192453162], [-114.09198309379825, 51.02874987368675], [-114.09198723629564, 51.02874733225456], [-114.09199362234185, 51.028743419583215], [-114.0920065667319, 51.02873549371668]]}}, {"type": "Feature", "properties": {"part": "spur_E4", "length_m": 44.9}, "geometry": {"type": "LineString", "coordinates": [[-114.09304892175003, 51.029203241565476], [-114.0929841906758, 51.02911972978104], [-114.09295178466773, 51.029078159742454], [-114.09293012661678, 51.029050694201665], [-114.09291202418272, 51.02902805407127], [-114.0928974773547, 51.02901023935297], [-114.09288408869418, 51.028994157016314], [-114.09287185819848, 51.02897980706169], [-114.09286078586514, 51.0289671894895], [-114.092850871692, 51.02895630430009], [-114.0928408764063, 51.02894579084491], [-114.09283080000786, 51.028935649123945], [-114.09282064249648, 51.0289258791372], [-114.092810403872, 51.028916480884625], [-114.09279876374819, 51.028906465452], [-114.09278572212645, 51.02889583283891], [-114.09276731785422, 51.02888161630121], [-114.09273166749075, 51.02885491560204]]}}], "crs": {"type": "name", "properties": {"name": "urn:ogc:def:crs:EPSG::4617"}}}