{"type": "FeatureCollection", "features": [{"type": "Feature", "properties": {"name": "rain_garden_base", "z": 1081.71}, "geometry": {"type": "Polygon", "coordinates": [[[-114.09185230719808, 51.028241150294235], [-114.09185810896226, 51.02824309957095], [-114.09186357981143, 51.02824539807388], [-114.09186866705811, 51.028248023667075], [-114.09187332170964, 51.02825095106485], [-114.09187749893877, 51.0282541520746], [-114.09188115851691, 51.02825759586914], [-114.09188426520011, 51.028261249282814], [-114.09188678906911, 51.02826507713123], [-114.09188870581758, 51.028269042550164], [-114.09188999698617, 51.028273107350586], [-114.09189065013993, 51.02827723238617], [-114.09189065898849, 51.02828137793066], [-114.09189002344657, 51.02828550406014], [-114.09188874963445, 51.02828957103772], [-114.09188684981962, 51.028293539696165], [-114.09188434229802, 51.02829737181516], [-114.09188125121857, 51.02830103048916], [-114.09187760634975, 51.02830448048313], [-114.09187344279371, 51.0283076885717], [-114.09186880064752, 51.02831062385925], [-114.09186372461788, 51.02831325807719], [-114.09185826358971, 51.02831556585651], [-114.09185247015552, 51.028317524972046], [-114.09184640010962, 51.028319116556354], [-114.09184011190973, 51.02832032528162], [-114.09183366611508, 51.02832113950706], [-114.09182712480218, 51.028321551391265], [-114.09182055096765, 51.028321556967576], [-114.09181400792119, 51.02832115618222], [-114.09180755867631, 51.02832035289504], [-114.09180126534271, 51.02831915484213], [-114.09179518852893, 51.028317573561445], [-114.09178938675795, 51.028315624281575], [-114.0917839159042, 51.02831332577524], [-114.09177882865514, 51.02831070017837], [-114.09177417400365, 51.0283077727769], [-114.09176999677675, 51.02830457176345], [-114.09176633720313, 51.028301127965435], [-114.09176323052655, 51.02829747454868], [-114.09176070666598, 51.02829364669764], [-114.09175878992738, 51.02828968127659], [-114.09175749876982, 51.0282856164747], [-114.09175684562774, 51.028281491438385], [-114.09175683679112, 51.02827734589389], [-114.09175747234477, 51.02827321976509], [-114.09175874616791, 51.028269152788944], [-114.09176064599272, 51.02826518413255], [-114.09176315352275, 51.02826135201621], [-114.09176624460889, 51.028257693345296], [-114.09176988948234, 51.028254243354745], [-114.09177405304075, 51.02825103526982], [-114.09177869518689, 51.02824809998607], [-114.09178377121428, 51.02824546577177], [-114.09178923223799, 51.02824315799589], [-114.09179502566549, 51.0282411988835], [-114.09180109570308, 51.028239607301806], [-114.09180738389297, 51.02823839857866], [-114.09181382967675, 51.02823758435463], [-114.09182037097783, 51.02823717247117], [-114.09182694480042, 51.02823716689488], [-114.09183348783522, 51.028237567679525], [-114.09183993706903, 51.02823837096529], [-114.09184623039263, 51.028239569016144], [-114.09185230719808, 51.028241150294235]]]}}, {"type": "Feature", "properties": {"name": "rain_garden_top", "z": 1081.91}, "geometry": {"type": "Polygon", "coordinates": [[[-114.09185717521453, 51.02823463700409], [-114.09186396590644, 51.02823691854068], [-114.09187036927786, 51.02823960882998], [-114.09187632366104, 51.028242681963185], [-114.09188177171191, 51.02824610834435], [-114.09188666096277, 51.02824985497565], [-114.09189094432749, 51.02825388577502], [-114.0918945805549, 51.02825816192378], [-114.09189753462586, 51.02826264224031], [-114.09189977809093, 51.02826728357675], [-114.09190128934421, 51.02827204123456], [-114.09190205383118, 51.02827686939492], [-114.09190206418918, 51.02828172155999], [-114.0919013203184, 51.02828655100083], [-114.09189982938223, 51.02829131120723], [-114.09189760573916, 51.02829595633577], [-114.09189467080381, 51.02830044165127], [-114.09189105284112, 51.02830472395768], [-114.09188678669382, 51.02830876201394], [-114.09188191344724, 51.02831251693134], [-114.09187648003324, 51.02831595254785], [-114.09187053877874, 51.02831903577659], [-114.09186414690123, 51.02832173692427], [-114.09185736595799, 51.02832402997728], [-114.0918502612535, 51.02832589285226], [-114.09184290120999, 51.02832730760858], [-114.0918353567089, 51.028328260621365], [-114.09182770040822, 51.02832874271258], [-114.09182000604251, 51.02832874923937], [-114.09181234771282, 51.02832828013887], [-114.09180479917337, 51.02832733992881], [-114.09179743312106, 51.028325937663965], [-114.09179032049502, 51.02832408684889], [-114.09178352979399, 51.02832180530807], [-114.09177712641625, 51.02831911501404], [-114.09177117202984, 51.028316041875826], [-114.09176572397891, 51.02831261548954], [-114.09176083473118, 51.02830886885323], [-114.09175655137267, 51.02830483804911], [-114.0917529151543, 51.02830056189609], [-114.09174996109486, 51.02829608157594], [-114.09174771764334, 51.02829144023664], [-114.09174620640516, 51.028286682576834], [-114.09174544193421, 51.02828185441547], [-114.09174543159254, 51.02827700225037], [-114.0917461754794, 51.0282721728105], [-114.09174766643068, 51.028267412606056], [-114.09174989008737, 51.02826276748033], [-114.09175282503433, 51.02825828216843], [-114.09175644300615, 51.02825399986626], [-114.09176070915977, 51.02824996181472], [-114.09176558240962, 51.028246206902324], [-114.09177101582367, 51.028242771290934], [-114.09177695707503, 51.028239688067224], [-114.09178334894634, 51.02823698692428], [-114.09179012988054, 51.028234693875525], [-114.0917972345735, 51.02823283100418], [-114.09180459460345, 51.028231416250705], [-114.09181213908946, 51.02823046323989], [-114.09181979537411, 51.02822998114972], [-114.09182748972347, 51.02822997462293], [-114.09183514803709, 51.02823044372247], [-114.0918426965614, 51.0282313839306], [-114.0918500626001, 51.028232786192625], [-114.09185717521453, 51.02823463700409]]]}}], "crs": {"type": "name", "properties": {"name": "urn:ogc:def:crs:EPSG::4617"}}}