{"type": "FeatureCollection", "features": [{"type": "Feature", "properties": {"item": "seating node"}, "geometry": {"type": "Polygon", "coordinates": [[[-114.09194448685058, 51.02863832137076], [-114.09194468755551, 51.02863567776104], [-114.09194529819715, 51.02863305928669], [-114.09194631289459, 51.02863049116503], [-114.09194772187571, 51.028627998128485], [-114.0919495115712, 51.028625604186324], [-114.09195166474524, 51.02862333239351], [-114.09195416066157, 51.028621204628614], [-114.09195697528314, 51.028619241383176], [-114.09196008150357, 51.0286174615643], [-114.0919634494083, 51.02861588231257], [-114.09196704656254, 51.02861451883705], [-114.09197083832383, 51.02861338426872], [-114.09197478817542, 51.028612489534076], [-114.09197885807816, 51.0286118432499], [-114.09198300883673, 51.028611451640266], [-114.0919872004771, 51.028611318476536], [-114.09199139263156, 51.02861144504117], [-114.09199554492746, 51.02861183011529], [-114.09199961737596, 51.028612469990414], [-114.09200357075723, 51.02861335850423], [-114.0920073669981, 51.02861448709986], [-114.09201096953873, 51.028615844908316], [-114.09201434368475, 51.02861741885321], [-114.09201745694128, 51.028619193776585], [-114.09202027932595, 51.028621152584996], [-114.0920227836577, 51.02862327641406], [-114.09202494581837, 51.028625544810176], [-114.09202674498518, 51.02862793592747], [-114.09202816383109, 51.02863042673815], [-114.09202918869182, 51.02863299325442], [-114.09202980969731, 51.028635610759316], [-114.0920300208669, 51.028638254044814], [-114.09202982016681, 51.028640897654675], [-114.09202920952983, 51.02864351612946], [-114.09202819483667, 51.02864608425184], [-114.09202678585932, 51.028648577289346], [-114.09202499616694, 51.028650971232686], [-114.0920228429952, 51.028653243026845], [-114.09202034708031, 51.02865537079319], [-114.09201753245924, 51.02865733404014], [-114.09201442623834, 51.02865911386053], [-114.09201105833222, 51.0286606931137], [-114.09200746117568, 51.02866205659059], [-114.09200366941133, 51.028663191160085], [-114.09199971955599, 51.0286640858957], [-114.09199564964895, 51.02866473218059], [-114.09199149888575, 51.02866512379069], [-114.09198730724053, 51.02866525695457], [-114.09198311508123, 51.02866513038979], [-114.09197896278069, 51.02866474531523], [-114.09197489032788, 51.028664105439404], [-114.09197093694284, 51.02866321692463], [-114.09196714069887, 51.028662088327835], [-114.09196353815592, 51.02866073051802], [-114.09196016400848, 51.02865915657168], [-114.09195705075146, 51.028657381646795], [-114.09195422836724, 51.02865542283687], [-114.09195172403689, 51.02865329900634], [-114.0919495618785, 51.028651030608884], [-114.09194776271478, 51.02864863949043], [-114.0919463438726, 51.02864614867875], [-114.09194531901616, 51.028643582161756], [-114.09194469801531, 51.028640964656425], [-114.09194448685058, 51.02863832137076]]]}}], "crs": {"type": "name", "properties": {"name": "urn:ogc:def:crs:EPSG::4617"}}}