{"type": "FeatureCollection", "features": [{"type": "Feature", "properties": {"bed": "B1", "purpose": "near E2 entrance", "area_m2": 45.0, "shrubs": "DF 3, PO 5, RA 2"}, "geometry": {"type": "Polygon", "coordinates": [[[-114.09157405343541, 51.02806156986972], [-114.09157344119583, 51.028061231361335], [-114.09157288277244, 51.02806085767454], [-114.09157238322578, 51.028060452195746], [-114.09157194708281, 51.02806001859948], [-114.09157157829598, 51.02805956081508], [-114.09157128020729, 51.028059082991085], [-114.09157105551806, 51.0280585894576], [-114.09157090626447, 51.02805808468716], [-114.0915708337991, 51.02805757325405], [-114.09157083877861, 51.028057059792985], [-114.0915709211579, 51.028056548957075], [-114.09157108019042, 51.02805604537557], [-114.09157185632493, 51.028054081056496], [-114.09157210037401, 51.02805330228599], [-114.09157293475177, 51.028049724496064], [-114.09157305658084, 51.028048934390604], [-114.09157333084254, 51.02804532225477], [-114.09157332927836, 51.02804452842348], [-114.09157304078285, 51.02804091672859], [-114.09157291584052, 51.028040126816514], [-114.09157206736631, 51.02803655034522], [-114.09157182024914, 51.02803577195958], [-114.09157041996771, 51.02803226515521], [-114.09157014063054, 51.02803168703787], [-114.09156994055553, 51.028031189019885], [-114.09156981652279, 51.02803068125711], [-114.0915697696576, 51.028030168356054], [-114.09156980038506, 51.02802965496978], [-114.09156990842646, 51.0280291457558], [-114.0915700928016, 51.02802864533378], [-114.09157035183783, 51.02802815824357], [-114.09157068318514, 51.028027688904125], [-114.09157108383748, 51.02802724157336], [-114.09157155016011, 51.0280268203095], [-114.09157207792249, 51.02802642893429], [-114.09157266233669, 51.02802607099835], [-114.09157329810084, 51.02802574974892], [-114.09157397944722, 51.02802546810037], [-114.09158610135056, 51.02802096253671], [-114.0915861581786, 51.02802094159977], [-114.09159925398663, 51.02801615928342], [-114.09161238843474, 51.02801135353691], [-114.09161250380964, 51.02801131097128], [-114.09161918596713, 51.028008813114425], [-114.09161994702359, 51.02800856033102], [-114.09162074449242, 51.02800835702981], [-114.09162157030845, 51.02800820526689], [-114.09162241611988, 51.0280081065771], [-114.09162327337258, 51.028008061958545], [-114.09162413339679, 51.02800807186245], [-114.09162498749471, 51.02800813618866], [-114.09162582702844, 51.02800825428664], [-114.09162664350741, 51.028008424961975], [-114.0916274286742, 51.028008646488566], [-114.09162817458805, 51.028008916626], [-114.09162887370522, 51.028009232642276], [-114.09164019620593, 51.028014915214726], [-114.09164080240325, 51.02801525005053], [-114.09164135594044, 51.02801561937681], [-114.09164185190401, 51.02801601991522], [-114.0916422858915, 51.02801644811036], [-114.09164265405056, 51.02801690016132], [-114.09164295311322, 51.028017372055416], [-114.09164318042485, 51.02801785960391], [-114.09164333396765, 51.028018358478995], [-114.09164341237873, 51.028018864252374], [-114.09164358243113, 51.02802099311043], [-114.0916437073746, 51.02802178302248], [-114.0916444523581, 51.028024923242036], [-114.09164469947642, 51.02802570162747], [-114.09164592895891, 51.02802878067772], [-114.09164629587222, 51.02802954004027], [-114.09164799801322, 51.028032528268135], [-114.09164848118803, 51.028033261294865], [-114.09165063959506, 51.02803612992204], [-114.09165123437812, 51.028036829553386], [-114.09165382826461, 51.02803955095341], [-114.09165452892772, 51.028040210451415], [-114.09165753331342, 51.0280427584159], [-114.09165833310894, 51.028043371429355], [-114.09166171905966, 51.02804572141962], [-114.09166261028513, 51.02804628204489], [-114.09166634519244, 51.02804841142936], [-114.09166731926513, 51.028048914267416], [-114.09167136715982, 51.02805080253889], [-114.09167241469828, 51.028051242746805], [-114.09167673659704, 51.02805287172024], [-114.09167784751337, 51.02805324505881], [-114.09168240179372, 51.028054599046186], [-114.09168356538913, 51.02805490191988], [-114.09168370418648, 51.028054933115094], [-114.09168138571496, 51.02805903539871], [-114.09167630151852, 51.02806583616766], [-114.091670184754, 51.02807228992838], [-114.09166309432891, 51.028078334527486], [-114.09165509852778, 51.02808391175203], [-114.09164627435446, 51.02808896789008], [-114.09163715975266, 51.028093241848225], [-114.09157405343541, 51.02806156986972]]]}}, {"type": "Feature", "properties": {"bed": "B2", "purpose": "near E4 entrance", "area_m2": 45.0, "shrubs": "DF 4, PO 5, RA 2"}, "geometry": {"type": "Polygon", "coordinates": [[[-114.09312515243663, 51.029124569969746], [-114.0931254054814, 51.02912507092499], [-114.09312557998267, 51.029125585035786], [-114.09312567428249, 51.029126107417575], [-114.0931256874849, 51.029126633107204], [-114.09312561946447, 51.02912715711009], [-114.09312398567756, 51.029135011178795], [-114.09312387315074, 51.02913542593406], [-114.09312126324077, 51.02914320623208], [-114.09312099571481, 51.029143821458796], [-114.09311713784446, 51.02915099870905], [-114.09311666498182, 51.029151707631044], [-114.09311462898806, 51.029154238239286], [-114.0931142207614, 51.02915469020883], [-114.09311374539767, 51.029155115281426], [-114.09311320731736, 51.02915550950427], [-114.0931126115241, 51.02915586921144], [-114.09311196355833, 51.02915619105797], [-114.09311126944553, 51.02915647205095], [-114.09311053564035, 51.029156709577386], [-114.09310976896658, 51.02915690142849], [-114.09310897655361, 51.029157045820206], [-114.09310816577019, 51.029157141409826], [-114.09310734415594, 51.02915718730843], [-114.09310651935114, 51.029157183089225], [-114.0931056990258, 51.029157128791425], [-114.09310489080822, 51.02915702491996], [-114.09310410221413, 51.029156872440765], [-114.0931033405768, 51.02915667277172], [-114.09310284436474, 51.029156505683595], [-114.09310284326091, 51.02915650698984], [-114.09310031279752, 51.029155656661416], [-114.09309917413093, 51.02915531816444], [-114.09309671777761, 51.02915467885458], [-114.09309553197993, 51.02915441236819], [-114.09309298808479, 51.02915392796345], [-114.09309176657548, 51.02915373605402], [-114.09308915963508, 51.02915341121902], [-114.0930879141784, 51.02915329573483], [-114.09308526930214, 51.02915313359837], [-114.0930840118923, 51.029153095651594], [-114.09308135455059, 51.02915309777491], [-114.09308009729743, 51.029153137731], [-114.09307745308077, 51.029153304093676], [-114.09307620809233, 51.02915342156782], [-114.0930736024658, 51.029153750567836], [-114.0930723817318, 51.02915394442871], [-114.09306983979147, 51.029154432897265], [-114.09306865506849, 51.02915470127779], [-114.0930662012925, 51.029155344510954], [-114.0930650639895, 51.02915568482665], [-114.09306272200894, 51.02915647662989], [-114.09306164307894, 51.029156885603285], [-114.09306002784997, 51.0291575680551], [-114.0930593611777, 51.02915782277102], [-114.09305866050173, 51.02915803815701], [-114.09305793164113, 51.02915821242433], [-114.09305718064901, 51.02915834412569], [-114.09305641376231, 51.02915843216734], [-114.09305563734996, 51.02915847581809], [-114.09305485786, 51.02915847471542], [-114.09304946121475, 51.029158311837364], [-114.09304820236729, 51.02915831283967], [-114.09304688003292, 51.029158354860314], [-114.09304604888355, 51.02915835577514], [-114.0930452215173, 51.029158305816274], [-114.0930444057463, 51.02915820545539], [-114.0930436092732, 51.02915805564015], [-114.09304283961843, 51.02915785778512], [-114.09304210404918, 51.029157613758485], [-114.0930414095108, 51.02915732586439], [-114.09304076256127, 51.02915699682117], [-114.09304016930919, 51.02915662973569], [-114.09303963535612, 51.02915622807405], [-114.09303916574373, 51.0291557956288], [-114.0930387649062, 51.02915533648317], [-114.093005972291, 51.02911302958618], [-114.09299973426964, 51.02910502750951], [-114.09300519107985, 51.02910295910072], [-114.09301403518873, 51.029100312703704], [-114.09302324805051, 51.02909822570187], [-114.09303274094061, 51.02909671819414], [-114.09304242243765, 51.02909580469857], [-114.09305219930386, 51.02909549401259], [-114.09306197738306, 51.02909578912825], [-114.0930716625074, 51.02909668720344], [-114.09308116140419, 51.02909817958926], [-114.09308809725638, 51.02909973831798], [-114.0930882860672, 51.02909980947824], [-114.0930893970201, 51.02910018280336], [-114.09309331872625, 51.029101348642044], [-114.09309448235693, 51.029101651501605], [-114.09309697489293, 51.02910221166137], [-114.09309923727261, 51.02910288421789], [-114.09310764016429, 51.02910605115271], [-114.09311265748555, 51.02910839149512], [-114.09312482325252, 51.02912408692964], [-114.09312515243663, 51.029124569969746]]]}}, {"type": "Feature", "properties": {"bed": "B3", "purpose": "near seating node", "area_m2": 42.3, "shrubs": "DF 3, PO 4, RA 1"}, "geometry": {"type": "Polygon", "coordinates": [[[-114.09193788996015, 51.028707065812405], [-114.09193832253287, 51.028707528941915], [-114.09193867986446, 51.02870801692095], [-114.09193895840664, 51.02870852490385], [-114.09193915539345, 51.028709047846405], [-114.09193926886886, 51.02870958055573], [-114.09193929770599, 51.02871011774205], [-114.09193924161855, 51.02871065407112], [-114.09193910116345, 51.02871118421719], [-114.0919388777354, 51.02871170291588], [-114.09193857355305, 51.028712205016525], [-114.09193819163694, 51.028712685533264], [-114.09193773577948, 51.02871313969459], [-114.09193721050734, 51.02871356299064], [-114.09193662103647, 51.0287139512181], [-114.09193597322032, 51.02871430052188], [-114.09193527349169, 51.028714607433386], [-114.09193452879889, 51.02871486890498], [-114.09193374653674, 51.02871508234025], [-114.09193293447309, 51.028715245619786], [-114.09193210067174, 51.02871535712223], [-114.09193125341234, 51.02871541574034], [-114.09193040110819, 51.02871542089205], [-114.09192955222265, 51.028715372526214], [-114.09192871518515, 51.0287152711231], [-114.09192789830752, 51.02871511768963], [-114.09192710970133, 51.028714913749404], [-114.09192635719744, 51.02871466132754], [-114.09192594150765, 51.02871450465275], [-114.09192483057342, 51.028714131316576], [-114.09191837809773, 51.02871221303956], [-114.0919172144845, 51.02871191016829], [-114.09191049491704, 51.02871039995772], [-114.09190928983047, 51.02871017046803], [-114.09190236788335, 51.02870908286779], [-114.09190113292986, 51.028708928969934], [-114.09189407526509, 51.02870827445423], [-114.09189282233741, 51.028708197630266], [-114.09188569692405, 51.028707982502446], [-114.09188443808874, 51.0287079834922], [-114.09187731354822, 51.028708209824046], [-114.09187606092823, 51.028708288618006], [-114.09186900587356, 51.028708954229835], [-114.09186777153246, 51.028709110069165], [-114.09186085390758, 51.02871020855077], [-114.09185964973221, 51.028710439934734], [-114.09185293615751, 51.02871196070713], [-114.09185177374555, 51.02871226540723], [-114.09184532887521, 51.028714193824825], [-114.09184421942106, 51.028714568906665], [-114.09184172338966, 51.02871551500386], [-114.09184098643205, 51.02871576426232], [-114.09184021439769, 51.0287159669471], [-114.09183941466641, 51.0287161211207], [-114.09183859488279, 51.028716225309424], [-114.09183776288312, 51.02871627851732], [-114.09183692662043, 51.0287162802358], [-114.09183609408852, 51.028716230448396], [-114.09183527324554, 51.02871612963106], [-114.09183447193787, 51.02871597874748], [-114.09183369782518, 51.02871577923994], [-114.0918329583072, 51.028715533015536], [-114.09183226045288, 51.02871524242791], [-114.09183161093304, 51.028714910254784], [-114.09183101595639, 51.028714539671384], [-114.09183048121028, 51.02871413422008], [-114.09183001180631, 51.0287136977766], [-114.09182961223149, 51.02871323451284], [-114.0918284964632, 51.0287117751429], [-114.0918284489211, 51.02871171191502], [-114.09182734409141, 51.02871021760157], [-114.09182729848227, 51.02871015486915], [-114.09182691276364, 51.028709615252616], [-114.09182686586753, 51.028709548441235], [-114.09182582768207, 51.02870804188449], [-114.09182578286757, 51.02870797564597], [-114.09182231080159, 51.02870274729603], [-114.09182226487019, 51.028702676734845], [-114.09182120209044, 51.02870101062361], [-114.09182115837615, 51.02870094068944], [-114.09182079008856, 51.02870033925206], [-114.09182074549628, 51.028700264800094], [-114.09181976253026, 51.02869858626401], [-114.09181972032087, 51.028698512542356], [-114.0918168578199, 51.02869339692201], [-114.09181681503338, 51.02869331854336], [-114.09181583096897, 51.02869146984642], [-114.09181579070605, 51.02869139226609], [-114.09181545338613, 51.028690725271986], [-114.09181541279295, 51.02869064272699], [-114.0918145237062, 51.02868878224112], [-114.09181448581532, 51.02868870062808], [-114.09181223096141, 51.028683697996705], [-114.09181219321742, 51.028683611530724], [-114.09181133290846, 51.0286815746615], [-114.09181129800184, 51.02868148921218], [-114.09181100815054, 51.02868075486061], [-114.09181097361494, 51.02868066401357], [-114.09181022517383, 51.0286786171836], [-114.09181019365998, 51.02867852752008], [-114.09180854420802, 51.02867363780219], [-114.09180851373048, 51.02867354331059], [-114.0918078295672, 51.0286713206126], [-114.09180780222343, 51.02867122740786], [-114.09180757887088, 51.0286704268203], [-114.09180755275646, 51.0286703278277], [-114.09180699842362, 51.02866809858775], [-114.09180697562269, 51.028668001081414], [-114.09180656456337, 51.02866612458346], [-114.09180649007683, 51.02866558803965], [-114.09180650081476, 51.02866504948627], [-114.09180659667004, 51.028664514293084], [-114.09180677668695, 51.02866398779637], [-114.09180703907057, 51.02866347524572], [-114.09180738120477, 51.02866298175163], [-114.09180779967816, 51.02866251223461], [-114.09180829031828, 51.02866207137612], [-114.09180884823306, 51.02866166357184], [-114.09180946785966, 51.02866129288787], [-114.09181014301994, 51.02866096302024], [-114.09181086698206, 51.02866067725795], [-114.09181163252754, 51.02866043845028], [-114.09181243202332, 51.02866024897834], [-114.09181325749785, 51.028660110731266], [-114.0918141007205, 51.02866002508752], [-114.09181495328372, 51.02865999290101], [-114.0918158066868, 51.02866001449268], [-114.09181665242069, 51.02866008964723], [-114.09181748205276, 51.02866021761532], [-114.09181828731096, 51.02866039712102], [-114.09181906016627, 51.028660626374524], [-114.09181988823937, 51.028660904654785], [-114.09182380987673, 51.028662070536235], [-114.09182497348817, 51.02866237340845], [-114.09182905745799, 51.02866329127764], [-114.09183026254256, 51.028663520768085], [-114.09183446951388, 51.0286641817854], [-114.09183570446632, 51.028664335684006], [-114.09183999392393, 51.02866473348355], [-114.0918412468503, 51.0286648103081], [-114.09184557748424, 51.0286649410588], [-114.09184683631835, 51.02866494006946], [-114.09185116642203, 51.02866480251213], [-114.09185241904085, 51.02866472371844], [-114.09185670691276, 51.02866431917781], [-114.09185794125307, 51.028664163338554], [-114.09186214559855, 51.028663495710624], [-114.0918633497723, 51.0286632643267], [-114.09186743010142, 51.02866234004105], [-114.09186859251209, 51.02866203534077], [-114.09187250952886, 51.02866086329883], [-114.09187361898194, 51.02866048821656], [-114.09187733496316, 51.02865907970577], [-114.09187838077348, 51.02865863785397], [-114.09188185993263, 51.02865700643891], [-114.09188283202877, 51.02865650207274], [-114.09188604085891, 51.02865466346519], [-114.09188692987924, 51.02865410144185], [-114.09188938612657, 51.02865238817279], [-114.09188998206788, 51.028652011615804], [-114.09189063393468, 51.028651673911384], [-114.09189133538551, 51.028651378344705], [-114.09189207959663, 51.0286511277911], [-114.0918928593283, 51.028650924687966], [-114.09189366699523, 51.02865077101109], [-114.0918944947404, 51.02865066825543], [-114.09189533451145, 51.02865061742065], [-114.09189617813901, 51.02865061900123], [-114.09189701741622, 51.028650672981826], [-114.09189784417853, 51.02865077883729], [-114.09189865038317, 51.02865093553785], [-114.09189942818729, 51.02865114155914], [-114.09190017002439, 51.02865139489696], [-114.0919008686778, 51.0286516930868], [-114.09190151735099, 51.028652033227864], [-114.09190210973362, 51.028652412011255], [-114.09190264006294, 51.02865282575211], [-114.09190310317989, 51.028653270425544], [-114.0919034945792, 51.02865374170576], [-114.09190381045333, 51.028654235008084], [-114.09190404772944, 51.02865474553366], [-114.09190420409927, 51.02865526831603], [-114.09190510094993, 51.02865936773729], [-114.0919051726888, 51.0286596569103], [-114.09190536825484, 51.028660361507654], [-114.09190545653261, 51.0286606488529], [-114.09190707485692, 51.028665449741844], [-114.0919071718018, 51.0286657152699], [-114.09190742602846, 51.02866636160791], [-114.09190753709623, 51.028666624925066], [-114.09190975451865, 51.0286715467665], [-114.09190986973485, 51.02867178813499], [-114.09191016586715, 51.02867237521343], [-114.09191029295005, 51.0286726141999], [-114.09191311376368, 51.02867765689849], [-114.0919132411833, 51.02867787467347], [-114.09191356468641, 51.02867840406642], [-114.09191370195984, 51.02867861944546], [-114.09191712978337, 51.028683782323604], [-114.09191726438868, 51.02868397779465], [-114.09191760333499, 51.02868445278361], [-114.09191774605665, 51.02868464595013], [-114.0919217837906, 51.02868992796776], [-114.091921921621, 51.028690102844955], [-114.09192226666347, 51.028690527686855], [-114.09192241114634, 51.02869070041475], [-114.09192706101634, 51.02869610034333], [-114.09192719907166, 51.028696256527404], [-114.09192754318103, 51.02869663590411], [-114.0919276866758, 51.02869679012588], [-114.09193295032239, 51.028702306675925], [-114.09193308641579, 51.0287024460954], [-114.09193342451545, 51.02870278473459], [-114.09193356505422, 51.02870292238874], [-114.09193788996015, 51.028707065812405]]]}}, {"type": "Feature", "properties": {"bed": "B4", "purpose": "near E1 entrance", "area_m2": 45.0, "shrubs": "DF 3, PO 3, RA 3"}, "geometry": {"type": "Polygon", "coordinates": [[[-114.09245760404745, 51.02805667989858], [-114.09245818703258, 51.028056288818824], [-114.0924588287674, 51.02805593621462], [-114.09245952289712, 51.02805562557766], [-114.092460262548, 51.02805535998403], [-114.09246104039563, 51.02805514206385], [-114.0924618487373, 51.028054973975046], [-114.09246267956831, 51.028054857382145], [-114.09246352466128, 51.02805479343973], [-114.09246437564762, 51.02805478278098], [-114.09246522410034, 51.02805482551147], [-114.09246606161757, 51.02805492120802], [-114.09246687990573, 51.02805506892301], [-114.09246767086162, 51.02805526719368], [-114.09246842665276, 51.02805551405663], [-114.09246913979484, 51.028055807067275], [-114.09246980322591, 51.02805614332407], [-114.09247041037627, 51.02805651949718], [-114.09247095523358, 51.02805693186152], [-114.09247143240232, 51.02805737633363], [-114.09247183715729, 51.02805784851205], [-114.09247216549036, 51.02805834372102], [-114.09247241415018, 51.028058857056664], [-114.09247339830324, 51.028061321598365], [-114.09247376523037, 51.02806208095841], [-114.09247594037657, 51.02806589944256], [-114.09247642356478, 51.028066632465844], [-114.0924791817473, 51.02807029811453], [-114.09247977654326, 51.02807099774165], [-114.09248155799553, 51.02807286671985], [-114.09248195460586, 51.02807333323161], [-114.09248227679616, 51.028073822011976], [-114.09248252146355, 51.02807432835366], [-114.09248268625174, 51.02807484738039], [-114.09248276957373, 51.0280753740936], [-114.09248277062709, 51.028075903420785], [-114.09248268940165, 51.028076430264214], [-114.09248252667966, 51.02807694955011], [-114.09248228402824, 51.02807745627747], [-114.09248196378421, 51.02807794556621], [-114.09248156903176, 51.02807841270423], [-114.0924811035725, 51.028078853192746], [-114.09248057188911, 51.02807926278957], [-114.09247997910197, 51.02807963755009], [-114.09247933091991, 51.02807997386516], [-114.09247863358534, 51.02808026849588], [-114.09247789381394, 51.02808051860477], [-114.09247711873012, 51.02808072178318], [-114.0924766987626, 51.02808081691888], [-114.09247553637053, 51.02808112162521], [-114.09247161941784, 51.02808229368745], [-114.09247050998339, 51.028082668775426], [-114.09246679406623, 51.028084077305174], [-114.09246574827444, 51.02808451916228], [-114.09246226917863, 51.02808615059485], [-114.09246129710071, 51.02808665496589], [-114.09245808833253, 51.02808849358937], [-114.0924571993299, 51.02808905561713], [-114.09245429179111, 51.02809108372482], [-114.09245349442571, 51.02809169799643], [-114.09245091611747, 51.028093896056646], [-114.09245021806821, 51.028094556656455], [-114.0924479938213, 51.02809690350049], [-114.09244740181079, 51.028097604066566], [-114.09244555304578, 51.028100077093214], [-114.0924450727754, 51.02810081087881], [-114.09244361729706, 51.0281033862714], [-114.0924432533922, 51.028104146209586], [-114.0924422052176, 51.02810679916578], [-114.09244196118281, 51.028107577938094], [-114.09244133040656, 51.02811028290844], [-114.09244120859208, 51.0281110730148], [-114.09244100128896, 51.028113803949], [-114.09244100286796, 51.02811459778027], [-114.09244122103453, 51.02811732837792], [-114.09244134599182, 51.02811811828906], [-114.09244198752711, 51.02812082225299], [-114.09244223465933, 51.028121600636766], [-114.0924432933851, 51.02812425192633], [-114.09244366031223, 51.02812501128643], [-114.09244512603243, 51.02812758436822], [-114.09244560922083, 51.028128317391676], [-114.09244746781992, 51.02813078748556], [-114.09244806261616, 51.02813148711279], [-114.09245029619478, 51.02813383043031], [-114.0924509968707, 51.0281344899236], [-114.0924535839185, 51.02813668389746], [-114.09245438372619, 51.028137296905506], [-114.09245729932826, 51.028139320406275], [-114.09245819056531, 51.028139881025574], [-114.0924614066429, 51.028141714565905], [-114.09246149085945, 51.028141758039325], [-114.09246212060728, 51.028142117492735], [-114.09246269071429, 51.02814251456271], [-114.09246319555815, 51.02814294533338], [-114.09246363016018, 51.028143405556534], [-114.09246399023436, 51.028143890693514], [-114.09246427222969, 51.02814439595996], [-114.09246447336515, 51.02814491637301], [-114.0924645916572, 51.028145446800394], [-114.09246462593923, 51.02814598201112], [-114.09246457587315, 51.028146516727006], [-114.09246444195271, 51.028147045674736], [-114.09246422549863, 51.02814756363792], [-114.09246392864551, 51.02814806550844], [-114.09246355432091, 51.02814854633693], [-114.09246310621637, 51.0281490013815], [-114.09246258875102, 51.02814942615458], [-114.09245586608317, 51.028154411241125], [-114.09245523303744, 51.02815492970885], [-114.09245479304477, 51.02815537324189], [-114.09245442334607, 51.02815584159623], [-114.09245412742762, 51.02815633035529], [-114.09245390807995, 51.02815683490996], [-114.09245376737154, 51.028157350502255], [-114.09245370662933, 51.028157872270086], [-114.09245372642607, 51.028158395293104], [-114.09245382657512, 51.028158914639164], [-114.09245400613206, 51.028159425410735], [-114.09245411438415, 51.0281596346934], [-114.09245284783465, 51.02815959645988], [-114.09243548880087, 51.028157986676554], [-114.09241846356763, 51.02815531166157], [-114.09240193609827, 51.02815159717693], [-114.09238606556235, 51.02814687899543], [-114.09237100480256, 51.02814120255599], [-114.09235689886285, 51.0281346225262], [-114.09235440862251, 51.02813320279375], [-114.09245760404745, 51.02805667989858]]]}}], "crs": {"type": "name", "properties": {"name": "urn:ogc:def:crs:EPSG::4617"}}}