{"type": "FeatureCollection", "features": [{"type": "Feature", "properties": {"bed": "B1", "key": "PO", "botanical": "Physocarpus opulifolius 'Diabolo'"}, "geometry": {"type": "Point", "coordinates": [-114.09162270400016, 51.02802557946866]}}, {"type": "Feature", "properties": {"bed": "B1", "key": "PO", "botanical": "Physocarpus opulifolius 'Diabolo'"}, "geometry": {"type": "Point", "coordinates": [-114.09163236098816, 51.02804308896078]}}, {"type": "Feature", "properties": {"bed": "B1", "key": "PO", "botanical": "Physocarpus opulifolius 'Diabolo'"}, "geometry": {"type": "Point", "coordinates": [-114.0916516335317, 51.028057087498674]}}, {"type": "Feature", "properties": {"bed": "B1", "key": "PO", "botanical": "Physocarpus opulifolius 'Diabolo'"}, "geometry": {"type": "Point", "coordinates": [-114.09159705794313, 51.028032606398064]}}, {"type": "Feature", "properties": {"bed": "B1", "key": "PO", "botanical": "Physocarpus opulifolius 'Diabolo'"}, "geometry": {"type": "Point", "coordinates": [-114.09160671492293, 51.028050115892285]}}, {"type": "Feature", "properties": {"bed": "B1", "key": "RA", "botanical": "Ribes aureum"}, "geometry": {"type": "Point", "coordinates": [-114.09162598746167, 51.028064114434386]}}, {"type": "Feature", "properties": {"bed": "B1", "key": "RA", "botanical": "Ribes aureum"}, "geometry": {"type": "Point", "coordinates": [-114.09164204561674, 51.02807461208125]}}, {"type": "Feature", "properties": {"bed": "B1", "key": "DF", "botanical": "Dasiphora fruticosa 'Goldfinger'"}, "geometry": {"type": "Point", "coordinates": [-114.09158745620421, 51.02804312416161]}}, {"type": "Feature", "properties": {"bed": "B1", "key": "DF", "botanical": "Dasiphora fruticosa 'Goldfinger'"}, "geometry": {"type": "Point", "coordinates": [-114.09160674254558, 51.02806412952153]}}, {"type": "Feature", "properties": {"bed": "B1", "key": "DF", "botanical": "Dasiphora fruticosa 'Goldfinger'"}, "geometry": {"type": "Point", "coordinates": [-114.09158748382103, 51.028057137790874]}}, {"type": "Feature", "properties": {"bed": "B2", "key": "PO", "botanical": "Physocarpus opulifolius 'Diabolo'"}, "geometry": {"type": "Point", "coordinates": [-114.09310323523769, 51.029126984073926]}}, {"type": "Feature", "properties": {"bed": "B2", "key": "PO", "botanical": "Physocarpus opulifolius 'Diabolo'"}, "geometry": {"type": "Point", "coordinates": [-114.09308396181308, 51.02911298577846]}}, {"type": "Feature", "properties": {"bed": "B2", "key": "PO", "botanical": "Physocarpus opulifolius 'Diabolo'"}, "geometry": {"type": "Point", "coordinates": [-114.09308080337414, 51.029137512178906]}}, {"type": "Feature", "properties": {"bed": "B2", "key": "PO", "botanical": "Physocarpus opulifolius 'Diabolo'"}, "geometry": {"type": "Point", "coordinates": [-114.09305508677348, 51.02910950536193]}}, {"type": "Feature", "properties": {"bed": "B2", "key": "PO", "botanical": "Physocarpus opulifolius 'Diabolo'"}, "geometry": {"type": "Point", "coordinates": [-114.09305832940828, 51.029127019840466]}}, {"type": "Feature", "properties": {"bed": "B2", "key": "RA", "botanical": "Ribes aureum"}, "geometry": {"type": "Point", "coordinates": [-114.09302942630917, 51.02910952579148]}}, {"type": "Feature", "properties": {"bed": "B2", "key": "RA", "botanical": "Ribes aureum"}, "geometry": {"type": "Point", "coordinates": [-114.0930551569246, 51.02914453942714]}}, {"type": "Feature", "properties": {"bed": "B2", "key": "DF", "botanical": "Dasiphora fruticosa 'Goldfinger'"}, "geometry": {"type": "Point", "coordinates": [-114.09310326331264, 51.02914099769996]}}, {"type": "Feature", "properties": {"bed": "B2", "key": "DF", "botanical": "Dasiphora fruticosa 'Goldfinger'"}, "geometry": {"type": "Point", "coordinates": [-114.09303907002499, 51.02912002835066]}}, {"type": "Feature", "properties": {"bed": "B2", "key": "DF", "botanical": "Dasiphora fruticosa 'Goldfinger'"}, "geometry": {"type": "Point", "coordinates": [-114.0930390980806, 51.029134041976754]}}, {"type": "Feature", "properties": {"bed": "B2", "key": "DF", "botanical": "Dasiphora fruticosa 'Goldfinger'"}, "geometry": {"type": "Point", "coordinates": [-114.09303266893428, 51.02912704027075]}}, {"type": "Feature", "properties": {"bed": "B3", "key": "PO", "botanical": "Physocarpus opulifolius 'Diabolo'"}, "geometry": {"type": "Point", "coordinates": [-114.09183983661009, 51.02869620540819]}}, {"type": "Feature", "properties": {"bed": "B3", "key": "PO", "botanical": "Physocarpus opulifolius 'Diabolo'"}, "geometry": {"type": "Point", "coordinates": [-114.09183659446475, 51.028678690894296]}}, {"type": "Feature", "properties": {"bed": "B3", "key": "PO", "botanical": "Physocarpus opulifolius 'Diabolo'"}, "geometry": {"type": "Point", "coordinates": [-114.0918622685422, 51.02868567754058]}}, {"type": "Feature", "properties": {"bed": "B3", "key": "PO", "botanical": "Physocarpus opulifolius 'Diabolo'"}, "geometry": {"type": "Point", "coordinates": [-114.09188794262737, 51.028692664181214]}}, {"type": "Feature", "properties": {"bed": "B3", "key": "RA", "botanical": "Ribes aureum"}, "geometry": {"type": "Point", "coordinates": [-114.09188148600946, 51.02867164878361]}}, {"type": "Feature", "properties": {"bed": "B3", "key": "DF", "botanical": "Dasiphora fruticosa 'Goldfinger'"}, "geometry": {"type": "Point", "coordinates": [-114.09186229624252, 51.02869969116819]}}, {"type": "Feature", "properties": {"bed": "B3", "key": "DF", "botanical": "Dasiphora fruticosa 'Goldfinger'"}, "geometry": {"type": "Point", "coordinates": [-114.09190720166053, 51.02869965586143]}}, {"type": "Feature", "properties": {"bed": "B3", "key": "DF", "botanical": "Dasiphora fruticosa 'Goldfinger'"}, "geometry": {"type": "Point", "coordinates": [-114.09189754443226, 51.028682146394125]}}, {"type": "Feature", "properties": {"bed": "B4", "key": "PO", "botanical": "Physocarpus opulifolius 'Diabolo'"}, "geometry": {"type": "Point", "coordinates": [-114.09243479049128, 51.02814239150319]}}, {"type": "Feature", "properties": {"bed": "B4", "key": "PO", "botanical": "Physocarpus opulifolius 'Diabolo'"}, "geometry": {"type": "Point", "coordinates": [-114.09242193265736, 51.028128388021706]}}, {"type": "Feature", "properties": {"bed": "B4", "key": "PO", "botanical": "Physocarpus opulifolius 'Diabolo'"}, "geometry": {"type": "Point", "coordinates": [-114.0923962866647, 51.028135415126336]}}, {"type": "Feature", "properties": {"bed": "B4", "key": "RA", "botanical": "Ribes aureum"}, "geometry": {"type": "Point", "coordinates": [-114.09241869033255, 51.028110873522344]}}, {"type": "Feature", "properties": {"bed": "B4", "key": "RA", "botanical": "Ribes aureum"}, "geometry": {"type": "Point", "coordinates": [-114.09239945932838, 51.02811789555442]}}, {"type": "Feature", "properties": {"bed": "B4", "key": "RA", "botanical": "Ribes aureum"}, "geometry": {"type": "Point", "coordinates": [-114.09246031102155, 51.02807230306057]}}, {"type": "Feature", "properties": {"bed": "B4", "key": "DF", "botanical": "Dasiphora fruticosa 'Goldfinger'"}, "geometry": {"type": "Point", "coordinates": [-114.09242829189725, 51.02810035569071]}}, {"type": "Feature", "properties": {"bed": "B4", "key": "DF", "botanical": "Dasiphora fruticosa 'Goldfinger'"}, "geometry": {"type": "Point", "coordinates": [-114.09243469293797, 51.02809334380252]}}, {"type": "Feature", "properties": {"bed": "B4", "key": "DF", "botanical": "Dasiphora fruticosa 'Goldfinger'"}, "geometry": {"type": "Point", "coordinates": [-114.09244109397676, 51.028086331913954]}}], "crs": {"type": "name", "properties": {"name": "urn:ogc:def:crs:EPSG::4617"}}}