{"type": "FeatureCollection", "features": [{"type": "Feature", "properties": {"label": "spur_E1 tie-in", "z": 1084.52}, "geometry": {"type": "Point", "coordinates": [-114.09254424515106, 51.027968842021366]}}, {"type": "Feature", "properties": {"label": "spur_E1 junction", "z": 1083.64}, "geometry": {"type": "Point", "coordinates": [-114.09226267250634, 51.02817738727345]}}, {"type": "Feature", "properties": {"label": "spur_E2 tie-in", "z": 1080.53}, "geometry": {"type": "Point", "coordinates": [-114.0915020835435, 51.02804498114519]}}, {"type": "Feature", "properties": {"label": "spur_E2 junction", "z": 1083.0}, "geometry": {"type": "Point", "coordinates": [-114.09206859321614, 51.02818712885112]}}, {"type": "Feature", "properties": {"label": "spur_E3 tie-in", "z": 1082.24}, "geometry": {"type": "Point", "coordinates": [-114.09134041761875, 51.028869590149895]}}, {"type": "Feature", "properties": {"label": "spur_E3 junction", "z": 1083.49}, "geometry": {"type": "Point", "coordinates": [-114.09200729308482, 51.02873597174499]}}, {"type": "Feature", "properties": {"label": "spur_E4 tie-in", "z": 1087.36}, "geometry": {"type": "Point", "coordinates": [-114.09304892175003, 51.029203241565476]}}, {"type": "Feature", "properties": {"label": "spur_E4 junction", "z": 1085.79}, "geometry": {"type": "Point", "coordinates": [-114.09273198753372, 51.02885454731783]}}, {"type": "Feature", "properties": {"label": "loop high", "z": 1085.79}, "geometry": {"type": "Point", "coordinates": [-114.09273198753372, 51.02885454731783]}}, {"type": "Feature", "properties": {"label": "loop low", "z": 1082.82}, "geometry": {"type": "Point", "coordinates": [-114.09206605339303, 51.02823202381237]}}, {"type": "Feature", "properties": {"label": "rain garden base", "z": 1081.71}, "geometry": {"type": "Point", "coordinates": [-114.09182374788692, 51.028279361931446]}}, {"type": "Feature", "properties": {"label": "overflow", "z": 1081.91}, "geometry": {"type": "Point", "coordinates": [-114.09175282503433, 51.02825828216843]}}, {"type": "Feature", "properties": {"label": "seating pad", "z": 1083.39}, "geometry": {"type": "Point", "coordinates": [-114.09198725385878, 51.0286382877156]}}], "crs": {"type": "name", "properties": {"name": "urn:ogc:def:crs:EPSG::4617"}}}