{"type": "FeatureCollection", "features": [{"type": "Feature", "properties": {"name": "staging_area"}, "geometry": {"type": "Polygon", "coordinates": [[[-114.09156021783595, 51.02858256585036], [-114.09158898268552, 51.02853861911504], [-114.09165860021197, 51.02852037053631], [-114.09172828950528, 51.02853850985485], [-114.091757227616, 51.02858241133287], [-114.09172846289853, 51.02862635810921], [-114.09165884524084, 51.028644606729294], [-114.09158915581544, 51.02862646736973], [-114.09156021783595, 51.02858256585036]]]}}, {"type": "Feature", "properties": {"name": "access"}, "geometry": {"type": "Polygon", "coordinates": [[[-114.09186827583339, 51.028554516747455], [-114.09187037277951, 51.0285545672604], [-114.09187245177694, 51.028554747143474], [-114.0918744928038, 51.0285550546643], [-114.09187647620391, 51.02855548686131], [-114.09187838287605, 51.028556039572194], [-114.09188019445794, 51.028556707474046], [-114.09188189350306, 51.02855748413464], [-114.09188346364868, 51.02855836207427], [-114.09188488977345, 51.02855933283794], [-114.09188615814301, 51.028560387076666], [-114.09188725654226, 51.028561514637545], [-114.09188817439299, 51.02856270466154], [-114.09188890285581, 51.02856394568812], [-114.0918894349152, 51.028565225765476], [-114.09188976544712, 51.0285665325658], [-114.09188989126835, 51.02856785350387], [-114.09188981116716, 51.02856917585835], [-114.09188952591494, 51.028570486894225], [-114.0918890382588, 51.0285717739855], [-114.09188835289513, 51.028573024736794], [-114.09188747642433, 51.028574227102695], [-114.09188641728728, 51.028575369503734], [-114.09188518568408, 51.02857644093797], [-114.09188379347569, 51.0285774310869], [-114.09188225406986, 51.02857833041484], [-114.0918805822919, 51.02857913026076], [-114.09187879424196, 51.02857982292172], [-114.09187690713995, 51.028580401727005], [-114.09187493915968, 51.02858086110237], [-114.09187290925392, 51.028581196623826], [-114.09187083697176, 51.02858140506008], [-114.091752538813, 51.02858957489897], [-114.091757227616, 51.02858241133287], [-114.09174443509433, 51.0285630040436], [-114.09186618113328, 51.02855459609111], [-114.09186827583339, 51.028554516747455]]]}}], "crs": {"type": "name", "properties": {"name": "urn:ogc:def:crs:EPSG::4617"}}}