{"type": "FeatureCollection", "features": [{"type": "Feature", "properties": {"elev": 1079.75, "kind": "minor"}, "geometry": {"type": "LineString", "coordinates": [[-114.09135504911202, 51.02783605120704], [-114.09135731004106, 51.02783908303332], [-114.09136608865218, 51.02784961578526], [-114.09137339970498, 51.02785577383218], [-114.09139005057575, 51.02786927906602], [-114.09140680071799, 51.0278802049814], [-114.09141665708124, 51.02788925014421], [-114.09141766817201, 51.02789073029152], [-114.09142000902571, 51.02789229026975], [-114.09142136792568, 51.02789615861303], [-114.0914119564127, 51.027897139877844], [-114.09140486954415, 51.027897511145284], [-114.09139664131366, 51.02789442412579], [-114.09137070169174, 51.0278895007085], [-114.09135781159051, 51.027886813310836], [-114.09134919820447, 51.027883603766355], [-114.091322827047, 51.027874546134626], [-114.09123542230142, 51.02789631957234]]}}, {"type": "Feature", "properties": {"elev": 1080.0, "kind": "major"}, "geometry": {"type": "LineString", "coordinates": [[-114.0914267101644, 51.02785458999702], [-114.09142437601537, 51.02785498531587], [-114.0914224092115, 51.027857630733486], [-114.09143820111318, 51.02787526025429], [-114.09144456584416, 51.02788009493074], [-114.09145148144184, 51.02788990225687], [-114.09145880508363, 51.02789612312053], [-114.09146163341345, 51.027898957169064], [-114.09146539848452, 51.02790207297806], [-114.09147311006892, 51.027904758674744], [-114.09149183121636, 51.027909600593496], [-114.09149291531159, 51.02790986830959], [-114.09149373681704, 51.027910079060845], [-114.09149103851455, 51.02791113564465], [-114.09144879073726, 51.02792151593184], [-114.09143652379286, 51.027924639809434], [-114.09142284796472, 51.02792606568168], [-114.0913651405681, 51.027929088852254], [-114.09131739992723, 51.027911177773774], [-114.09129901244636, 51.02791699190737], [-114.09122388511602, 51.02794271828217], [-114.09121976690427, 51.02794324139563], [-114.09121687727823, 51.02794116984344], [-114.09120028507182, 51.027940016294345], [-114.09118836839014, 51.027937372688314], [-114.09117922727125, 51.0279328441676]]}}, {"type": "Feature", "properties": {"elev": 1080.25, "kind": "minor"}, "geometry": {"type": "LineString", "coordinates": [[-114.09148150178709, 51.027861385974376], [-114.09147246031355, 51.027862917270966], [-114.09146578393259, 51.027871897241084], [-114.09146540098972, 51.02787217231735], [-114.0914661449535, 51.027873000058406], [-114.09147204260884, 51.02787680207293], [-114.09147480732611, 51.02787849968292], [-114.09147873691845, 51.027880307580986], [-114.09149392247873, 51.027888008765615], [-114.09149621911283, 51.0278893296878], [-114.09149695184266, 51.02788959832648], [-114.09149879745928, 51.02789018079303], [-114.09151226739428, 51.02790324298868], [-114.09151754259464, 51.027906817059396], [-114.09152693871107, 51.02790791418368], [-114.09153616901628, 51.02790863552362], [-114.09154259805632, 51.027909931377955], [-114.09152825212483, 51.027928132666275], [-114.09152051436382, 51.027935975978146], [-114.09144695858119, 51.02795136845655], [-114.0914427369022, 51.02795302155039], [-114.09143716253732, 51.02795439117017], [-114.091435543981, 51.027954803348386], [-114.09143373953033, 51.02795499148438], [-114.09132541153808, 51.0279606665456], [-114.09132357535825, 51.02795997765771], [-114.09131398188087, 51.02796301111955], [-114.09124029185641, 51.02798738994072], [-114.0912377401751, 51.02798593273741], [-114.09123263450566, 51.02798674307288], [-114.09120875091565, 51.02798054326321], [-114.09120218615679, 51.02798053705833], [-114.09119531029646, 51.02797506735155], [-114.09117955767681, 51.027967484102106], [-114.09117959850215, 51.02797072872558], [-114.0911776298157, 51.027974364501326]]}}, {"type": "Feature", "properties": {"elev": 1080.5, "kind": "minor"}, "geometry": {"type": "LineString", "coordinates": [[-114.09153629342578, 51.02786818192605], [-114.09152054462812, 51.027870849206266], [-114.0915180305828, 51.02787423069233], [-114.09151365865485, 51.02787737114811], [-114.0915139041684, 51.027877644308354], [-114.0915137771028, 51.02787802353268], [-114.09151693813531, 51.027879182452764], [-114.09151953833283, 51.02788000306054], [-114.09153575259707, 51.02788319330384], [-114.09155279775075, 51.027890769851986], [-114.09155288180871, 51.02789084227256], [-114.09155299769179, 51.02789089011767], [-114.09156376460498, 51.027894801749014], [-114.09157355244459, 51.02790309004829], [-114.09157780234035, 51.02790394225183], [-114.09159068342342, 51.02790315020862], [-114.09159794040974, 51.02790267088567], [-114.09159966241921, 51.02790810031252], [-114.09159855473862, 51.02791316089762], [-114.09159119306297, 51.027938612171354], [-114.0915560416819, 51.027949672467734], [-114.09154278072049, 51.02796649720258], [-114.09154071580399, 51.027968590286086], [-114.09151422971264, 51.027974132843575], [-114.09148840344491, 51.02803341995611], [-114.09146241921523, 51.02802972447747], [-114.09138001353357, 51.02802231822207], [-114.09133951343675, 51.02802601537622], [-114.0912859807155, 51.02803589800214], [-114.0912619020751, 51.0280615150387], [-114.09125352540822, 51.02804137915319], [-114.09124670022265, 51.02803482668645], [-114.09123924612564, 51.02803855272166], [-114.09123035049983, 51.028037791899635], [-114.09121769222155, 51.02803390503085], [-114.09121358838556, 51.0280292161483], [-114.09119568385935, 51.0280155397486], [-114.09119572336887, 51.02801867970679], [-114.09119059973357, 51.028028142046786]]}}, {"type": "Feature", "properties": {"elev": 1080.75, "kind": "minor"}, "geometry": {"type": "LineString", "coordinates": [[-114.09159086708793, 51.027866343572484], [-114.09160196684125, 51.027874305856294], [-114.09160478918584, 51.02787767681446], [-114.09161276516512, 51.02788269794222], [-114.0916229181161, 51.02788960313196], [-114.09163163498789, 51.027890828547], [-114.09163392195259, 51.02789143323475], [-114.0916645787201, 51.02788951789571], [-114.09166983239348, 51.02789312313926], [-114.09167234030022, 51.02790866824942], [-114.09166349867692, 51.02791943431455], [-114.09164130217768, 51.02792043454916], [-114.09165138154728, 51.02795221426927], [-114.09164540009404, 51.02797954143101], [-114.09165151657503, 51.02797946809461], [-114.09166020252357, 51.02798063631066], [-114.09166133530937, 51.02798137127217], [-114.09162365558039, 51.02800913707757], [-114.09159971200017, 51.02801817514483], [-114.09157130601288, 51.02803253036486], [-114.09155308263131, 51.02804132519001], [-114.0915276538332, 51.0280694841927], [-114.09151606225498, 51.028073713288116], [-114.09149998827915, 51.028077955871346], [-114.09148586307387, 51.02808713171852], [-114.09146546134752, 51.028096587496236], [-114.09143893383668, 51.02812448185781], [-114.09143716743839, 51.028125964553475], [-114.09143563398803, 51.028126560809454], [-114.09141939156369, 51.02814108933298], [-114.09141657927783, 51.028143384490015], [-114.09141194161394, 51.028130995924684], [-114.09141200890588, 51.02813054696568], [-114.09141175993383, 51.02813008264046], [-114.09139897738085, 51.02812675013633], [-114.0913187504155, 51.028106809259555], [-114.0913054437749, 51.028105806634024], [-114.09127361687484, 51.02811091326962], [-114.0912681818168, 51.02810480637989], [-114.09126234283666, 51.02810676691803], [-114.09124316972223, 51.02810055633636], [-114.09123695768349, 51.028099574863724], [-114.09122495940274, 51.02808623676648], [-114.09121370132883, 51.028080063190316], [-114.09121384549003, 51.028082085214635], [-114.09121042461751, 51.02807204376687], [-114.0912089368105, 51.02807200757138], [-114.0912035696815, 51.028081919590264]]}}, {"type": "Feature", "properties": {"elev": 1081.0, "kind": "major"}, "geometry": {"type": "LineString", "coordinates": [[-114.09164921306741, 51.02784735341065], [-114.09164680457364, 51.02785402217082], [-114.09165279722787, 51.02786117968239], [-114.09166180106318, 51.02786684787209], [-114.09166889053526, 51.02787389898504], [-114.0916721922369, 51.02787485545269], [-114.09167598504348, 51.027875858293186], [-114.09168803939909, 51.027875105171056], [-114.09171956145269, 51.02789673662248], [-114.09172785790163, 51.02794816127687], [-114.09173429694918, 51.027951680346206], [-114.09173675131088, 51.02795241053951], [-114.09173806318138, 51.027954780879], [-114.09172364700477, 51.027970430160885], [-114.09170852119877, 51.027988822191524], [-114.09168624607607, 51.02799942343875], [-114.09166942739525, 51.02801187660808], [-114.09164590573839, 51.02802920947323], [-114.09160670870945, 51.02804400531263], [-114.09157182672689, 51.02807794834336], [-114.09155257258892, 51.0280992697328], [-114.09154921366441, 51.02810049521015], [-114.09154455586308, 51.028101724596596], [-114.09154046276487, 51.02810438350857], [-114.09153455090286, 51.02810712353819], [-114.09152686396726, 51.02811520656857], [-114.09148495219777, 51.02815038691725], [-114.09144856758734, 51.02816453445466], [-114.09144041725125, 51.02817182476533], [-114.0914237066114, 51.0282189744334], [-114.09142309390072, 51.02822114491017], [-114.0914225226334, 51.02822297331506], [-114.0914220702518, 51.028222345549075], [-114.09142050217045, 51.028222361159365], [-114.09141664761329, 51.02822198741805], [-114.09139709781458, 51.02821298336757], [-114.09134837342376, 51.028193059591835], [-114.09134082783231, 51.028186312964685], [-114.09128036162275, 51.02816808644039], [-114.09127624557868, 51.028175427271634], [-114.0912756605606, 51.02817561944201], [-114.09127372290281, 51.028175273662804], [-114.09124491770406, 51.02816115383881], [-114.09123813002317, 51.02815223888539], [-114.09122255872603, 51.02813124706311], [-114.09121899619984, 51.02813116039413], [-114.09121653965956, 51.028135697131816]]}}, {"type": "Feature", "properties": {"elev": 1081.25, "kind": "minor"}, "geometry": {"type": "LineString", "coordinates": [[-114.09171121984976, 51.02782733949118], [-114.09170836951192, 51.027834794302905], [-114.09169973422, 51.02784504707502], [-114.09170366261749, 51.02785081137869], [-114.09171111410569, 51.027858222542214], [-114.09171564394896, 51.027859534787765], [-114.09172032660709, 51.02785983771119], [-114.09174007625501, 51.027880302342155], [-114.09176929051961, 51.027900350084536], [-114.09177217154915, 51.02791820773101], [-114.09179282632927, 51.02792949597534], [-114.09179498213946, 51.02793136233194], [-114.09179510064207, 51.027931448893995], [-114.0917995403958, 51.02793456306495], [-114.09179730826622, 51.02794056704047], [-114.09178494539393, 51.027953997097356], [-114.09176867785324, 51.02797165612728], [-114.09173130823625, 51.0280170952725], [-114.09167627554109, 51.02804328659206], [-114.0916728903084, 51.0280457931404], [-114.09166815591561, 51.028049281864575], [-114.09166026641782, 51.028052259943415], [-114.09164061379136, 51.028071383595694], [-114.0916125150238, 51.02810678165635], [-114.09159124616744, 51.02813131651674], [-114.0915582255021, 51.02815341444701], [-114.09153273700738, 51.028174809261344], [-114.09149362710708, 51.028190016494634], [-114.09148389053912, 51.02820708367891], [-114.09144854566865, 51.028262083688915], [-114.09144838993477, 51.02826226154359], [-114.09146490285227, 51.02828786521196], [-114.09142131971885, 51.028340217972136], [-114.09142027691105, 51.02834112090822], [-114.09141979963987, 51.02834204753021], [-114.09141903238884, 51.028341195036404], [-114.09141571844232, 51.02833611714969], [-114.09141382413634, 51.02833142686596], [-114.09137972428066, 51.02831066660031], [-114.09132321832917, 51.028295420706534], [-114.09130608314103, 51.028283682731725], [-114.09128464668471, 51.02829002374518], [-114.09128099602817, 51.02828835595474], [-114.09127781980277, 51.02828660360799], [-114.09126506075964, 51.02827455841009], [-114.09125143858488, 51.028239744530595], [-114.09124197006628, 51.02822211467943], [-114.09122982484276, 51.028204443675484], [-114.0912286512901, 51.02819624097732], [-114.09122741650953, 51.02820011443026]]}}, {"type": "Feature", "properties": {"elev": 1081.5, "kind": "minor"}, "geometry": {"type": "LineString", "coordinates": [[-114.0917494416778, 51.02781567889822], [-114.09175095686021, 51.02782291892185], [-114.09174560016443, 51.02782927899368], [-114.09175025864475, 51.02783611456918], [-114.09176447209745, 51.02784018130905], [-114.09177329320697, 51.02783997536753], [-114.09177256577472, 51.02784036625404], [-114.0917784240225, 51.02784140991692], [-114.09180096389191, 51.02784005703603], [-114.09180568143775, 51.027849283793635], [-114.0918263538188, 51.02790259792367], [-114.09184192884425, 51.027916081731966], [-114.09184432624453, 51.02791783294782], [-114.09184628845793, 51.027919209299355], [-114.09183490828484, 51.027949819735994], [-114.09181633674936, 51.02796999441487], [-114.09181145657398, 51.02799341912599], [-114.09176986475883, 51.02802619367263], [-114.09175409530144, 51.028045368348884], [-114.09173175850077, 51.028055998950734], [-114.09170507162726, 51.02808881042869], [-114.09169629457847, 51.02810344308802], [-114.09167690400174, 51.02812165799176], [-114.09163939946106, 51.02816492171221], [-114.09161546476538, 51.02818093918608], [-114.09158671175082, 51.0282458744991], [-114.09157999737953, 51.028259018692275], [-114.09157333716891, 51.028269090497766], [-114.09154385628234, 51.02830275901091], [-114.09154754862513, 51.028308484051905], [-114.09153780335323, 51.02832019026745], [-114.0914498599826, 51.0283963379331], [-114.09144906114577, 51.02839788887504], [-114.09144655672924, 51.02840251732814], [-114.09144639049505, 51.028404413821164], [-114.09143160599417, 51.028450814382566], [-114.09142694264054, 51.02845776682604], [-114.09140805724063, 51.02847467671064], [-114.09140496852325, 51.0284722851451], [-114.09140239051004, 51.0284672155705], [-114.09139961323379, 51.028457108592754], [-114.09139247023225, 51.02844999785279], [-114.0913807109041, 51.02843609811484], [-114.09136020337834, 51.0284126288217], [-114.09133896283643, 51.028400412701416], [-114.0912932889992, 51.028367413649676], [-114.09128212817798, 51.02836079119475], [-114.09127808021314, 51.02835816813155], [-114.0912757451866, 51.02835663951922], [-114.09126207282344, 51.028356741486114], [-114.09124953062103, 51.02836440039731], [-114.09123911710688, 51.0283535232496], [-114.09123285783521, 51.02834567216304], [-114.09123291203382, 51.0283034520804], [-114.09122696884866, 51.02832209555012]]}}, {"type": "Feature", "properties": {"elev": 1081.75, "kind": "minor"}, "geometry": {"type": "LineString", "coordinates": [[-114.09177873715893, 51.027805721556824], [-114.09177947710695, 51.02780925725415], [-114.09179921256442, 51.02781202121498], [-114.09180262177121, 51.02781288287106], [-114.09180278547387, 51.02781293145842], [-114.09180301055291, 51.02781298880012], [-114.0918298556469, 51.027820965950035], [-114.09182908228966, 51.0278212042937], [-114.0918298448233, 51.02782152590753], [-114.09183849530628, 51.02782102835732], [-114.09184322085187, 51.02782187022372], [-114.09184873664806, 51.02782153915352], [-114.09187591736334, 51.02787470009228], [-114.09188891249464, 51.027901120256864], [-114.09188986439935, 51.02790174563004], [-114.09189320611534, 51.02790424124117], [-114.0918867512622, 51.027920761603404], [-114.0918725083184, 51.027959072419414], [-114.09186501765839, 51.02796720970314], [-114.09185335951283, 51.02802316873962], [-114.09182191843504, 51.02804794447589], [-114.09179906763792, 51.02807963707949], [-114.09178080957564, 51.02812264928936], [-114.09177828617969, 51.02812685618059], [-114.0917733524898, 51.02813149074564], [-114.09172603829992, 51.02818526061794], [-114.0917129369677, 51.02820687434711], [-114.09168246630688, 51.02824594509839], [-114.09167104394605, 51.02826830584481], [-114.09166269945139, 51.028280924724676], [-114.09161845351879, 51.028322275879226], [-114.09155645084128, 51.02838328804814], [-114.09153053150447, 51.02840561003774], [-114.09152711026036, 51.02841634754642], [-114.09149764192296, 51.028460281093196], [-114.0914737478946, 51.02848167571641], [-114.09144600084416, 51.02850847874538], [-114.09141555880758, 51.02852766397477], [-114.09141210760986, 51.02853447441401], [-114.09137481534766, 51.02859842471878], [-114.09137455430034, 51.02859808892001], [-114.09136939744245, 51.02859022302142], [-114.09135893657411, 51.02855479967801], [-114.09135862264387, 51.02854975640339], [-114.0913453589101, 51.02853505622715], [-114.09129898871127, 51.02850093951327], [-114.09128785833386, 51.02847414668547], [-114.09127032162647, 51.02846637216794], [-114.0912691598857, 51.0284669172223], [-114.0912688436887, 51.028467206366756], [-114.09126808169378, 51.02846729687739], [-114.09126474723324, 51.02846098073358], [-114.09126430143387, 51.02846280450077], [-114.09126684129816, 51.02846744421301], [-114.09126305744516, 51.02846789366332], [-114.09125603954921, 51.028470430729584], [-114.09123742775058, 51.028459324735195], [-114.0912365811165, 51.02846275905825], [-114.09122248901251, 51.02844681023766], [-114.09122184196144, 51.02844591655562], [-114.09122252612993, 51.02843540559757], [-114.0912203513271, 51.028442316344574]]}}, {"type": "Feature", "properties": {"elev": 1082.0, "kind": "major"}, "geometry": {"type": "LineString", "coordinates": [[-114.09183521425878, 51.027791374648395], [-114.09186170555274, 51.027794272558474], [-114.09186166567748, 51.02779483736934], [-114.09186147364159, 51.02779491337792], [-114.09185317965226, 51.02779818752066], [-114.09187579976803, 51.02780378816353], [-114.09189165441958, 51.02780463773549], [-114.09188927921032, 51.02780534402958], [-114.09189008838977, 51.02780568531671], [-114.09189627945742, 51.02780532922152], [-114.09190239018773, 51.02780577179898], [-114.09190963269599, 51.02782267377288], [-114.09192473426214, 51.02785718509385], [-114.09193436948472, 51.027884633351775], [-114.09193694497903, 51.027888917344285], [-114.09193814168353, 51.02788881527359], [-114.09193872520373, 51.027889140646145], [-114.0919423896118, 51.027891317631386], [-114.09193615394244, 51.027897638516684], [-114.09193330522855, 51.02790798709545], [-114.09191155451745, 51.027964002146604], [-114.09191528485765, 51.02797684707174], [-114.09190400250375, 51.02803685123624], [-114.09189945732886, 51.028050880197725], [-114.0918707348307, 51.02810221998324], [-114.09185932988933, 51.02811803792744], [-114.09185655083856, 51.02812458481628], [-114.0918450838712, 51.02815281821226], [-114.09182837949515, 51.02819650052612], [-114.09180327492352, 51.02824445728951], [-114.09180315387586, 51.028249430573226], [-114.09179854996955, 51.02825366858699], [-114.09178602611694, 51.028270670830395], [-114.09175331813968, 51.02830813385325], [-114.09170484709396, 51.02832858272407], [-114.09168299698254, 51.028335624008456], [-114.09167851271263, 51.02834142776423], [-114.09161333189981, 51.02841356851721], [-114.09157450513612, 51.0284536056748], [-114.09156834121296, 51.028462795317594], [-114.09156511676483, 51.02846568248352], [-114.09150215781662, 51.02852649954834], [-114.09146410570024, 51.028550480837964], [-114.09144659061852, 51.02856187303131], [-114.09142985755177, 51.02857730924996], [-114.0914070476735, 51.02861783343635], [-114.09138672243733, 51.02864945895439], [-114.0913788222872, 51.028668155546576], [-114.0913419341703, 51.0287135980199], [-114.09133800940076, 51.028734967723274], [-114.0913370473921, 51.02873668671989], [-114.09133616627497, 51.02873915175399], [-114.09133465525231, 51.02874088971777], [-114.09133403790574, 51.02873974391225], [-114.09133372745558, 51.028734551583085], [-114.09133616232697, 51.02871810128825], [-114.09133375476475, 51.028712423964016], [-114.09132131440306, 51.02869900421515], [-114.09133121981323, 51.028685565397325], [-114.09133076180358, 51.0286788262143], [-114.09133016959778, 51.02867720720434], [-114.09129627692016, 51.02864879587163], [-114.09123504410667, 51.028604277473214], [-114.09123295937403, 51.028600030228795], [-114.09123302911857, 51.02858508089435], [-114.0912184578858, 51.028577622435684], [-114.09120970345268, 51.028565655034754], [-114.09120832141521, 51.02856258161222], [-114.09119831433287, 51.02855850823528], [-114.09119710049944, 51.0285570339155], [-114.09119688172875, 51.02855772908771]]}}, {"type": "Feature", "properties": {"elev": 1082.25, "kind": "minor"}, "geometry": {"type": "LineString", "coordinates": [[-114.09190226195139, 51.02777532065485], [-114.0919109019671, 51.02777626579104], [-114.09191056878376, 51.027780985220474], [-114.09190916328856, 51.027783741954615], [-114.09190803471098, 51.02778418865093], [-114.09190684140411, 51.027784659722656], [-114.09191009590013, 51.02778546552068], [-114.0919153484987, 51.02778574698012], [-114.0919166798021, 51.02778622546676], [-114.0919169577302, 51.027786180626066], [-114.09191955351676, 51.0277869927778], [-114.09193877094643, 51.027793914286775], [-114.09193837416049, 51.027794022679615], [-114.09194294428251, 51.02779491370765], [-114.09194687727944, 51.027797528733934], [-114.09194781869633, 51.027806857190846], [-114.09196140533574, 51.02782171946547], [-114.09197355921174, 51.02785634265534], [-114.09198805830852, 51.02788045994102], [-114.09199479530965, 51.02787988531775], [-114.09199537640433, 51.02788020933737], [-114.09198107408449, 51.02789215003461], [-114.09197262205214, 51.027900717580856], [-114.09196292549012, 51.02793594255352], [-114.09195361799371, 51.02795991238369], [-114.09196886178871, 51.028012402133086], [-114.09196541442441, 51.02803073674053], [-114.09195072382184, 51.02807608035514], [-114.09192795833467, 51.02811677240993], [-114.09190757638065, 51.02819544221959], [-114.09190805527501, 51.02820235399653], [-114.09190882587978, 51.028225386827124], [-114.09190815585693, 51.02825291750548], [-114.09185751294308, 51.02829953569212], [-114.09183856202488, 51.028325263271434], [-114.09177512322742, 51.02835871966437], [-114.0917308310249, 51.0283729930187], [-114.09169602123177, 51.02841804550667], [-114.09167239883826, 51.028439422388246], [-114.09163831258721, 51.028469179499325], [-114.09161808271058, 51.028497814478015], [-114.09157941151979, 51.02852414134865], [-114.09155831483261, 51.02854452032426], [-114.09154791687837, 51.028551073357285], [-114.09149297644338, 51.028586807874625], [-114.09144048894348, 51.02863522747887], [-114.09144039806748, 51.02863538892983], [-114.09144031709054, 51.02863551492795], [-114.091418508276, 51.028687128064355], [-114.0914076711036, 51.028700478400374], [-114.09140651807353, 51.028706756506004], [-114.09138369228695, 51.02874754361853], [-114.09137361002084, 51.0287757500648], [-114.09135533018014, 51.028833719351745], [-114.09135389698031, 51.028840172191465], [-114.09135156000855, 51.02884745807064], [-114.09134994175602, 51.028848917937296], [-114.09134751237644, 51.02885259534956], [-114.09134244974261, 51.02887256893662], [-114.0913364495305, 51.02886925226812], [-114.09133013882457, 51.02886126936338], [-114.09132970918886, 51.02886112076515], [-114.09132926393012, 51.02886086671707], [-114.0912922602772, 51.028824101570294], [-114.09119975294004, 51.02880143060683], [-114.09116440377561, 51.02879927559096], [-114.09118098518253, 51.02876707786969], [-114.09119097632863, 51.02873970832825], [-114.09123118669456, 51.028724996202456], [-114.09119949131102, 51.02869832130346], [-114.09119747739541, 51.02869610061418], [-114.09118815029323, 51.0287154020467], [-114.09118190892255, 51.02868297590938], [-114.0911770059976, 51.028674915953495], [-114.09116697573997, 51.02867126157257], [-114.09116164446199, 51.028666532306445], [-114.09115969752986, 51.02866975709859], [-114.09116218729518, 51.028657002448476], [-114.09115872225209, 51.02866361509042]]}}, {"type": "Feature", "properties": {"elev": 1082.5, "kind": "minor"}, "geometry": {"type": "LineString", "coordinates": [[-114.09195172903874, 51.02776428044036], [-114.0919493312659, 51.027775042814326], [-114.09194921799796, 51.02777562807653], [-114.09194900882935, 51.02777567524167], [-114.09195023307142, 51.02777612742882], [-114.0919704620031, 51.027788261759866], [-114.09197367608228, 51.0277901907449], [-114.0919952198507, 51.02779015889034], [-114.09199825230102, 51.02780584378303], [-114.09200913003194, 51.02781774279494], [-114.09201274889104, 51.02782805194566], [-114.09203917161936, 51.02787200251539], [-114.0920443781041, 51.027871558433056], [-114.0920463442256, 51.02787178513818], [-114.09201397018879, 51.02789962691544], [-114.09201001809491, 51.02790373859965], [-114.09200097250178, 51.02795017828473], [-114.09199887698037, 51.02796011716642], [-114.09201788478163, 51.02801913128613], [-114.09201705638064, 51.02803274294341], [-114.09200710493747, 51.02808549396912], [-114.09200199037039, 51.02810128048996], [-114.09199813310347, 51.02810817515903], [-114.0919946797083, 51.028121504597635], [-114.09199994768808, 51.02819753414035], [-114.09200033334103, 51.02820906035656], [-114.0919717858199, 51.028267530871986], [-114.09193979348468, 51.028306809965294], [-114.09192415143352, 51.02832982759142], [-114.09191168029564, 51.02833937808392], [-114.09190101965639, 51.02835497128362], [-114.09179224096685, 51.02840351810817], [-114.09178020425666, 51.02840986602347], [-114.09177866514419, 51.02841036200909], [-114.09177745553924, 51.02841192754024], [-114.09177392643564, 51.02841512118166], [-114.09172108369287, 51.02847945589669], [-114.09169151460266, 51.028490025932776], [-114.09166496585372, 51.028535563859045], [-114.09166071502743, 51.02853881070181], [-114.09160523584097, 51.02856659703276], [-114.09153988970678, 51.02861132004565], [-114.0915386995564, 51.02861233089775], [-114.09148775710557, 51.02865854876668], [-114.09147090808462, 51.02869218801861], [-114.09145907703001, 51.02871047482722], [-114.09144909308904, 51.028724885787206], [-114.09143033720356, 51.028758400498525], [-114.09142575837112, 51.028771210414895], [-114.0914174566454, 51.0287975370821], [-114.09140446545608, 51.02885602895829], [-114.09138845897904, 51.028905931794974], [-114.09138689529344, 51.028911600358924], [-114.09138864427479, 51.02891653327704], [-114.09139080245241, 51.028919426766834], [-114.09136430916989, 51.02891398282889], [-114.09135494562355, 51.02891068955326], [-114.09134987230493, 51.02890785280516], [-114.0912756337444, 51.02890015255908], [-114.09126612382569, 51.028899516309416], [-114.0912620452277, 51.028898105641524], [-114.09122470306899, 51.02887679955709], [-114.09111573272267, 51.02887275916137], [-114.09111478381205, 51.02887279263261], [-114.09111469054716, 51.02887208141351], [-114.09111225907188, 51.028868511035434], [-114.09110989304628, 51.028863669104], [-114.09109317897142, 51.02885983216779], [-114.09111118180874, 51.02882037712423], [-114.09111172074743, 51.0288179873324], [-114.09111277684875, 51.02881662591245], [-114.09111766733298, 51.02880932157812], [-114.09112228202731, 51.02880256396536], [-114.09112342243603, 51.02880114655476], [-114.09112269595076, 51.02880035361213], [-114.09113460354489, 51.028755372673736], [-114.09113460275468, 51.028740869463235], [-114.09113437798278, 51.028738548686356], [-114.0911330555965, 51.02873846917862], [-114.09111850783124, 51.028765319558865], [-114.09111142028793, 51.028777058930814], [-114.09111204086493, 51.02877387984414], [-114.09109413804985, 51.02880804515139]]}}, {"type": "Feature", "properties": {"elev": 1082.5, "kind": "minor"}, "geometry": {"type": "LineString", "coordinates": [[-114.09107223848197, 51.02902026883595], [-114.09111506413016, 51.02905476382905], [-114.09113776662541, 51.02904423040178], [-114.09117041304728, 51.02902967607206], [-114.09117661091942, 51.029026408668514], [-114.09118123436511, 51.02904381432457], [-114.09117914153866, 51.029048049993236], [-114.09115005291615, 51.02907803176858], [-114.09114951520239, 51.02907963321946]]}}, {"type": "Feature", "properties": {"elev": 1082.5, "kind": "minor"}, "geometry": {"type": "LineString", "coordinates": [[-114.09113502393862, 51.02897443667015], [-114.09115841259478, 51.029003421355796], [-114.09116361543865, 51.02901474577624], [-114.09108875879276, 51.02900244921008], [-114.09105553482773, 51.028985685069784], [-114.09107949535405, 51.02895802982682], [-114.09113502393862, 51.02897443667015]]}}, {"type": "Feature", "properties": {"elev": 1082.75, "kind": "minor"}, "geometry": {"type": "LineString", "coordinates": [[-114.09198836557457, 51.02775754934481], [-114.09198384524578, 51.02776138720883], [-114.09198163028363, 51.0277706467227], [-114.09199009499608, 51.02777609254761], [-114.0920338336556, 51.02777833010104], [-114.09203906727191, 51.02777877118711], [-114.09204076312817, 51.02777935597954], [-114.09204396299977, 51.02778013272101], [-114.09205290994953, 51.027782615243034], [-114.09205346884714, 51.02778944044238], [-114.09205513036584, 51.02781945005541], [-114.09207842940694, 51.02784382511685], [-114.09209028491156, 51.02786354506741], [-114.09209162901855, 51.027863430422435], [-114.09209259976834, 51.02786354235511], [-114.09209942499152, 51.02786497075873], [-114.09210046201984, 51.02786517704551], [-114.0921005943681, 51.02786534596214], [-114.09209879428451, 51.02786787990189], [-114.09208415279285, 51.02788825193094], [-114.09206757549323, 51.02790549867743], [-114.09206403211026, 51.02792369038073], [-114.09205362109185, 51.0279730692744], [-114.0920633296096, 51.02800321151142], [-114.09206102195778, 51.02804112970048], [-114.09205147183934, 51.02809175361789], [-114.09205702162221, 51.028110068754664], [-114.09205482774466, 51.02813066903989], [-114.09206011256417, 51.02818836615426], [-114.09205810645871, 51.02821569463455], [-114.09203502743412, 51.02826449044325], [-114.09202726409832, 51.02828508722883], [-114.09200786070853, 51.02832590305999], [-114.09200710018291, 51.028327022193324], [-114.09195565677962, 51.02836641800272], [-114.09192855681533, 51.02840605684163], [-114.09192196317491, 51.028414190762376], [-114.09190012331516, 51.02842866537057], [-114.09184123513795, 51.0284481980568], [-114.09181535775477, 51.028484510637846], [-114.09178488639083, 51.02850171325408], [-114.09173362677663, 51.028520037002565], [-114.09172237110242, 51.028539343409214], [-114.09166981543554, 51.02857948620755], [-114.09164659158009, 51.02859111769988], [-114.09161923740194, 51.02860983897516], [-114.09154366286229, 51.02867402811162], [-114.09153517245042, 51.0286817310916], [-114.09153236428627, 51.02868733763489], [-114.09150027462388, 51.02873693748595], [-114.09148060592634, 51.028765327576615], [-114.09147577951008, 51.02877847990993], [-114.09145503396634, 51.02887188570316], [-114.09144460081095, 51.02890441290504], [-114.09144180052182, 51.028914564362836], [-114.091444934683, 51.028927141753115], [-114.09145211978934, 51.02893629091705], [-114.0914605691218, 51.02894034242227], [-114.09147159685985, 51.028945700460405], [-114.09143883702757, 51.028960640108835], [-114.09143829244495, 51.02899864046706], [-114.09143932191621, 51.02902660755326], [-114.09143892032155, 51.02902668564654], [-114.09141544997576, 51.02902464648072], [-114.0913863740601, 51.029021898608505], [-114.09136048835967, 51.0290182115229], [-114.0913482823758, 51.02901837852456], [-114.09134462065792, 51.0290177335035], [-114.0913205077309, 51.02901737664311], [-114.09131851713077, 51.02901803446082], [-114.09131433165429, 51.02902030811552], [-114.09130333324237, 51.0290265464955], [-114.09129730555657, 51.029029558065176], [-114.09128269997788, 51.029030082396254], [-114.0912717767455, 51.02903184070488], [-114.09126046268136, 51.02903368702435], [-114.09124715284764, 51.029039218115116], [-114.09124259985008, 51.02904373494441], [-114.09122527726102, 51.029052501318546], [-114.09120525024397, 51.02906867311109], [-114.09119517094801, 51.0290812779729]]}}, {"type": "Feature", "properties": {"elev": 1082.75, "kind": "minor"}, "geometry": {"type": "LineString", "coordinates": [[-114.09101122923934, 51.02895552743988], [-114.09102009724613, 51.028941684068876], [-114.09103638974601, 51.02891024138775], [-114.09102234380958, 51.02893040815303]]}}, {"type": "Feature", "properties": {"elev": 1083.0, "kind": "major"}, "geometry": {"type": "LineString", "coordinates": [[-114.09204693337963, 51.02775076372878], [-114.09204821911709, 51.0277519866422], [-114.0920452099347, 51.0277583299323], [-114.09203713593303, 51.02776379715014], [-114.09205145243953, 51.02776500373618], [-114.09208343144411, 51.02777603124315], [-114.0920871262771, 51.02777692813076], [-114.09210872463606, 51.02777895655702], [-114.09209957030498, 51.027820083951596], [-114.09209986139068, 51.027825341317374], [-114.09210615421678, 51.02783192475836], [-114.09212365938046, 51.02784156095576], [-114.09214665303227, 51.02784808778904], [-114.09215066633622, 51.02785763368419], [-114.09215133527076, 51.027858657947355], [-114.09215271882715, 51.027859671946565], [-114.09215467746368, 51.027862171758194], [-114.09214080683823, 51.02788169717734], [-114.09211910180736, 51.02790560691039], [-114.09211985783995, 51.02791357980518], [-114.09211009950889, 51.02797779574735], [-114.09210836523381, 51.02798602135671], [-114.09210877440641, 51.027987291719015], [-114.09210498755075, 51.028049516440994], [-114.09210049578208, 51.02807332684462], [-114.09211301769878, 51.028114650941596], [-114.09210806774648, 51.02816113098426], [-114.09210958846819, 51.02817773328713], [-114.09210490046897, 51.028241597170684], [-114.09210242772252, 51.02824682529425], [-114.0920809966159, 51.028303684037354], [-114.09207066760388, 51.02832541159861], [-114.09204585290732, 51.0283534087212], [-114.09200315935202, 51.0283907576357], [-114.09199963331476, 51.0283934579048], [-114.0919978131708, 51.02839612021574], [-114.09196832498823, 51.02843249693136], [-114.09191223860357, 51.02846966880774], [-114.09190403622831, 51.02848093202063], [-114.0918839778265, 51.02850149729963], [-114.09178560215682, 51.02855327075774], [-114.09177224657672, 51.02855236244881], [-114.09170021253811, 51.02860755661155], [-114.09167913860081, 51.0286298747334], [-114.09161386347418, 51.02869010512749], [-114.09159517361175, 51.02871201510523], [-114.09155655982302, 51.028754816565595], [-114.09155332884185, 51.028771394115886], [-114.09153488664094, 51.02879076511852], [-114.09151526599989, 51.02884423288653], [-114.09150560251109, 51.028887742426114], [-114.09150074263911, 51.028902893988146], [-114.09149943823685, 51.02890762265929], [-114.09150089817345, 51.02891348135748], [-114.09153578310017, 51.028957902011804], [-114.09153723811822, 51.02895917316034], [-114.09153857279094, 51.028960937850925], [-114.09154176908493, 51.02896232221352], [-114.09156618532819, 51.02897286967006], [-114.09154994589238, 51.028981416323674], [-114.0915226406265, 51.02901760524642], [-114.09151413146098, 51.029035730212016], [-114.09152707432641, 51.02905282597341], [-114.09151855543563, 51.02905336721809], [-114.09151608921597, 51.02905447699799], [-114.09148756276328, 51.02905113581473], [-114.09143347179378, 51.029047432563736], [-114.09143223411031, 51.02904743399878], [-114.09139414003324, 51.029048522047844], [-114.09135225516093, 51.02904151506912], [-114.09132997763187, 51.0290385692136], [-114.09131096856399, 51.02903728878381], [-114.09129712919047, 51.0290377856102], [-114.0912908980676, 51.02903878863251], [-114.09128444399623, 51.029039841860616], [-114.09127685144605, 51.02904299705502], [-114.09127425420499, 51.029045573666224], [-114.09126437259444, 51.029050574418704], [-114.09125294825789, 51.02905979956923], [-114.09124719856557, 51.02906698997396]]}}, {"type": "Feature", "properties": {"elev": 1083.25, "kind": "minor"}, "geometry": {"type": "LineString", "coordinates": [[-114.09210006812714, 51.02774696915266], [-114.09209947587773, 51.02775514432154], [-114.09210413918196, 51.02775796559256], [-114.09212581640207, 51.02776436487265], [-114.09214867979126, 51.02776794805227], [-114.0921579770422, 51.02777212483112], [-114.09216654789255, 51.027775480545806], [-114.09216660405825, 51.027775490491166], [-114.09216670257688, 51.02777578344945], [-114.09219758889157, 51.02784924841587], [-114.09220277766191, 51.02785719337396], [-114.0922040132714, 51.02785809894262], [-114.09220261925805, 51.02785959010828], [-114.09220313745422, 51.02786049366917], [-114.0921995903148, 51.027862202670164], [-114.09218828240797, 51.02787126104613], [-114.09215971794805, 51.02790272700724], [-114.09216259769545, 51.027933095672864], [-114.0921559292135, 51.02797697873763], [-114.09216064624665, 51.028018145930766], [-114.09215098914646, 51.0280562517028], [-114.09215540773532, 51.0280625247558], [-114.09217948908193, 51.02810824291147], [-114.09217491231279, 51.02814145538943], [-114.09217131695705, 51.0281846991702], [-114.09217169216706, 51.028219394222226], [-114.09218028175061, 51.028259339128], [-114.09213656328912, 51.02831741473938], [-114.09213472917646, 51.02832228082109], [-114.09213399961979, 51.028323815481905], [-114.0920840688817, 51.028380149794664], [-114.09206530406571, 51.02839656553381], [-114.09202500587755, 51.028438073474646], [-114.09201468683804, 51.02845080308189], [-114.09199701579976, 51.02846251477886], [-114.09196627948782, 51.028504720903555], [-114.09189111556003, 51.028581784223405], [-114.09186507492008, 51.02859548897183], [-114.09180112996067, 51.02859114012855], [-114.09178537252372, 51.02860321385931], [-114.09172963498325, 51.02866224219504], [-114.09174852819203, 51.02869771506798], [-114.09171554171728, 51.02871181619793], [-114.09167787586044, 51.02872115082314], [-114.0916583212985, 51.02874407451302], [-114.09165322643183, 51.02874972193138], [-114.0916381169867, 51.02882724636907], [-114.0915802504816, 51.02888802721685], [-114.0915632550654, 51.028903359603724], [-114.09159866522765, 51.02893429499863], [-114.09164094988515, 51.02899020317581], [-114.09164216344284, 51.02899035985289], [-114.09164157024468, 51.02899116547333], [-114.09164201253228, 51.02899139385947], [-114.09165533368464, 51.02899844499674], [-114.09164911715692, 51.02900196169313], [-114.09164177877093, 51.029024314203745], [-114.0916169417136, 51.0290561774479], [-114.09161148218688, 51.029078100818694], [-114.09160977059888, 51.02907963237362], [-114.09160723470931, 51.029080613883124], [-114.0915662155874, 51.02907661512125], [-114.09151007062891, 51.02907024684773], [-114.09150726791489, 51.02907067402845], [-114.09147143641229, 51.029071755041755]]}}, {"type": "Feature", "properties": {"elev": 1083.25, "kind": "minor"}, "geometry": {"type": "LineString", "coordinates": [[-114.09140231025057, 51.029059314213356], [-114.0913251738601, 51.0290464099545], [-114.0913196715784, 51.02904568236279], [-114.09131497656692, 51.02904536611195], [-114.09131155840784, 51.02904548882235], [-114.09131001939542, 51.02904573655699], [-114.09130842531745, 51.02904599669194], [-114.09130655004928, 51.02904677598737], [-114.09130590856242, 51.02904741237947], [-114.0913034679246, 51.02904864750583], [-114.09130064625357, 51.02905092600789], [-114.0912992261511, 51.029052701951855]]}}, {"type": "Feature", "properties": {"elev": 1083.5, "kind": "minor"}, "geometry": {"type": "LineString", "coordinates": [[-114.09215694550467, 51.02774427925534], [-114.09215895696086, 51.02774533190921], [-114.09217665798789, 51.02775535739053], [-114.09218639495118, 51.02776209387547], [-114.09220561740794, 51.027770729531234], [-114.09220866580415, 51.027771923057436], [-114.09222011931747, 51.027773951147786], [-114.09222111141221, 51.027774268545215], [-114.09222496032218, 51.02777456946845], [-114.09224575941835, 51.027835503010955], [-114.0922462494876, 51.027843136221335], [-114.09225682220804, 51.02785779806635], [-114.09225991942878, 51.02785954695927], [-114.09226073348039, 51.02786096638965], [-114.09221863048563, 51.02788125150208], [-114.09221344157613, 51.02788540816043], [-114.09220033408369, 51.02789984708999], [-114.09220533758683, 51.02795261152483], [-114.09220316270473, 51.02796692379206], [-114.09221206733444, 51.02804463686289], [-114.09221363871826, 51.02804993483891], [-114.0922143542844, 51.02805155563944], [-114.09224928506642, 51.02810077256301], [-114.09224266032753, 51.028179548476345], [-114.09225315789509, 51.02819316094292], [-114.09225975799454, 51.02821195774844], [-114.09227482740785, 51.02825700974182], [-114.09226398532296, 51.02829386971607], [-114.0922419534722, 51.028304406818066], [-114.09222119758032, 51.02833361915737], [-114.09217710037517, 51.02837051003894], [-114.0921552275654, 51.02840444189776], [-114.09211339425327, 51.028415055582], [-114.09206753706665, 51.02846141104079], [-114.09206204242305, 51.0284879439106], [-114.09203109168041, 51.02852498226081], [-114.09202852281103, 51.02852850975321], [-114.09202346354967, 51.0285336968788], [-114.09202798524923, 51.028543882716036], [-114.09202726507542, 51.028631243118916], [-114.09203484149985, 51.02864790991163], [-114.09202295305742, 51.02870198420705], [-114.09202777511244, 51.02870898927036], [-114.09202838072056, 51.02874424627387], [-114.09203016366878, 51.028772560172676], [-114.09202501429475, 51.028776425592476], [-114.09198899024122, 51.028800895794525], [-114.0919218176583, 51.028842160014506], [-114.0919094355267, 51.02885648214266], [-114.09189652731341, 51.02888090348751], [-114.09185320739562, 51.0289084551123], [-114.09179624090878, 51.02891662912833], [-114.091774542317, 51.02897967658461], [-114.09173305365958, 51.0290086881431], [-114.09172742086805, 51.029016338038836], [-114.09173060534357, 51.02901798241659], [-114.0917448073366, 51.02902466408992], [-114.09173227020801, 51.029032486307415], [-114.0917148578706, 51.02904184211387], [-114.09169626336615, 51.02909344395874], [-114.09169393809927, 51.02910278140169], [-114.09169382303791, 51.029102884360526], [-114.09168775242028, 51.029104722172896], [-114.09164261384174, 51.0291009400886], [-114.09160349467125, 51.02909694334197], [-114.09159378911906, 51.02909763039708], [-114.09157004836969, 51.02910113386727], [-114.09156341243654, 51.029101016740626]]}}, {"type": "Feature", "properties": {"elev": 1083.75, "kind": "minor"}, "geometry": {"type": "LineString", "coordinates": [[-114.09221543979578, 51.02774371022088], [-114.09223709828089, 51.027754527056935], [-114.09223798106478, 51.027754868261965], [-114.09223802362557, 51.02775549097691], [-114.09225145354063, 51.02776990777506], [-114.09225553407816, 51.02777121324589], [-114.09229238570471, 51.027774094437916], [-114.09230392151392, 51.027774792896224], [-114.09230857801039, 51.02777585001013], [-114.09231236782114, 51.02784003600538], [-114.09231291632342, 51.02785642825778], [-114.09231259728399, 51.027859606548425], [-114.09231378584772, 51.02786066281563], [-114.09231907505628, 51.02786437976532], [-114.09226999060657, 51.02788642362288], [-114.0922463537187, 51.027896623079876], [-114.09224812228281, 51.02790462096682], [-114.09226499987994, 51.0279642084864], [-114.09227579888231, 51.027991671100864], [-114.09229157998904, 51.028044877409805], [-114.09231465710693, 51.02809714820931], [-114.09231817532599, 51.02810210530696], [-114.09231750809884, 51.02811003957207], [-114.09236303879656, 51.02816908027384], [-114.09236617154241, 51.02817352069367], [-114.0923662669946, 51.02817382484318], [-114.09236623323763, 51.02817427098208], [-114.09236903955582, 51.02824549175794], [-114.09237584653627, 51.02826439576173], [-114.09235621499089, 51.02833419810779], [-114.09234111028802, 51.02835145065682], [-114.09230484244945, 51.0283646546336], [-114.09228070170491, 51.02841272112826], [-114.0922683085482, 51.02843387402578], [-114.09224654077973, 51.0284317672835], [-114.09213313164555, 51.02846308337712], [-114.09212663657813, 51.02846473126246], [-114.09212591441786, 51.028465461269896], [-114.09212494632024, 51.02847013610938], [-114.0921303152441, 51.028516830742845], [-114.09212238686433, 51.028532200444715], [-114.09211995002528, 51.02854149347293], [-114.09210171231415, 51.02861137540901], [-114.092101477921, 51.02861204528678], [-114.09213560184553, 51.02869167696321], [-114.09214222571585, 51.02870067487055], [-114.0921631357103, 51.02875620853132], [-114.09215403893691, 51.028816293878606], [-114.09215312396344, 51.02883119530092], [-114.09213559620564, 51.02884323342517], [-114.09206448861782, 51.02887584673557], [-114.09206757425801, 51.02891459782623], [-114.09206874185624, 51.02895107203991], [-114.09199847231302, 51.02896110779242], [-114.09198313891801, 51.02896439255457], [-114.0919191642446, 51.02898017765576], [-114.09190035251122, 51.028989802714264], [-114.09185575160828, 51.02901270116459], [-114.09183998912006, 51.02903468381331], [-114.09182522587378, 51.029044994751175], [-114.09183125836256, 51.02904823745346], [-114.09183327866143, 51.029050760089554], [-114.09182538920471, 51.029056117082305], [-114.0917789362419, 51.029104528522915], [-114.09178652058658, 51.02911915807076], [-114.09179577998839, 51.029133249309545], [-114.09177447495144, 51.029130135358585], [-114.0917590611614, 51.02912845356051], [-114.0917572849426, 51.029127900517786], [-114.09169782610672, 51.02912309390605], [-114.0917044792065, 51.02912652799989], [-114.09166350415597, 51.02912674336916], [-114.09165681467486, 51.02912640929771], [-114.09165217060482, 51.02912619111471], [-114.09163103398872, 51.029125818059455]]}}, {"type": "Feature", "properties": {"elev": 1084.0, "kind": "major"}, "geometry": {"type": "LineString", "coordinates": [[-114.09279557052409, 51.02781057134562], [-114.09278221968185, 51.02782859280502], [-114.09276968549081, 51.02782995453249], [-114.0927689508742, 51.02782924440411], [-114.09276349823001, 51.02782778856357], [-114.0927249597745, 51.027809391719984], [-114.0926783785655, 51.027783098069506], [-114.09265356169699, 51.02777599218145], [-114.0926627798583, 51.02776708155154], [-114.09266152351185, 51.02776431726693], [-114.09264879909533, 51.02775630534909], [-114.09264463053933, 51.02775257100803], [-114.09264529060192, 51.02775046635476], [-114.09264711109527, 51.02773906363274], [-114.09264905313701, 51.02772929980048], [-114.09264132840444, 51.02772865874221]]}}, {"type": "Feature", "properties": {"elev": 1084.0, "kind": "major"}, "geometry": {"type": "LineString", "coordinates": [[-114.09230687888608, 51.02774538915033], [-114.09231035630903, 51.02775171546866], [-114.0923098786041, 51.02775713844981], [-114.09231007313934, 51.027759980756514], [-114.09231960487391, 51.02776042172028], [-114.09233821357371, 51.027764881674415], [-114.09236636825402, 51.02777797865723], [-114.0923771603387, 51.0277802651414], [-114.0924154522513, 51.02778686090715], [-114.09239908740004, 51.027805377273914], [-114.09238228724662, 51.02782105956988], [-114.09238414759584, 51.02782273241231], [-114.09238117566122, 51.02783048429932], [-114.09238258553982, 51.02784091025125], [-114.09238736927725, 51.02787284121449], [-114.09238192306762, 51.02787272751836], [-114.09237268055783, 51.027872957603], [-114.09237141364972, 51.027873102767956], [-114.09236097133407, 51.02787566164745], [-114.09235593927782, 51.02787705844409], [-114.09232251920865, 51.02789147943801], [-114.09233592317604, 51.027952094992656], [-114.09234053510875, 51.027968377625506], [-114.09236107880835, 51.02802062142021], [-114.09236932751435, 51.02804089796141], [-114.0923835837801, 51.02806195022026], [-114.0924121093683, 51.02811210190427], [-114.09242608776795, 51.02813191516363], [-114.09243811479088, 51.02817023799355], [-114.09243386149504, 51.02822645149713], [-114.09243496499123, 51.028254455782], [-114.09245378361506, 51.02830671765235], [-114.09245943648749, 51.028315716346796], [-114.0924568765982, 51.02831902646576], [-114.09238916421523, 51.0283982917333], [-114.09238769288488, 51.02841401643456], [-114.09235018166508, 51.02846664771062], [-114.092338544272, 51.02848651069011], [-114.09231357094423, 51.02848409372309], [-114.09225069214486, 51.02850034046028], [-114.09222896543923, 51.02854245937589], [-114.0922148131349, 51.02859643043613], [-114.09221157356701, 51.02860884367756], [-114.09219180652299, 51.02866533671932], [-114.09219901886635, 51.02868216738427], [-114.09224077224883, 51.02873888526239], [-114.092248522877, 51.028747889138636], [-114.09224951620529, 51.028750282955095], [-114.09224459788925, 51.02882809392887], [-114.09223763590235, 51.028849881824605], [-114.09223874179067, 51.02885735136532], [-114.09223994121734, 51.02886137465035], [-114.0922373163365, 51.02887545091162], [-114.09219521984784, 51.028905596397244], [-114.09216655447464, 51.02892799465806], [-114.09217108110192, 51.02896901276213], [-114.09210959792763, 51.02899546455142], [-114.09205267440637, 51.02901072234762], [-114.09199666250831, 51.02901702055935], [-114.09196431238772, 51.02902533037719], [-114.09193166581512, 51.0290443204104], [-114.09192100713835, 51.02905385460611], [-114.09190944320113, 51.02906970492007], [-114.09191727989219, 51.02907488405792], [-114.09191796727953, 51.029075742357755], [-114.09188687354967, 51.02909685523082], [-114.09187519078358, 51.02910903057103], [-114.09188097872985, 51.02912019497139], [-114.091881061324, 51.02915791716665], [-114.09187578375793, 51.02915848532726], [-114.09187146446381, 51.02915920101391], [-114.09184054946607, 51.029155206799544], [-114.09181311820993, 51.02915292356756], [-114.09181162088795, 51.029153092892614], [-114.09181154334205, 51.029152375600674], [-114.09179728343938, 51.0291519220782], [-114.09178963929921, 51.02915193034881], [-114.09176093355657, 51.02915409695878], [-114.09175008323082, 51.02915355510472], [-114.09174202556542, 51.02915317655418], [-114.09170432543587, 51.02915036921498]]}}, {"type": "Feature", "properties": {"elev": 1084.25, "kind": "minor"}, "geometry": {"type": "LineString", "coordinates": [[-114.09280056668135, 51.02781551938657], [-114.09278185200269, 51.02784078114764], [-114.09278050663146, 51.0278454039438], [-114.0927584235063, 51.027868867512986], [-114.09275171690965, 51.02786880663908], [-114.09274974211088, 51.027869410424834], [-114.09274293823813, 51.02787062192136], [-114.09273148519728, 51.02787064810183], [-114.09272305102472, 51.02786634672369], [-114.09267722642458, 51.02784118053974], [-114.09261500539172, 51.02783044675245], [-114.09258467843634, 51.027827152824536], [-114.09258642259604, 51.027821798345535], [-114.09256085869639, 51.027813895712804], [-114.09254242931287, 51.02781058312746], [-114.09253736687437, 51.02783094583081], [-114.09251903585837, 51.027867252053106], [-114.09248334282847, 51.027919506452186], [-114.09248138706259, 51.02791877198349], [-114.09245508735555, 51.027908627743585], [-114.09245009108884, 51.02790757075265], [-114.09243691378298, 51.02792886149769], [-114.092420331001, 51.02796370141663], [-114.09243388253704, 51.02801343688248], [-114.0924459597893, 51.02804312443404], [-114.09246683291902, 51.028073947733084], [-114.09248259891974, 51.02811295442196], [-114.09249832914169, 51.02815563090645], [-114.09251041030996, 51.02816886804208], [-114.09251627512893, 51.02820143748228], [-114.09251065440013, 51.02825819097937], [-114.09253912121487, 51.0283121622519], [-114.09254679299417, 51.02832437476007], [-114.0925213769915, 51.02835723952903], [-114.09248634438704, 51.02839824938263], [-114.09247946389918, 51.02847178549068], [-114.09247923689928, 51.028472103990936], [-114.09243447307315, 51.028549397455166], [-114.09242853744807, 51.02855187360278], [-114.09235191570792, 51.02857256492354], [-114.09230120115129, 51.028616392237765], [-114.09228950205744, 51.02865139369614], [-114.09229084335092, 51.02868322602242], [-114.09231761490715, 51.02871432641099], [-114.09233714889072, 51.02876140105974], [-114.09233760887167, 51.02876588638378], [-114.09233711444111, 51.028770292402136], [-114.09231161898575, 51.028850082254785], [-114.09231605591285, 51.02888005040918], [-114.09231701631005, 51.028883271887906], [-114.09231621136557, 51.02889239356386], [-114.09231441768812, 51.028901305806116], [-114.09231284012165, 51.02890312923315], [-114.09231167535827, 51.028905174443246], [-114.09226751299788, 51.02896690219075], [-114.09225506870845, 51.02898071184273], [-114.0922107227437, 51.02899561055282], [-114.09212139315159, 51.02903404265524], [-114.09204875045351, 51.02905351380964], [-114.09201537532726, 51.02906939897614], [-114.09198876746267, 51.0290929952985], [-114.09199632396624, 51.02909663813833], [-114.09200514550089, 51.029101507190056], [-114.09197834484009, 51.02911843964749], [-114.09196506557187, 51.029127363166424], [-114.09196416734322, 51.029154870764515], [-114.0919630787806, 51.029181259952615], [-114.09195699470956, 51.02918072511593], [-114.09195091130731, 51.0291818264674], [-114.09193725159055, 51.029180935627686], [-114.09190554345771, 51.029176088253365], [-114.09186483549286, 51.029170828801156], [-114.09185307063578, 51.02916984956062], [-114.0918496768413, 51.02916985323423], [-114.09183810395288, 51.029170726722306], [-114.09183006727774, 51.02917686501393], [-114.09181280650583, 51.02917673861392], [-114.09178438096258, 51.02917462192627]]}}, {"type": "Feature", "properties": {"elev": 1084.25, "kind": "minor"}, "geometry": {"type": "LineString", "coordinates": [[-114.09235633093239, 51.027749201280436], [-114.09239733972505, 51.02775966272987], [-114.09239496219996, 51.02776299318964], [-114.09239735559193, 51.02776577703557], [-114.09243660145161, 51.02778081329327], [-114.09244599742526, 51.02778812301236], [-114.09245336305585, 51.02779020801644], [-114.09246354320074, 51.027792411211905], [-114.09247880772368, 51.02779578489695], [-114.09249358468522, 51.02780500276144], [-114.09252402931449, 51.02779989188457], [-114.0925302600175, 51.027799674613085], [-114.09253938624536, 51.027799018805624], [-114.09255464423599, 51.02779825032887], [-114.09256450580483, 51.027797544755714], [-114.09258407780685, 51.027795019034286], [-114.09259093789974, 51.02779291934437], [-114.09259172682583, 51.0277822277678], [-114.09259140438489, 51.02778026635965], [-114.09259522007424, 51.02777447973376], [-114.09260719146582, 51.02776588017874], [-114.09261246022365, 51.027762228921645], [-114.09261739356793, 51.02775777377297], [-114.0926198090585, 51.02775252995081], [-114.0926172861235, 51.02775271268985], [-114.09261464577102, 51.02775284121783], [-114.09261059410272, 51.02775242054302], [-114.09260764643139, 51.02775192148901], [-114.09258814863362, 51.027750303403195]]}}, {"type": "Feature", "properties": {"elev": 1084.5, "kind": "minor"}, "geometry": {"type": "LineString", "coordinates": [[-114.09280556283969, 51.0278204674273], [-114.09279021169272, 51.02784118897339], [-114.09278660898879, 51.02785356813914], [-114.092765641972, 51.02787584583154], [-114.09276012777704, 51.027883790864664], [-114.09274547428402, 51.02791316257606], [-114.09274475618174, 51.027923106746584], [-114.09273231868052, 51.02792850230084], [-114.09272116397973, 51.02793063260114], [-114.09272011737815, 51.027930855407526], [-114.092719520957, 51.02793064370811], [-114.09267608373953, 51.02790082733998], [-114.09264839195816, 51.027895435075735], [-114.09259352071531, 51.02788730723994], [-114.09257801771113, 51.027908410259776], [-114.09257898228917, 51.02792071760666], [-114.09257733379708, 51.0279642887355], [-114.0925749934019, 51.02796620962993], [-114.09256973378892, 51.027979896111106], [-114.09255639301915, 51.027972421404996], [-114.09253879645554, 51.027963844675014], [-114.092536052145, 51.02796259231265], [-114.09253425749836, 51.027961644128574], [-114.0925327232151, 51.027961047814], [-114.09253112253576, 51.02796313263266], [-114.09253237586633, 51.027968690994356], [-114.0925338148013, 51.02800386827994], [-114.09252644106523, 51.0280358310757], [-114.09252060079348, 51.02806692110812], [-114.09253705833068, 51.02810763860908], [-114.09254443919693, 51.02812766302861], [-114.09258324865681, 51.0281701858428], [-114.09258386305802, 51.02817359780484], [-114.09259105277583, 51.02825438119637], [-114.09259516946271, 51.028301849353454], [-114.09261283103115, 51.02835759801918], [-114.09258788436881, 51.02839285751322], [-114.09258587749085, 51.028395452556396], [-114.09258352455855, 51.02839820695116], [-114.09258305925786, 51.028403180031596], [-114.09256678592665, 51.02846619637643], [-114.09253117158048, 51.028513997237525], [-114.09251458641032, 51.02854473357361], [-114.09247318751817, 51.02862032837521], [-114.0924704880906, 51.02862493185395], [-114.09247011802815, 51.028626118812205], [-114.09246813906209, 51.02862848679134], [-114.09239398237237, 51.028689313964435], [-114.09238510182861, 51.02869918890714], [-114.09239210810337, 51.02876750716067], [-114.09238385389028, 51.0288410635788], [-114.09238176933546, 51.028849925795114], [-114.09238022123823, 51.02885544634134], [-114.09237701163937, 51.028866347117486], [-114.09236455714414, 51.028907817002384], [-114.0923621703914, 51.02891057572976], [-114.09234567981265, 51.02893953160476], [-114.09232456672154, 51.02896904237316], [-114.09226274033979, 51.029037652248114], [-114.09224628656314, 51.029043180145536], [-114.09213129204507, 51.029079402899725], [-114.09207174803798, 51.02911483792449], [-114.09206970958795, 51.02911660883908], [-114.09208047401661, 51.02912172631658], [-114.09208835505171, 51.02912545916082], [-114.09206278340677, 51.029174782215826], [-114.09204492956403, 51.029199945626026], [-114.09204727455989, 51.02920479840247], [-114.09203198015605, 51.02920354565613], [-114.09202763239327, 51.02920380336215], [-114.09202673180664, 51.029203809400045], [-114.0919698313676, 51.02920009857758], [-114.09193134494498, 51.029194214986155], [-114.09192353661992, 51.02919890775871], [-114.09191934702591, 51.02920287765161], [-114.09188299574582, 51.02919948618022], [-114.09187152162248, 51.02919940216116], [-114.0918644365728, 51.02919887458256]]}}, {"type": "Feature", "properties": {"elev": 1084.5, "kind": "minor"}, "geometry": {"type": "LineString", "coordinates": [[-114.0925205618238, 51.02776774790906], [-114.09251876069834, 51.027768092143816], [-114.0924859300721, 51.027775856974124], [-114.09250567347317, 51.02778063344269], [-114.0925129027535, 51.027781352596904], [-114.09252443319691, 51.027779521671064], [-114.0925216947931, 51.02776833180967], [-114.092521719891, 51.02776783474587]]}}, {"type": "Feature", "properties": {"elev": 1084.75, "kind": "minor"}, "geometry": {"type": "LineString", "coordinates": [[-114.09281055899906, 51.02782541546783], [-114.09279857138287, 51.02784159679852], [-114.09279271134828, 51.027861732334166], [-114.09277691371561, 51.02787851750002], [-114.09277275903757, 51.02788450369896], [-114.09276171834624, 51.02790663386553], [-114.09276097219129, 51.027916966557164], [-114.09275955608072, 51.027928640815986], [-114.09276328830701, 51.027949036462886], [-114.09275613781928, 51.0279624619205], [-114.09275627278292, 51.02796349154667], [-114.09274963153229, 51.027973552192755], [-114.0927467426708, 51.02797884238516], [-114.09274613188711, 51.02798904637224], [-114.09273610132067, 51.027994905116984], [-114.09265970887488, 51.0280457793124], [-114.092647945968, 51.02804114984369], [-114.09264284898337, 51.02803848293677], [-114.09261056133738, 51.028018642049474], [-114.09260982714453, 51.028049061061964], [-114.09259675079868, 51.02809934842454], [-114.09259523514827, 51.028104839601696], [-114.0926346082582, 51.02814802038089], [-114.09262797066475, 51.02818032658267], [-114.0926347488835, 51.028219210064606], [-114.09263800697094, 51.02825581735622], [-114.09263978465093, 51.028276314968856], [-114.09267681211477, 51.02839319154012], [-114.0926695329208, 51.0284034799405], [-114.09265339690317, 51.02845112643969], [-114.0926480539569, 51.028471930021595], [-114.09262047529032, 51.02850794850049], [-114.09261186623431, 51.0285416523036], [-114.0925751513077, 51.028564168373585], [-114.0925430512156, 51.02861891061986], [-114.09253240168762, 51.02865306864652], [-114.0924977896574, 51.028694484520024], [-114.09248954986957, 51.028709510404], [-114.0924599614669, 51.02874588206098], [-114.09244583439474, 51.02876159102338], [-114.09244660733883, 51.02876912791215], [-114.09244569674246, 51.02877724267763], [-114.09242913620689, 51.02884764807091], [-114.09241683746963, 51.028891505748], [-114.092409213453, 51.0289173992757], [-114.09238314893706, 51.028966780508604], [-114.092381939499, 51.028972023374436], [-114.09237967390708, 51.02897440738954], [-114.0923765807438, 51.02897961392632], [-114.09232272436127, 51.02905261962818], [-114.09226340667698, 51.02908772628012], [-114.09217436183236, 51.02911780487476], [-114.0921527682342, 51.029126227620004], [-114.09214236535446, 51.0291349320765], [-114.09215396103522, 51.029141135395534], [-114.0921539708748, 51.0291411378389], [-114.09215437551377, 51.02914129219431], [-114.09215432040617, 51.02914151489949], [-114.09215228027176, 51.02914335191312], [-114.0921225434138, 51.02917602737832], [-114.09210925567885, 51.02919475530704], [-114.09211089864382, 51.02919815527803], [-114.09212420099293, 51.02922269069935], [-114.09211961392145, 51.02922792197394], [-114.09211925920302, 51.02922792033033], [-114.09211914780406, 51.0292279060462], [-114.09211382115184, 51.02922753980731], [-114.09209728356701, 51.02922793828028], [-114.09207940992181, 51.029227674434956], [-114.09207831940499, 51.029227818205996], [-114.09207548888867, 51.02922666405899], [-114.09205016141595, 51.02922132551049], [-114.09203993060916, 51.029220455485806], [-114.09203203686808, 51.029219630315026], [-114.0920226772248, 51.02921993759593], [-114.0920156863204, 51.029228321386], [-114.09201427610039, 51.02922976534036], [-114.09198775118388, 51.0292262778063], [-114.0919221152838, 51.02921836924527]]}}, {"type": "Feature", "properties": {"elev": 1085.0, "kind": "major"}, "geometry": {"type": "LineString", "coordinates": [[-114.09281555515952, 51.02783036350814], [-114.09280693107317, 51.02784200462306], [-114.0927988137099, 51.02786989652886], [-114.09278818546053, 51.027881189167395], [-114.09278539029849, 51.02788521653188], [-114.09277796240391, 51.02790010515273], [-114.09277746041214, 51.02790705672806], [-114.09277650769161, 51.027914910876156], [-114.0927852563711, 51.027962720025485], [-114.09278087739334, 51.027970941818225], [-114.0927816973312, 51.027977197027376], [-114.09281429603597, 51.02802002845876], [-114.09281375657758, 51.028025555602404], [-114.09281648078557, 51.02802997876128], [-114.0928355276572, 51.028065350769374], [-114.09280093256237, 51.0280633069083], [-114.09273369069908, 51.0280906478184], [-114.09272202466977, 51.02810504350861], [-114.09271460531676, 51.02810085985395], [-114.09269704382473, 51.02809155436444], [-114.09268611241771, 51.02810538390725], [-114.09268174129186, 51.028121220534274], [-114.09268570693501, 51.02812556967519], [-114.09267235119812, 51.028190574467246], [-114.09268169814197, 51.02824419320148], [-114.09269268275419, 51.02825569820607], [-114.09269685153943, 51.02826963239337], [-114.09273693656426, 51.02837438922368], [-114.09277494203472, 51.028405497622096], [-114.09276006398888, 51.028457716957064], [-114.09275061885485, 51.02848281763235], [-114.09274292606189, 51.02851416603558], [-114.09273141711945, 51.0285507482116], [-114.09269363448722, 51.02857416840401], [-114.09263174721096, 51.02861198036319], [-114.09261343548425, 51.028624686764], [-114.0925996812237, 51.02866399450589], [-114.09259468541931, 51.02868001844747], [-114.09259236073504, 51.028682800112165], [-114.09255193438521, 51.028756520882276], [-114.09253835651968, 51.02877321155114], [-114.09248189130018, 51.0288224627644], [-114.09247650307366, 51.02884537032748], [-114.09246046841083, 51.028902550631074], [-114.09245933178538, 51.0289270717822], [-114.09245043837497, 51.028951024237806], [-114.09244279144498, 51.028984173578785], [-114.09241355453528, 51.029014938737795], [-114.09238670302614, 51.02906013625927], [-114.09238424991092, 51.02906957982843], [-114.09237191224, 51.029074607396225], [-114.09228211522966, 51.029127654476284], [-114.09226939994332, 51.02913421890231], [-114.09222047458766, 51.02915111085964], [-114.0922259957444, 51.02915367981174], [-114.0922327657284, 51.029156262313826], [-114.09222811834842, 51.029175043787305], [-114.09221242501383, 51.02918917467014], [-114.09222014560117, 51.02919653150481], [-114.09222071337425, 51.02924113635855], [-114.09222296514179, 51.029243859730535], [-114.09222238681873, 51.02924385291406], [-114.09222251062387, 51.02924437013487], [-114.0922167462941, 51.02924438352001], [-114.09221281037033, 51.02924439289746], [-114.09219252269739, 51.02924557578575], [-114.09216659878689, 51.02924658630249], [-114.09216544395608, 51.02924690191727], [-114.09216017195382, 51.029245970332624], [-114.09215975494752, 51.02924644590317], [-114.09215420345772, 51.02924642018182], [-114.09214894294138, 51.02924607644857], [-114.09213021688821, 51.029244401844544], [-114.09212343883613, 51.029247499722004], [-114.09212297353208, 51.02924884310302], [-114.09210700921577, 51.02925008467081], [-114.09210489171933, 51.029252643102275], [-114.09210481792803, 51.02925259592851], [-114.09205882159306, 51.029263248864375]]}}, {"type": "Feature", "properties": {"elev": 1085.0, "kind": "major"}, "geometry": {"type": "LineString", "coordinates": [[-114.0920545815594, 51.02926222340757], [-114.09205349247327, 51.029247993446646], [-114.09202074226403, 51.029241126568245], [-114.09201822816415, 51.02924165268375], [-114.092001621255, 51.02923946918545], [-114.09196867254283, 51.029235499159356]]}}, {"type": "Feature", "properties": {"elev": 1085.25, "kind": "minor"}, "geometry": {"type": "LineString", "coordinates": [[-114.09282055132104, 51.02783531154821], [-114.09281529076362, 51.027842412447], [-114.09280491607367, 51.027878060723204], [-114.09279945720674, 51.02788386083367], [-114.09279802155979, 51.027885929363435], [-114.09279420645701, 51.02789357643765], [-114.09279394862597, 51.02789714689663], [-114.0927934592925, 51.02790118093386], [-114.09280722444812, 51.02797640358393], [-114.0928056169764, 51.027979421710704], [-114.09280591796751, 51.02798171792665], [-114.09282362449893, 51.02800498252367], [-114.09284084630102, 51.028027433713426], [-114.09284413473311, 51.028028300239214], [-114.09285753056272, 51.02803479368414], [-114.09287285933108, 51.02805419018541], [-114.09286928166537, 51.028057858598366], [-114.0928699939884, 51.028060755650046], [-114.0929125951795, 51.028109045238466], [-114.09291884482455, 51.028123587786354], [-114.09292947506572, 51.02814278146364], [-114.09293067026827, 51.02814409413138], [-114.0929359025795, 51.02815460279287], [-114.09293915955418, 51.02816212084668], [-114.0929314442527, 51.0281573661169], [-114.09290634593872, 51.028165080043046], [-114.09281120080801, 51.028186996801495], [-114.09279813360043, 51.02817776412944], [-114.09279942214827, 51.02817919837188], [-114.09279519248983, 51.028176810574294], [-114.09277806079422, 51.02816770280732], [-114.09274649334047, 51.02819002886174], [-114.09276387229359, 51.02819231432524], [-114.09273276487032, 51.02820975888677], [-114.0927718102144, 51.02825065392685], [-114.09279334908534, 51.02832264721136], [-114.09279503849996, 51.02832706224906], [-114.09279801683873, 51.02832950009199], [-114.09283889450357, 51.028374274582696], [-114.09284668002226, 51.02840188435681], [-114.09285427101756, 51.02843943354426], [-114.09284430195017, 51.02848317735258], [-114.09283743318468, 51.02854076312513], [-114.09283030308814, 51.0285610246837], [-114.09281536831695, 51.02860036297868], [-114.09279823637891, 51.0286138545349], [-114.0927367051008, 51.02864259963612], [-114.09269113047613, 51.02866653221227], [-114.09267510447975, 51.028677652563495], [-114.09267217958343, 51.0286860115351], [-114.09266160460352, 51.02870620889692], [-114.09263342955352, 51.02880125662096], [-114.0925828394249, 51.02883478388785], [-114.09258125227952, 51.02883675650089], [-114.09257860444778, 51.02884258855167], [-114.0925434037692, 51.028926191969596], [-114.09254187025272, 51.02895927675833], [-114.09253605651095, 51.028974934871066], [-114.09247247429789, 51.02903315981804], [-114.09245620710449, 51.02905189219345], [-114.0924520671274, 51.029056053809136], [-114.0924450354052, 51.02907117197011], [-114.09243544977676, 51.02910807317956], [-114.0924039159472, 51.02912092313457], [-114.09235915598205, 51.029138957849426], [-114.09230258811259, 51.029166669332405], [-114.09230254886322, 51.02916666388436], [-114.09230300775518, 51.02916683443317], [-114.09231542305811, 51.029171195095536], [-114.09231412933721, 51.02917788028065], [-114.09231647394972, 51.029220170038634], [-114.09231647868312, 51.0292395394613], [-114.09231806879329, 51.02925750801231], [-114.09231406616418, 51.02925799143791], [-114.092312391826, 51.02925984443009], [-114.09231284248618, 51.029259969012315], [-114.09231461206345, 51.029260253705665], [-114.09231043391111, 51.0292604269666], [-114.09230576440308, 51.02926058733579], [-114.09225457226816, 51.02926070623381], [-114.09221353967877, 51.029260804001645], [-114.09221324070666, 51.02926094145822], [-114.09219548446242, 51.02927012569879], [-114.09217754467059, 51.02928109996513], [-114.09217392634564, 51.02928335446135], [-114.09216244671356, 51.02928503491766]]}}, {"type": "Feature", "properties": {"elev": 1085.25, "kind": "minor"}, "geometry": {"type": "LineString", "coordinates": [[-114.09201591165385, 51.029252841152015], [-114.0920159030104, 51.02925272821581], [-114.09201564308809, 51.029252673716734], [-114.0920156231349, 51.02925267789226], [-114.092015491334, 51.02925266056291], [-114.09201522983619, 51.029252629054845]]}}, {"type": "Feature", "properties": {"elev": 1085.25, "kind": "minor"}, "geometry": {"type": "LineString", "coordinates": [[-114.09213481040707, 51.029280517158135], [-114.09210382576721, 51.02926254408687], [-114.0921019395285, 51.029261338240886], [-114.09207594159736, 51.02926735946707]]}}, {"type": "Feature", "properties": {"elev": 1085.5, "kind": "minor"}, "geometry": {"type": "LineString", "coordinates": [[-114.09283459222146, 51.027991913368076], [-114.09285661766134, 51.02802062680964], [-114.09285838084652, 51.02802109142158], [-114.09289124736519, 51.02803702300643], [-114.0928955004367, 51.02804240469363], [-114.09288288826868, 51.02805533677773], [-114.09288326585384, 51.0280568724329], [-114.09292000630177, 51.0280985187051], [-114.09296553518644, 51.028118802883064], [-114.09296688825472, 51.02811957625839], [-114.09301222012768, 51.02813615328691]]}}, {"type": "Feature", "properties": {"elev": 1085.5, "kind": "minor"}, "geometry": {"type": "LineString", "coordinates": [[-114.09282554748363, 51.027840259588075], [-114.09282365045422, 51.02784282027034], [-114.09281101843958, 51.02788622491723], [-114.09281072895423, 51.02788653249886], [-114.09281065282147, 51.027886642193636], [-114.09281045050555, 51.02788704772033], [-114.09281043683276, 51.02788723706284], [-114.09281041088335, 51.02788745098908], [-114.09281237261337, 51.02789817128089]]}}, {"type": "Feature", "properties": {"elev": 1085.5, "kind": "minor"}, "geometry": {"type": "LineString", "coordinates": [[-114.092106646714, 51.02927450645816], [-114.0920994964138, 51.02927035882532], [-114.09209906112788, 51.02927008055316], [-114.0920930616047, 51.02927147006726]]}}, {"type": "Feature", "properties": {"elev": 1085.5, "kind": "minor"}, "geometry": {"type": "LineString", "coordinates": [[-114.09305833673312, 51.0281823285903], [-114.09302338035862, 51.02818993306941], [-114.09301352355058, 51.02819417989749], [-114.09301898305691, 51.02819704489089], [-114.09302619297502, 51.028203555165234], [-114.0930315305304, 51.02822003444387], [-114.09303702472486, 51.02824469708736], [-114.09303864428547, 51.02825208577529], [-114.09303584755695, 51.028253172859], [-114.09303243653184, 51.02826413776239], [-114.09296115201344, 51.02824609507212], [-114.09294926238809, 51.02824077387843], [-114.092943106781, 51.028237294704496], [-114.09292836605962, 51.028241835155406], [-114.09292375282686, 51.028249303124305], [-114.09290495424688, 51.02828535941466], [-114.0928955136601, 51.028280180650626], [-114.0928904872876, 51.0282764776655], [-114.09288600557153, 51.02828232369411], [-114.09289209524971, 51.02829372239085], [-114.09287420252757, 51.028320717695024], [-114.09288454685887, 51.02833204812543], [-114.09290285341051, 51.02839696839737], [-114.09291538409754, 51.02845895158111], [-114.09292060104093, 51.02847110086679], [-114.0929203343911, 51.028474331481], [-114.09292000915687, 51.02847899869969], [-114.09291713202283, 51.02848333200154], [-114.0929119906274, 51.028497957135734], [-114.09288951750847, 51.028561819184844], [-114.09288166250109, 51.02858250941253], [-114.09289039598879, 51.028615229954745], [-114.09288180516815, 51.02864942551355], [-114.09281035924099, 51.02869917546687], [-114.09279249151861, 51.028713258510315], [-114.09275906835518, 51.028728356211886], [-114.09273832301584, 51.02880071602515], [-114.09271143916983, 51.02882816270827], [-114.09268604726219, 51.02890234648801], [-114.09268482896641, 51.02890772536555], [-114.09268173929581, 51.028918600677414], [-114.09264038878611, 51.02897478292134], [-114.09259897637541, 51.02903226668456], [-114.09257780665068, 51.029056644632774], [-114.0925322669771, 51.029102422444375], [-114.09252570932156, 51.0291165214079], [-114.09246917376387, 51.02914836724951], [-114.09245654121682, 51.02914974523808], [-114.09239038232464, 51.02917860879077], [-114.0923952977511, 51.02918262054972], [-114.09239700864163, 51.02918334290549], [-114.09239830542103, 51.02919912789793], [-114.0924018903115, 51.02924177475258], [-114.09240392476842, 51.02926813435237], [-114.09239508412222, 51.029271003931115], [-114.09239720998158, 51.029272061683535], [-114.0923852654343, 51.02927258520969], [-114.09237108014638, 51.02927349642233], [-114.09233707424548, 51.02927490660142], [-114.09230493053836, 51.02927601054532], [-114.0922949305385, 51.02928176334791], [-114.09228649433055, 51.02928546528281], [-114.09228349483793, 51.029287334204], [-114.09223159397308, 51.02929493179971]]}}, {"type": "Feature", "properties": {"elev": 1085.75, "kind": "minor"}, "geometry": {"type": "LineString", "coordinates": [[-114.09286941672339, 51.028009945080065], [-114.09287238901705, 51.02801381990372], [-114.09287262695551, 51.02801388260219], [-114.09288077921879, 51.02801783429863]]}}, {"type": "Feature", "properties": {"elev": 1085.75, "kind": "minor"}, "geometry": {"type": "LineString", "coordinates": [[-114.09312862367875, 51.028266182819344], [-114.09313140277197, 51.02834027840084], [-114.09313186029104, 51.028340948509566], [-114.09313077190562, 51.028341023976665], [-114.09313130796627, 51.02834336670393], [-114.09312407535535, 51.02834468705006], [-114.09312698605275, 51.028372298182106], [-114.09313939877217, 51.028392846424346], [-114.09313862016481, 51.02840819114043], [-114.093099306636, 51.02841764907279], [-114.09301852003045, 51.0284254165799], [-114.09300745616311, 51.02841186746246], [-114.09299116546458, 51.028396663173304], [-114.09298338032275, 51.02838970445568], [-114.09298086137309, 51.028388918202744], [-114.09297434543983, 51.02841171642581], [-114.09298648053148, 51.02843997671444], [-114.09298476472775, 51.02846076501563], [-114.09298267195737, 51.02849079755437], [-114.09296415824882, 51.02851868141833], [-114.09294979275523, 51.02855954534849], [-114.09296423727099, 51.02860266270563], [-114.09296448093282, 51.02861329299532], [-114.0929660165683, 51.0286254586395], [-114.0929528435319, 51.02867970938614], [-114.0929490528228, 51.02869024424239], [-114.09294071497584, 51.0287003771276], [-114.0928563968657, 51.02876678415916], [-114.09283950263092, 51.02877374861244], [-114.09280820346291, 51.02879776818075], [-114.09277089283043, 51.02883586001715], [-114.09276428195098, 51.028855174141256], [-114.0927521861041, 51.02890857871892], [-114.09273700904495, 51.02896200058301], [-114.09273558946197, 51.028979140307726], [-114.09271205076963, 51.02903331983269], [-114.09269966059102, 51.02905087259838], [-114.09265045771458, 51.029082895136284], [-114.09261599637456, 51.02911819161988], [-114.0925785875248, 51.02914068852816], [-114.09255269409498, 51.02915541932184], [-114.09250231372853, 51.02918569557491], [-114.09247779301374, 51.029188844958774], [-114.09247938210702, 51.02918956624367], [-114.09247995008802, 51.02919235373882], [-114.09248481421322, 51.02925155797501], [-114.09248066145807, 51.02927268238171], [-114.09248133834508, 51.02927620000328], [-114.09249037374563, 51.02928065336454], [-114.09249134997097, 51.02928141529609], [-114.09248179403664, 51.02928265937177], [-114.09247191781316, 51.02928281107378], [-114.09242222515726, 51.02928498911225], [-114.09238788094122, 51.02928719527034], [-114.09238302361493, 51.02929677059716], [-114.09238269860676, 51.02929787121757], [-114.09238172757568, 51.029298126236654], [-114.09237962155214, 51.029298016590516], [-114.0923492425457, 51.029297728670585], [-114.09230074126201, 51.02930482864082]]}}, {"type": "Feature", "properties": {"elev": 1085.75, "kind": "minor"}, "geometry": {"type": "LineString", "coordinates": [[-114.09291742125409, 51.02806516170632], [-114.0928992615656, 51.0280499780807], [-114.09289649487047, 51.02805281495551], [-114.09289653771705, 51.02805298921424], [-114.0929007068436, 51.028057715032496], [-114.09291742125409, 51.02806516170632]]}}, {"type": "Feature", "properties": {"elev": 1086.0, "kind": "major"}, "geometry": {"type": "LineString", "coordinates": [[-114.09321298355526, 51.02837965931665], [-114.09321335025933, 51.02838943581657], [-114.09321629388499, 51.0283937472017], [-114.09321295366716, 51.02839663602628], [-114.09321240191322, 51.02843465738931], [-114.09321250737548, 51.02843582402889], [-114.09321302661058, 51.02843658293909], [-114.09321318827482, 51.02843667366172], [-114.09320614891882, 51.028464993886466], [-114.09320632168087, 51.02847068508443], [-114.0932094883931, 51.028468339266716], [-114.0932039006001, 51.028475643039755], [-114.09319575904256, 51.02851109389877], [-114.09319663250733, 51.02851690856791], [-114.0931911005802, 51.02850964534651], [-114.09317252916196, 51.02848736890905], [-114.09311975921078, 51.0284978917746], [-114.09305502350404, 51.02850345693306], [-114.09304768837237, 51.02849633759138], [-114.09304583365159, 51.02849543726729], [-114.09304533478966, 51.028502596375404], [-114.09301708474642, 51.028545144402365], [-114.09301259723368, 51.02855373841523], [-114.09301132131128, 51.028558687799425], [-114.09301239388708, 51.02860547924525], [-114.09302002338309, 51.028665921251644], [-114.09301570321405, 51.02868371316527], [-114.09299498975167, 51.0287412786392], [-114.0929726339443, 51.02876844738326], [-114.09296486984063, 51.028782466193086], [-114.09294445827587, 51.02878913662325], [-114.09290014925277, 51.028807402535776], [-114.09286684740646, 51.028832959020086], [-114.0928415577305, 51.02886942900649], [-114.09282312438766, 51.02889362077645], [-114.09281954324419, 51.028909432033444], [-114.09281714150188, 51.028917885999995], [-114.09281202519463, 51.028979660428064], [-114.09281069838988, 51.02898271437957], [-114.09277889015584, 51.02904930239303], [-114.09275636810304, 51.0290710311841], [-114.09271143737762, 51.02911287138623], [-114.09270482039798, 51.02911717789158], [-114.09270123839899, 51.02912084670383], [-114.09261038836755, 51.029175482097806], [-114.0925717072334, 51.029197487824], [-114.09257396766183, 51.029199407032806], [-114.0925763930955, 51.02920095894591], [-114.09256273505062, 51.02925044671944], [-114.09256017706672, 51.02926345889303], [-114.09256203506891, 51.029273114404056], [-114.09256541452343, 51.02928445882084], [-114.09256702599745, 51.02928739967347], [-114.09256924431693, 51.029289131039874], [-114.09250885893938, 51.029296992566536], [-114.09247808954069, 51.029297465198695], [-114.0924718247901, 51.0293032591777], [-114.09247061828496, 51.029307753661335], [-114.09246035558864, 51.029309257056774], [-114.09245320779232, 51.02931113426675], [-114.09242716967435, 51.02930977865516], [-114.09240510911948, 51.02930956958395], [-114.09236988858034, 51.02931472544096]]}}, {"type": "Feature", "properties": {"elev": 1086.25, "kind": "minor"}, "geometry": {"type": "LineString", "coordinates": [[-114.0932867393616, 51.02852831541057], [-114.09326474127056, 51.028583584656516], [-114.09325631744333, 51.02859227418662], [-114.09325202364448, 51.02860371946113], [-114.0932523622033, 51.028620399287746], [-114.0932483059637, 51.02864543013413], [-114.09322543983828, 51.02864055401646], [-114.09317406388551, 51.028641769588376], [-114.09313221794203, 51.02862244700913], [-114.09310827724353, 51.02862456638807], [-114.09310649465536, 51.02862904326415], [-114.09310348499125, 51.028626532792885], [-114.09309575371631, 51.02864167690883], [-114.09309476492717, 51.02865917583455], [-114.09308183294996, 51.0287007755916], [-114.09306784975675, 51.0287427201349], [-114.09305856426913, 51.02875801397609], [-114.09304428599297, 51.028810120524426], [-114.09304013819042, 51.02881760978466], [-114.09301786539098, 51.02882488847241], [-114.09297507208919, 51.02884871906056], [-114.09293520870615, 51.028901826803754], [-114.09291613719525, 51.02891231107299], [-114.09290023018448, 51.028946790389526], [-114.09288362796941, 51.0289722232322], [-114.09288201632006, 51.02898916966002], [-114.09287105151137, 51.02901174144742], [-114.09285339187758, 51.02904500084543], [-114.09282292994826, 51.02907734163023], [-114.09280451456685, 51.02909510840747], [-114.09278643631434, 51.029111943188205], [-114.09274248614817, 51.02914679887036], [-114.09271511034376, 51.02916353227925], [-114.09265289790714, 51.02920254407049], [-114.09265406174598, 51.02920346802573], [-114.09265507844445, 51.02920604755657], [-114.0926541501205, 51.02924384349065], [-114.09264864732235, 51.0292648242953], [-114.09265751799666, 51.029289004249165], [-114.09265760892431, 51.029289309480035], [-114.09265764350543, 51.02928937258842], [-114.092657269208, 51.02928943376005], [-114.09258320300644, 51.029300780349146], [-114.092582674289, 51.02930082204904], [-114.09257263781994, 51.029302304744235], [-114.0925683164455, 51.02930430975078], [-114.09256994940777, 51.02931081296316], [-114.09256464191773, 51.02931625719108], [-114.09256143044517, 51.029315621032254], [-114.09250809323632, 51.02932327829547], [-114.09247471782061, 51.0293215407004], [-114.09246097572172, 51.02932141047058], [-114.09243903592805, 51.02932462220018]]}}, {"type": "Feature", "properties": {"elev": 1086.5, "kind": "minor"}, "geometry": {"type": "LineString", "coordinates": [[-114.0933294845831, 51.028630699314704], [-114.0933216240896, 51.02865044848277], [-114.09331574399701, 51.028656514046354], [-114.09330547502326, 51.028685408521184], [-114.09330702146758, 51.02868729018166], [-114.09330484980288, 51.028726845343186], [-114.093306202692, 51.02872887369952], [-114.09332191364537, 51.02873080439514], [-114.09330162823859, 51.02874617449264], [-114.09328737284514, 51.028757080841366], [-114.09327746740516, 51.028758103935346], [-114.09326387514034, 51.02874156007952], [-114.09319729450034, 51.02874850985104], [-114.09314234353128, 51.02873786990619], [-114.09314161862892, 51.02874488580603], [-114.09313911310254, 51.0287438898294], [-114.0931318887143, 51.02875578893227], [-114.09312933637138, 51.02876510341094], [-114.09311410882496, 51.02880504287403], [-114.09310280924588, 51.02883276566511], [-114.09307159090778, 51.0288771389461], [-114.09306544327856, 51.02888868929403], [-114.09306368350086, 51.02889106149299], [-114.09304531233067, 51.02890507865138], [-114.0929833502166, 51.02893914144039], [-114.09296528629757, 51.02897829608], [-114.09293644415848, 51.02902215671024], [-114.09292889150016, 51.02903638110835], [-114.09290649031293, 51.02906016403921], [-114.09286502413437, 51.02911016929931], [-114.09284455320099, 51.0291228414845], [-114.09282482558262, 51.02913864101953], [-114.09277796093392, 51.02917580811437], [-114.09272722746373, 51.029206818848245], [-114.09272781744045, 51.029207184700596], [-114.09273313356572, 51.029209755432454], [-114.09273938263865, 51.02922921517734], [-114.09274220544427, 51.029269156197934], [-114.0927751109503, 51.02928914775642], [-114.09278421279137, 51.02929480882581], [-114.0927853010348, 51.029296593378426], [-114.0927868764303, 51.02929922600917], [-114.09277497208973, 51.029301604934496], [-114.09276894536299, 51.02930212646973], [-114.09274995001951, 51.02930311896253], [-114.09272557237303, 51.029304295090995], [-114.09269541577815, 51.029310390336825], [-114.09269288536004, 51.029312280957775], [-114.09267553211383, 51.02932153459394], [-114.09267551282016, 51.029322345392096], [-114.09266888849402, 51.029324258884536], [-114.0926631813744, 51.02932509055083], [-114.09266118857074, 51.029327505319884], [-114.0926497890435, 51.02933451167081], [-114.09264958568211, 51.02933588520598], [-114.09255803254322, 51.02933127211755], [-114.0925564891422, 51.029330966386105], [-114.09253543837421, 51.02933398850412], [-114.09252226599091, 51.02933330272627], [-114.0925168423524, 51.029333251330456], [-114.09250818330518, 51.02933451891843]]}}, {"type": "Feature", "properties": {"elev": 1086.75, "kind": "minor"}, "geometry": {"type": "LineString", "coordinates": [[-114.09336300697046, 51.02876128010092], [-114.09336229810035, 51.02876620265414], [-114.09331742491145, 51.02882381625742], [-114.09331561619307, 51.0288460049463], [-114.09330518120625, 51.028854462113195], [-114.09329737892708, 51.02887205160487], [-114.09329286053664, 51.0288762993676], [-114.09329059856542, 51.02887485754951], [-114.09321396908955, 51.02886632651109], [-114.09316257535167, 51.02886054230958], [-114.09316099994501, 51.02885776309622], [-114.09316026943104, 51.028858688479694], [-114.09316004416671, 51.02885801530532], [-114.09315633069212, 51.02885821528088], [-114.09313817696902, 51.028892323160164], [-114.0931297513822, 51.028903680966216], [-114.09307384259394, 51.028946339267215], [-114.09305440644934, 51.028962619162996], [-114.09305117248974, 51.02896665530516], [-114.09304453509576, 51.02897596788902], [-114.09300353785977, 51.02904429746171], [-114.09297837753857, 51.029069934128856], [-114.09294796364762, 51.02910379768352], [-114.09293731726493, 51.029116636480474], [-114.0928768640574, 51.02915405905431], [-114.09281860588912, 51.02920071706235], [-114.09281343576397, 51.02920481734744], [-114.09280783883554, 51.0292082384632], [-114.0928121950142, 51.02921093978089], [-114.0928122905859, 51.029211693142194], [-114.09281421072038, 51.02921202540384], [-114.0928295623415, 51.02925763151297], [-114.09283305793177, 51.029268769968255], [-114.09286827752895, 51.02929274277938], [-114.0928706787137, 51.029294769987494], [-114.0928976196112, 51.02929856333288], [-114.0928701730571, 51.02930099776603], [-114.09283437912369, 51.02930716210602], [-114.09280721701968, 51.029312232236066], [-114.09279922328234, 51.029313829680184], [-114.09277851606234, 51.02931562162476], [-114.09277434700113, 51.02932276397596], [-114.09277425827685, 51.02932649286422], [-114.09276676837597, 51.02932865639263], [-114.09276821527303, 51.029329125042715], [-114.09273425833618, 51.02934270651494]]}}, {"type": "Feature", "properties": {"elev": 1087.0, "kind": "major"}, "geometry": {"type": "LineString", "coordinates": [[-114.09336197809114, 51.02881614211729], [-114.09336003854081, 51.028829610769705], [-114.09333346597549, 51.02886372779869], [-114.09333132959202, 51.02888993624837], [-114.09332632425078, 51.02892834649442], [-114.09332455690252, 51.028931832473084], [-114.0933211921655, 51.02895931246457], [-114.09329934929828, 51.02896097285568], [-114.09329465965176, 51.02897089879859], [-114.09329185615377, 51.028959709320056], [-114.0932709136932, 51.028948703691604], [-114.09320965828887, 51.028954888075056], [-114.09316331411392, 51.028965193156466], [-114.0931593007525, 51.0289588854901], [-114.09315893373473, 51.0289593802016], [-114.09315894068439, 51.02895667760608], [-114.0931580985963, 51.02895781714719], [-114.0931526125961, 51.028962412283335], [-114.09312329837418, 51.02899899798019], [-114.09309359934021, 51.029040667205024], [-114.09308090679075, 51.02905590900118], [-114.09307675376185, 51.02906077121276], [-114.09302078520878, 51.02911717668452], [-114.09301907414252, 51.029119160238785], [-114.09301869161443, 51.0291194740882], [-114.09301837472347, 51.02911965679817], [-114.0930160717708, 51.02912107251335], [-114.0929840834514, 51.02914737249308], [-114.09293465168413, 51.02916950567003], [-114.09290917495724, 51.029185276614974], [-114.09288513583346, 51.02920452917279], [-114.09288717435949, 51.02920963181173], [-114.09288268457996, 51.029209628427765], [-114.09289490576738, 51.02921184056731], [-114.09289807664196, 51.02921253385452], [-114.09290394039702, 51.029230536754156], [-114.09291150559291, 51.02925464260441], [-114.09291646780618, 51.0292580202143], [-114.09292078376858, 51.02926166397732], [-114.09292391853185, 51.02926134891324], [-114.09293127775246, 51.02926822354624], [-114.09294274128519, 51.029279174372505], [-114.09296617491484, 51.02929857211269], [-114.09297654146587, 51.02930361470802], [-114.0929782747525, 51.02930966170001], [-114.09297230999171, 51.02930911302547], [-114.09296765201101, 51.02930788524568], [-114.09296734199783, 51.02930923141757], [-114.09295197927543, 51.02930999855255], [-114.09294206601783, 51.029308567968286], [-114.09292648242749, 51.02930932483402], [-114.09291862931772, 51.02931098336154], [-114.0929100878328, 51.02931222534678], [-114.09289585565143, 51.02931577888425], [-114.09290347576189, 51.0293255761151], [-114.09290376759121, 51.02932632980999], [-114.09288171712647, 51.02933342782762]]}}, {"type": "Feature", "properties": {"elev": 1087.25, "kind": "minor"}, "geometry": {"type": "LineString", "coordinates": [[-114.09336094920947, 51.02887100413312], [-114.09335777897523, 51.028893018884524], [-114.09334950706712, 51.028903639337464], [-114.09334884202464, 51.02891179789072], [-114.09334728389278, 51.02892375479952], [-114.09333789867033, 51.02894226654975], [-114.09333252716644, 51.02898613599416], [-114.09333442070671, 51.029022484658576], [-114.09333012283166, 51.02905644412079], [-114.09331713829212, 51.029090151810465], [-114.09331789464099, 51.0290925645186], [-114.09331786785836, 51.02909732937998], [-114.09331156013141, 51.02910625412256], [-114.09329081721295, 51.02910384814147], [-114.09328717444312, 51.029104782080445], [-114.09328284722265, 51.02910206928925], [-114.09320293180522, 51.029090928559896], [-114.09316864567643, 51.029085812966024], [-114.09315235379457, 51.02908705556103], [-114.09315069416706, 51.0290816227798], [-114.09315006599839, 51.02908195789932], [-114.09314874573813, 51.029080934934285], [-114.0931487021483, 51.02908035614553], [-114.0931479408445, 51.02908128730706], [-114.09314694385728, 51.029082454544586], [-114.09314584643714, 51.029083560535135], [-114.09310135883791, 51.02913513298534], [-114.09309141311685, 51.02914329307664], [-114.09308317395416, 51.029148043540786], [-114.09303632076346, 51.029176846039206], [-114.09303371408879, 51.02917826184534], [-114.09303292317666, 51.02917919172262], [-114.09303058699295, 51.029180826241934], [-114.09302918957978, 51.029181406484106], [-114.09302794098646, 51.02918236591257], [-114.0930239060433, 51.02918544934294], [-114.09301563935496, 51.029188918451354], [-114.0929806717938, 51.029206643775005], [-114.09298290192, 51.02920882997466], [-114.09298346181114, 51.02921066366472], [-114.09298631870095, 51.0292119658279], [-114.09298700914799, 51.029226549077464], [-114.09300002795749, 51.02925560572444], [-114.09301689439143, 51.029269567300084], [-114.09301998106059, 51.02927106874576], [-114.09302273056949, 51.02928066105011], [-114.09302601548723, 51.029287544156176], [-114.09302990501668, 51.0292964570702], [-114.09304627548686, 51.029331871934446], [-114.0930337208482, 51.02934443424709], [-114.09302573804314, 51.02934138870198], [-114.09301911576337, 51.02933788229101], [-114.09300148599564, 51.029339627395586], [-114.09298806740134, 51.029340541952784], [-114.09298665943105, 51.02934012863117], [-114.09296798545631, 51.02934254764187], [-114.09295805515204, 51.029343967930124], [-114.09295013393385, 51.029345910403855], [-114.09294379586757, 51.02935394778516], [-114.09294119863866, 51.02935909951627], [-114.09292693722112, 51.02936369025235]]}}, {"type": "Feature", "properties": {"elev": 1087.5, "kind": "minor"}, "geometry": {"type": "LineString", "coordinates": [[-114.09330335446819, 51.02922760157246], [-114.0932938222061, 51.02922982440903], [-114.09328189871984, 51.029247891207355], [-114.09327409205358, 51.029247308186065], [-114.0932593141595, 51.02923852032735], [-114.09324568946424, 51.02923371253567], [-114.09316960264927, 51.029216827378306], [-114.09313055419516, 51.02923160130038], [-114.0931230923453, 51.029258387993686], [-114.0930923109549, 51.02929569784222], [-114.09310764907964, 51.029328879291754], [-114.09310146726261, 51.02933506490026], [-114.09309900129855, 51.02934034832841], [-114.0930977917491, 51.02934620098641], [-114.09309855423312, 51.02938310392671], [-114.09310408767652, 51.02938985644538], [-114.09308889130848, 51.02940006963575], [-114.09309375829265, 51.029405575476616], [-114.09305873613519, 51.029424763198996], [-114.09305508874942, 51.029419479559415], [-114.09305350656263, 51.02941887426175], [-114.09305107438028, 51.02941722809377], [-114.09303662255542, 51.02941832550405], [-114.09302337463527, 51.02941015561709], [-114.09302202562402, 51.02940146609423], [-114.09302202865734, 51.0293985958798], [-114.09302139509798, 51.02939618646739], [-114.093014107411, 51.02937991305081], [-114.0930108027597, 51.02937692771887], [-114.09299545739513, 51.02936646331358], [-114.09299514796598, 51.02936683097636], [-114.09298344625965, 51.029381670070414], [-114.0929782413763, 51.02939199422399], [-114.09297215737469, 51.029393952659404]]}}, {"type": "Feature", "properties": {"elev": 1087.5, "kind": "minor"}, "geometry": {"type": "LineString", "coordinates": [[-114.09335992032545, 51.02892586614843], [-114.09335796649749, 51.028939433911574], [-114.09335124044412, 51.02895270062483], [-114.09334921776359, 51.02896922004182], [-114.09335381639661, 51.02905749536882], [-114.09335165890387, 51.02907454274855], [-114.09334514077614, 51.02909146374155], [-114.09334552045797, 51.02909267490171], [-114.093345406624, 51.02911292909252], [-114.09334587823517, 51.029118459480806], [-114.09334534760386, 51.029118519257885], [-114.09332688385952, 51.0291474507895], [-114.09330233855844, 51.02919978687678]]}}, {"type": "Feature", "properties": {"elev": 1087.5, "kind": "minor"}, "geometry": {"type": "LineString", "coordinates": [[-114.09324179024324, 51.029184798347025], [-114.09323882362081, 51.029185030672394], [-114.0932382535482, 51.029185185190144], [-114.09323150035469, 51.02918870569008], [-114.09324444342695, 51.02919229353171], [-114.0932423873719, 51.029185580440135], [-114.09324179024324, 51.029184798347025]]}}, {"type": "Feature", "properties": {"elev": 1087.75, "kind": "minor"}, "geometry": {"type": "LineString", "coordinates": [[-114.09339660360578, 51.029298945731306], [-114.09338778463284, 51.0293010022402], [-114.09339464645684, 51.02930409675486], [-114.09340061405713, 51.0293056455446]]}}, {"type": "Feature", "properties": {"elev": 1087.75, "kind": "minor"}, "geometry": {"type": "LineString", "coordinates": [[-114.09337308869858, 51.02909013698595], [-114.09337321211575, 51.029092506075635], [-114.09337319499284, 51.0290926413723], [-114.09337314326173, 51.02909277566591], [-114.09337314627508, 51.02909278527829], [-114.09337314537174, 51.029092946025834], [-114.09337320247697, 51.02909361567078]]}}], "crs": {"type": "name", "properties": {"name": "urn:ogc:def:crs:EPSG::4617"}}}