{"type": "FeatureCollection", "features": [{"type": "Feature", "properties": {"name": "survey_extent"}, "geometry": {"type": "Polygon", "coordinates": [[[-114.09119433841485, 51.02910194582668], [-114.09118048353368, 51.02909559188754], [-114.09115443075838, 51.02908242446575], [-114.09114165644066, 51.02907532352909], [-114.09111666829303, 51.02906000047064], [-114.09110486450547, 51.029052017776806], [-114.0910743439863, 51.02902833993466], [-114.09106381902608, 51.029018935858005], [-114.0910379621711, 51.02899200953762], [-114.09102964386125, 51.02898179466045], [-114.09101738184224, 51.028965086058285], [-114.09100959061695, 51.02895321665332], [-114.0910056205915, 51.02894591743787], [-114.091013531033, 51.02893456879354], [-114.0910421310425, 51.02889006879697], [-114.09106883105245, 51.02884516880016], [-114.09109343106283, 51.02879976880312], [-114.09111593107365, 51.02875396880581], [-114.0911364310849, 51.02870766880825], [-114.09115493109651, 51.028661168810444], [-114.09117093110834, 51.028615168812344], [-114.09118503112049, 51.028568968814], [-114.091197031133, 51.02852256881542], [-114.09120703114587, 51.02847596881656], [-114.09120773114694, 51.02847216881666], [-114.09121543116048, 51.02842446881754], [-114.09122083117438, 51.02837666881814], [-114.09122373118869, 51.02832876881842], [-114.09122413120336, 51.02828076881841], [-114.0912221312184, 51.028232768818086], [-114.09121763123376, 51.0281848688175], [-114.09121073124945, 51.02813706881658], [-114.09120143126542, 51.02808946881537], [-114.09118963128168, 51.028042068813875], [-114.09117543129824, 51.02799486881208], [-114.09115944122415, 51.02794951510072], [-114.09116159656458, 51.02794755219286], [-114.09117402515787, 51.02793691545854], [-114.09118552541524, 51.02792765602133], [-114.09120575592355, 51.02791275570328], [-114.09121849769802, 51.02790416053621], [-114.09123985673025, 51.027890915039315], [-114.09125346971572, 51.027883155236], [-114.09126869586183, 51.02787495407653], [-114.09128290860777, 51.027867724197314], [-114.09129952863204, 51.027859764823205], [-114.09131438392261, 51.027853073823835], [-114.09132466607822, 51.02784861198965], [-114.09133932289875, 51.027842487497175], [-114.09134313375431, 51.02784091708956], [-114.0913578735165, 51.02783492737633], [-114.0913642242525, 51.027832405939535], [-114.09137918248841, 51.027826604837806], [-114.09138494533303, 51.02782441688831], [-114.09139803651709, 51.02781955217935], [-114.09140037852924, 51.02781868943767], [-114.09140334024471, 51.02781760792327], [-114.09140673131797, 51.02782166884012], [-114.09141643131379, 51.02783076884131], [-114.09142773130958, 51.027839168842696], [-114.09144053130541, 51.027846668844255], [-114.09145443130137, 51.02785326884598], [-114.09146953129748, 51.02785886884783], [-114.09148543129379, 51.02786336884977], [-114.09150213129037, 51.027866668851814], [-114.09151923128724, 51.027868768853914], [-114.09153663128443, 51.02786976885604], [-114.09155413128198, 51.02786946885818], [-114.09157143127993, 51.02786796886029], [-114.09158833127832, 51.027865268862335], [-114.09160473127713, 51.02786136886436], [-114.09162023127644, 51.02785636886624], [-114.09168233127505, 51.02783166887379], [-114.09174783127281, 51.027808068881775], [-114.0917966312704, 51.02779296888772], [-114.09184673126725, 51.02777956889381], [-114.0918978312635, 51.02776776890003], [-114.09194983125904, 51.02775776890636], [-114.09200263125393, 51.02774956891282], [-114.0920560312482, 51.02774306891933], [-114.09210983124187, 51.027738368925895], [-114.09216403123492, 51.02773546893252], [-114.09221843122737, 51.02773436893917], [-114.09227273121927, 51.0277351689458], [-114.09232693121064, 51.02773776895242], [-114.09238093120148, 51.027742168959016], [-114.09244493118987, 51.02774976896686], [-114.09250803117762, 51.02775996897458], [-114.09252623117428, 51.02776226897681], [-114.09254493117142, 51.02776276897908], [-114.09256333116919, 51.02776136898133], [-114.0925812311676, 51.027758068983516], [-114.09259813116668, 51.02775306898558], [-114.09261343116653, 51.02774636898743], [-114.09262683116708, 51.027738268989054], [-114.09263803116835, 51.02772886899041], [-114.09264837638005, 51.02771856428946], [-114.09265352843593, 51.02772114878026], [-114.09266457375692, 51.02772698336783], [-114.09266941579976, 51.027729587876536], [-114.09268023321772, 51.02773551254097], [-114.09268791640744, 51.02773984508508], [-114.09269844767326, 51.027745958759766], [-114.09270767390689, 51.02775151039052], [-114.09271785211034, 51.02775785807732], [-114.09272373493228, 51.02776161413334], [-114.09273471024188, 51.02776878824431], [-114.09273548512098, 51.02776929634331], [-114.09274641912944, 51.02777648846542], [-114.09274720834388, 51.02777700925938], [-114.09275809962561, 51.02778421939385], [-114.09275871012045, 51.027784624554855], [-114.09276957435637, 51.02779185268926], [-114.09277070382127, 51.02779260762232], [-114.09278150824204, 51.02779986277231], [-114.09278208725642, 51.027800252506324], [-114.09279240086803, 51.02780721113871], [-114.09280188305247, 51.027813558478606], [-114.09281191351626, 51.02782019474231], [-114.09281445491071, 51.02782189374612], [-114.09282507528859, 51.027829068130394], [-114.09283084574355, 51.02783306140543], [-114.09284118132328, 51.02784038884041], [-114.09285004652419, 51.02784692130897], [-114.09285475567293, 51.027850528785144], [-114.09283323109617, 51.027871969014456], [-114.0928221310937, 51.02788516901312], [-114.09281423109053, 51.02789926901218], [-114.09280983108665, 51.027913969011635], [-114.09280903108217, 51.02792896901158], [-114.09281173107718, 51.02794386901191], [-114.09281793107186, 51.02795826901269], [-114.09282753106628, 51.02797196901389], [-114.09284033106054, 51.02798456901546], [-114.09288013104481, 51.02801706902038], [-114.09291853102904, 51.02805026902511], [-114.09295693101323, 51.02808356902984], [-114.09299383099754, 51.028117369034405], [-114.09302913098183, 51.02815186903875], [-114.09306303096612, 51.02818706904295], [-114.09312503093541, 51.02825776905062], [-114.09318073090499, 51.02833056905751], [-114.09318253090399, 51.02833296905772], [-114.0932245308789, 51.02839486906296], [-114.0932621308541, 51.02845786906763], [-114.09329473082893, 51.02852446907169], [-114.0933223308042, 51.02859196907517], [-114.09333663078982, 51.02863206907697], [-114.09334913077564, 51.02867236907855], [-114.09335993076158, 51.0287129690799], [-114.09336893074777, 51.02875366908108], [-114.09337603073422, 51.028794469081994], [-114.09338143072084, 51.02883546908271], [-114.09338493070773, 51.02887646908318], [-114.09338663069487, 51.02891756908343], [-114.09338663068223, 51.02895866908349], [-114.09338473066992, 51.02899966908332], [-114.09338103065781, 51.029040769082926], [-114.09337553064604, 51.029081669082295], [-114.09336183062656, 51.029151569080724], [-114.09334293060793, 51.02922106907851], [-114.09334273060445, 51.029232469078494], [-114.09334913060027, 51.0292430690793], [-114.09336123059592, 51.02925156908079], [-114.093377430592, 51.029256669082756], [-114.09343693058008, 51.02926746909006], [-114.09343887698238, 51.02926779899021], [-114.09342540124199, 51.02928303507816], [-114.09340989445798, 51.029297725030474], [-114.09339825351722, 51.02930786579327], [-114.09337152436942, 51.02932846281598], [-114.09335962277936, 51.02933659906681], [-114.09332848489377, 51.0293554541391], [-114.09331509874507, 51.02936262966663], [-114.09328590453366, 51.02937671039989], [-114.09327079212763, 51.029383249027354], [-114.09324377037596, 51.02939385359651], [-114.09321535608466, 51.02940289568482], [-114.09319882861162, 51.02940758354123], [-114.09317194918202, 51.02941439361866], [-114.09314428149098, 51.02941980464074], [-114.09312689510121, 51.029422722188954], [-114.09309775049033, 51.0294267970028], [-114.09308026096942, 51.02942876171179], [-114.09304969601337, 51.029431340734305], [-114.09303202066181, 51.02943234367979], [-114.09301536779617, 51.02943304118825], [-114.09299415753888, 51.02943361543298], [-114.09299103378818, 51.02943369135148], [-114.0929872258213, 51.02943377335362], [-114.0929869305978, 51.029421669035266], [-114.09298113060358, 51.029405669034546], [-114.09297033060969, 51.02939076903321], [-114.09295483061601, 51.02937756903129], [-114.09293543062216, 51.0293666690289], [-114.09291283062791, 51.029358569026144], [-114.09288803063308, 51.0293534690231], [-114.09286203063739, 51.029351669019924], [-114.09277543064994, 51.029351569009336], [-114.09268893066317, 51.02934926899876], [-114.0926133306753, 51.02934536898952], [-114.09253803068789, 51.029339868980315], [-114.09246303070096, 51.029332668971136], [-114.09238853071443, 51.02932386896203], [-114.09231453072834, 51.029313468952985], [-114.09224113074268, 51.02930136894401], [-114.0921684307574, 51.0292876689351], [-114.09209653077251, 51.0292723689263], [-114.09200353079287, 51.029249868914896], [-114.09191213081384, 51.02922466890371], [-114.09181763083596, 51.02919716889212], [-114.09135453094434, 51.02906246883536], [-114.09133493094856, 51.02905796883297], [-114.09131423095215, 51.02905606883044], [-114.09129343095493, 51.02905676882789], [-114.09127313095689, 51.0290599688254], [-114.09125433095785, 51.02906566882314], [-114.09123763095789, 51.02907346882109], [-114.09122373095688, 51.02908326881939], [-114.0912131309549, 51.029094668818125], [-114.0912039008023, 51.029106027824014], [-114.09119433841485, 51.02910194582668]]]}}], "crs": {"type": "name", "properties": {"name": "urn:ogc:def:crs:EPSG::4617"}}}