{"type": "FeatureCollection", "features": [{"type": "Feature", "properties": {"P": 1083, "D": "SW1", "checks": "string_logic | wrong_code_geometry", "findings": "SW1 continues a string that was never begun | SW1 point is the only point of its string but 0.06 m from LIP1", "action": "recode SW1 -> LIP1", "rule": "point lies on another figure, far from its own string", "seeded": "wrong valid code: LIP1 -> SW1 (feature is lip of gutter)", "verdict": "seeded error caught"}, "geometry": {"type": "Point", "coordinates": [-114.0928655788713, 51.02929468724244]}}, {"type": "Feature", "properties": {"P": 1252, "D": "LPI2", "checks": "unknown_code", "findings": "unknown code 'LPI2'", "action": "recode LPI2 -> LIP2", "rule": "accept closest valid code", "seeded": "code typo: LIP2 -> LPI2", "verdict": "seeded error caught"}, "geometry": {"type": "Point", "coordinates": [-114.09150126109658, 51.02895423345955]}}, {"type": "Feature", "properties": {"P": 1259, "D": "LIP2", "checks": "horizontal_offline", "findings": "LIP2 point 1.01 m off the line between its neighbours (spike, turn +132 deg)", "action": "keep (review note)", "rule": "spike < 2 m may be a real curb return / driveway corner", "seeded": "", "verdict": "no seeded error (false positive or consequence)"}, "geometry": {"type": "Point", "coordinates": [-114.09132997984447, 51.02886097282557]}}, {"type": "Feature", "properties": {"P": 1260, "D": "LIP2", "checks": "line_reversal", "findings": "LIP2 doubles back (132 deg turn); removing this point smooths the string", "action": "drop point (flag for re-shot)", "rule": "string doubles back at this point", "seeded": "horizontal blunder: offset 2.3 m", "verdict": "seeded error caught"}, "geometry": {"type": "Point", "coordinates": [-114.09132269671726, 51.028869024352254]}}, {"type": "Feature", "properties": {"P": 1269, "D": "SW2", "checks": "string_logic | wrong_code_geometry", "findings": "SW2 continues a string that was never begun | SW2 point is the only point of its string but 0.00 m from LIP2", "action": "recode SW2 -> LIP2", "rule": "point lies on another figure, far from its own string", "seeded": "wrong valid code: LIP2 -> SW2 (feature is lip of gutter)", "verdict": "seeded error caught"}, "geometry": {"type": "Point", "coordinates": [-114.09140142596947, 51.028445913674474]}}, {"type": "Feature", "properties": {"P": 1288, "D": "LIP2", "checks": "horizontal_offline", "findings": "LIP2 point 1.32 m off the line between its neighbours (spike, turn +37 deg)", "action": "keep (review note)", "rule": "spike < 2 m may be a real curb return / driveway corner", "seeded": "", "verdict": "no seeded error (false positive or consequence)"}, "geometry": {"type": "Point", "coordinates": [-114.09192590449742, 51.02789074414045]}}, {"type": "Feature", "properties": {"P": 1289, "D": "LIP2", "checks": "horizontal_offline", "findings": "LIP2 point 3.64 m off the line between its neighbours (spike, turn -99 deg)", "action": "drop point (flag for re-shot)", "rule": "spike >= 2 m off its neighbours", "seeded": "horizontal blunder: offset 3.5 m", "verdict": "seeded error caught"}, "geometry": {"type": "Point", "coordinates": [-114.09196185997808, 51.027849138205106]}}, {"type": "Feature", "properties": {"P": 1290, "D": "LIP2", "checks": "horizontal_offline", "findings": "LIP2 point 2.23 m off the line between its neighbours (spike, turn +49 deg)", "action": "drop point (flag for re-shot)", "rule": "spike >= 2 m off its neighbours", "seeded": "", "verdict": "no seeded error (false positive or consequence)"}, "geometry": {"type": "Point", "coordinates": [-114.09201251465807, 51.02787329877144]}}, {"type": "Feature", "properties": {"P": 1332, "D": "LPI2", "checks": "unknown_code", "findings": "unknown code 'LPI2'", "action": "recode LPI2 -> LIP2", "rule": "accept closest valid code", "seeded": "code typo: LIP2 -> LPI2", "verdict": "seeded error caught"}, "geometry": {"type": "Point", "coordinates": [-114.09121208740414, 51.02855728292235]}}, {"type": "Feature", "properties": {"P": 1362, "D": "SW1 B", "checks": "string_logic", "findings": "SW1 begins while previous string (from P1083) was never ended", "action": "reviewed - no change", "rule": "", "seeded": "", "verdict": "no seeded error (false positive or consequence)"}, "geometry": {"type": "Point", "coordinates": [-114.09306009993283, 51.02826211248813]}}, {"type": "Feature", "properties": {"P": 1365, "D": "SW2 B", "checks": "string_logic", "findings": "SW2 begins while previous string (from P1269) was never ended", "action": "reviewed - no change", "rule": "", "seeded": "", "verdict": "no seeded error (false positive or consequence)"}, "geometry": {"type": "Point", "coordinates": [-114.09318815617009, 51.02844615670711]}}, {"type": "Feature", "properties": {"P": 1426, "D": "SW1 B", "checks": "string_logic", "findings": "SW1 begins while previous string (from P1393) was never ended", "action": "add E to P1405", "rule": "previous string never ended", "seeded": "", "verdict": "no seeded error (false positive or consequence)"}, "geometry": {"type": "Point", "coordinates": [-114.09277686962751, 51.02784053808322]}}, {"type": "Feature", "properties": {"P": 1479, "D": "SW1 B", "checks": "string_logic", "findings": "SW1 begins while previous string (from P1452) was never ended", "action": "add E to P1458", "rule": "previous string never ended", "seeded": "", "verdict": "no seeded error (false positive or consequence)"}, "geometry": {"type": "Point", "coordinates": [-114.09302018188211, 51.029371957125036]}}, {"type": "Feature", "properties": {"P": 1562, "D": "SW1", "checks": "line_reversal", "findings": "SW1 doubles back (130 deg turn); removing this point smooths the string", "action": "drop point (flag for re-shot)", "rule": "string doubles back at this point", "seeded": "", "verdict": "no seeded error (false positive or consequence)"}, "geometry": {"type": "Point", "coordinates": [-114.09259468263778, 51.027774949439646]}}, {"type": "Feature", "properties": {"P": 1564, "D": "SW2", "checks": "string_logic", "findings": "SW2 continues a string that was never begun", "action": "add B", "rule": "string continued without begin", "seeded": "missing begin: SW2 first point lost 'B'", "verdict": "seeded error caught"}, "geometry": {"type": "Point", "coordinates": [-114.09253613999363, 51.02796330434544]}}, {"type": "Feature", "properties": {"P": 1630, "D": "SW3", "checks": "string_logic", "findings": "SW3 continues a string that was never begun", "action": "add B", "rule": "string continued without begin", "seeded": "missing begin: SW3 first point lost 'B'", "verdict": "seeded error caught"}, "geometry": {"type": "Point", "coordinates": [-114.0917583620411, 51.02912640152865]}}, {"type": "Feature", "properties": {"P": 1638, "D": "SWW3", "checks": "unknown_code", "findings": "unknown code 'SWW3'", "action": "recode SWW3 -> SW3", "rule": "accept closest valid code", "seeded": "code typo: SW3 -> SWW3", "verdict": "seeded error caught"}, "geometry": {"type": "Point", "coordinates": [-114.09126584768951, 51.029001191262864]}}, {"type": "Feature", "properties": {"P": 1719, "D": "DW2", "checks": "horizontal_offline", "findings": "DW2 point 1.17 m off the line between its neighbours (spike, turn -55 deg)", "action": "keep (review note)", "rule": "spike < 2 m may be a real curb return / driveway corner", "seeded": "", "verdict": "no seeded error (false positive or consequence)"}, "geometry": {"type": "Point", "coordinates": [-114.09319201221884, 51.02838567951164]}}, {"type": "Feature", "properties": {"P": 1784, "D": "TREE 4 13 MALADS F", "checks": "vertical_internal | vertical_lidar", "findings": "Z 1088.859 is +1.86 m off the local plane of 9 neighbours within 8 m (plane RMSE 0.02) | Z 1088.859 vs LiDAR ground 1087.057 (dZ +1.80 m)", "action": "exclude from surface (flag for re-shot)", "rule": "blunder confirmed by LiDAR or |dZ| >= 1 m", "seeded": "elevation blunder: dZ +1.80 m (rod height)", "verdict": "seeded error caught"}, "geometry": {"type": "Point", "coordinates": [-114.09311559705712, 51.029009261208465]}}, {"type": "Feature", "properties": {"P": 1795, "D": "TREE 17 5 PRUVIR X", "checks": "attribute", "findings": "TREE.condition='X': not one of ['G', 'F', 'P', 'D']", "action": "condition -> F", "rule": "conservative attribute fix (field note would be checked)", "seeded": "attribute error: condition X", "verdict": "seeded error caught"}, "geometry": {"type": "Point", "coordinates": [-114.09222005496929, 51.028431192581735]}}, {"type": "Feature", "properties": {"P": 1813, "D": "CON 49 6 PICGLA F NW", "checks": "attribute", "findings": "CON: 5 attribute values but only 4 defined", "action": "drop extra token", "rule": "conservative attribute fix (field note would be checked)", "seeded": "attribute error: extra token", "verdict": "seeded error caught"}, "geometry": {"type": "Point", "coordinates": [-114.09153212085029, 51.02836591039029]}}, {"type": "Feature", "properties": {"P": 1826, "D": "TRE 31 8 FRAPEN F", "checks": "unknown_code", "findings": "unknown code 'TRE'", "action": "recode TRE -> TREE", "rule": "accept closest valid code", "seeded": "code typo: TREE -> TRE", "verdict": "seeded error caught"}, "geometry": {"type": "Point", "coordinates": [-114.09195935952467, 51.02851624337095]}}, {"type": "Feature", "properties": {"P": 1898, "D": "TREE 9.5 2 COTSPP F", "checks": "attribute", "findings": "TREE.dbh_cm='9.5': invalid literal for int() with base 10: '9.5'", "action": "dbh -> 10", "rule": "conservative attribute fix (field note would be checked)", "seeded": "attribute error: dbh 35.5", "verdict": "seeded error caught"}, "geometry": {"type": "Point", "coordinates": [-114.0924332571414, 51.02842867781805]}}, {"type": "Feature", "properties": {"P": 1962, "D": "TREE 11 16 SYRSPP F", "checks": "vertical_internal", "findings": "Z 1085.311 is +0.51 m off the local plane of 17 neighbours within 8 m (plane RMSE 0.10)", "action": "keep", "rule": "internal-only flag < 1 m and LiDAR agrees -> real terrain feature", "seeded": "", "verdict": "no seeded error (false positive or consequence)"}, "geometry": {"type": "Point", "coordinates": [-114.09279837172717, 51.02792865663331]}}, {"type": "Feature", "properties": {"P": 1848, "D": "BENCH", "checks": "duplicate_point_number", "findings": "point number 1848 also used on row 849", "action": "renumber 1848 -> 2341", "rule": "later duplicate gets next free number", "seeded": "duplicate point number: P2003 recorded as P1848", "verdict": "seeded error caught"}, "geometry": {"type": "Point", "coordinates": [-114.09179548934519, 51.02855160307472]}}, {"type": "Feature", "properties": {"P": 2029, "D": "GS", "checks": "vertical_internal", "findings": "Z 1085.641 is +0.77 m off the local plane of 10 neighbours within 8 m (plane RMSE 0.16)", "action": "keep", "rule": "internal-only flag < 1 m and LiDAR agrees -> real terrain feature", "seeded": "", "verdict": "no seeded error (false positive or consequence)"}, "geometry": {"type": "Point", "coordinates": [-114.09282836531979, 51.02784305028246]}}, {"type": "Feature", "properties": {"P": 2060, "D": "G", "checks": "unknown_code", "findings": "unknown code 'G'", "action": "recode G -> GS", "rule": "accept closest valid code", "seeded": "code typo: GS -> G", "verdict": "seeded error caught"}, "geometry": {"type": "Point", "coordinates": [-114.09221114459731, 51.02805009667578]}}, {"type": "Feature", "properties": {"P": 2093, "D": "G", "checks": "unknown_code", "findings": "unknown code 'G'", "action": "recode G -> GS", "rule": "accept closest valid code", "seeded": "code typo: GS -> G", "verdict": "seeded error caught"}, "geometry": {"type": "Point", "coordinates": [-114.09189886603265, 51.02820283597816]}}, {"type": "Feature", "properties": {"P": 1684, "D": "GS", "checks": "duplicate_point_number", "findings": "point number 1684 also used on row 685", "action": "renumber 1684 -> 2342", "rule": "later duplicate gets next free number", "seeded": "duplicate point number: P2136 recorded as P1684", "verdict": "seeded error caught"}, "geometry": {"type": "Point", "coordinates": [-114.09190861097946, 51.028408918582265]}}, {"type": "Feature", "properties": {"P": 2168, "D": "GS", "checks": "vertical_lidar", "findings": "Z 1081.094 vs LiDAR ground 1082.982 (dZ -1.89 m)", "action": "exclude from surface (flag for re-shot)", "rule": "blunder confirmed by LiDAR or |dZ| >= 1 m", "seeded": "elevation blunder: dZ -1.90 m (rod height)", "verdict": "seeded error caught"}, "geometry": {"type": "Point", "coordinates": [-114.0918834862491, 51.028535505178446]}}, {"type": "Feature", "properties": {"P": 2224, "D": "GS", "checks": "vertical_lidar", "findings": "Z 1081.771 vs LiDAR ground 1083.420 (dZ -1.65 m)", "action": "exclude from surface (flag for re-shot)", "rule": "blunder confirmed by LiDAR or |dZ| >= 1 m", "seeded": "elevation blunder: dZ -1.63 m (rod height)", "verdict": "seeded error caught"}, "geometry": {"type": "Point", "coordinates": [-114.09192131686058, 51.02875695615377]}}, {"type": "Feature", "properties": {"P": 2256, "D": "GS", "checks": "vertical_internal | vertical_lidar", "findings": "Z 1087.283 is +1.96 m off the local plane of 5 neighbours within 8 m (plane RMSE 0.04) | Z 1087.283 vs LiDAR ground 1085.308 (dZ +1.97 m)", "action": "exclude from surface (flag for re-shot)", "rule": "blunder confirmed by LiDAR or |dZ| >= 1 m", "seeded": "elevation blunder: dZ +1.98 m (rod height)", "verdict": "seeded error caught"}, "geometry": {"type": "Point", "coordinates": [-114.09256652594607, 51.02889750520271]}}, {"type": "Feature", "properties": {"P": 1398, "D": "GS", "checks": "duplicate_point_number", "findings": "point number 1398 also used on row 399", "action": "renumber 1398 -> 2343", "rule": "later duplicate gets next free number", "seeded": "duplicate point number: P2311 recorded as P1398", "verdict": "seeded error caught"}, "geometry": {"type": "Point", "coordinates": [-114.09236274918905, 51.02912463988769]}}], "crs": {"type": "name", "properties": {"name": "urn:ogc:def:crs:EPSG::4617"}}}